[
  {
    "id": 1,
    "name": "Surgery Center of Wisconsin Rapids, LLC",
    "specialty": "Ambulatory Surgical Center",
    "zip": "54494",
    "city": "WISCONSIN RAPIDS",
    "state": "WI",
    "address": "140 24TH ST S",
    "phone": "(715) 424-1881",
    "premium_savings": 5
  },
  {
    "id": 2,
    "name": "Cedarcrest Surgery Center, LLC",
    "specialty": "Ambulatory Surgical Center",
    "zip": "54868",
    "city": "RICE LAKE",
    "state": "WI",
    "address": "2200 CEDARCREST DRIVE, SUITE B",
    "phone": "(586) 864-6006",
    "premium_savings": 10
  },
  {
    "id": 3,
    "name": "Ambulatory Surgical Center of Stevens Point, LLC",
    "specialty": "Ambulatory Surgical Center",
    "zip": "54481",
    "city": "STEVENS POINT",
    "state": "WI",
    "address": "500 VINCENT STREET, SUITE A",
    "phone": "(715) 345-0500",
    "premium_savings": 15
  },
  {
    "id": 4,
    "name": "Lake Country Endoscopy Center, LLC",
    "specialty": "Ambulatory Surgical Center",
    "zip": "53066",
    "city": "OCONOMOWOC",
    "state": "WI",
    "address": "1185 CORPORATE CENTER DR, SUITE 125",
    "phone": "(414) 454-0600",
    "premium_savings": 20
  },
  {
    "id": 5,
    "name": "Stephen J Welka, DO",
    "specialty": "Cardiology",
    "zip": "53105",
    "city": "BURLINGTON",
    "state": "WI",
    "address": "248 MCHENRY ST",
    "phone": "(262) 767-8000",
    "premium_savings": 0
  },
  {
    "id": 6,
    "name": "Yasser S Salem, MD",
    "specialty": "Cardiology",
    "zip": "54143",
    "city": "MARINETTE",
    "state": "WI",
    "address": "1281 MARINETTE AVE",
    "phone": "(715) 330-7090",
    "premium_savings": 5
  },
  {
    "id": 7,
    "name": "Rajesh V Maddikunta, MD",
    "specialty": "Cardiology",
    "zip": "54701",
    "city": "EAU CLAIRE",
    "state": "WI",
    "address": "3802 OAKWOOD MALL DR",
    "phone": "(715) 839-9280",
    "premium_savings": 10
  },
  {
    "id": 8,
    "name": "Richard J Timmons Jr., MD",
    "specialty": "Cardiology",
    "zip": "54301",
    "city": "GREEN BAY",
    "state": "WI",
    "address": "744 S WEBSTER AVE, 2ND FLOOR",
    "phone": "(920) 433-3640",
    "premium_savings": 15
  },
  {
    "id": 9,
    "name": "Robert L Panther, MD",
    "specialty": "Cardiology",
    "zip": "53215",
    "city": "MILWAUKEE",
    "state": "WI",
    "address": "2801 W KINNICKINNIC RIVER PKWY, #840",
    "phone": "(414) 649-3530",
    "premium_savings": 20
  },
  {
    "id": 10,
    "name": "Francisco J Gamez, MD",
    "specialty": "Cardiology",
    "zip": "54143",
    "city": "MARINETTE",
    "state": "WI",
    "address": "3003 UNIVERSITY DR",
    "phone": "(715) 735-4200",
    "premium_savings": 0
  },
  {
    "id": 11,
    "name": "Abd G E Khatib, MD",
    "specialty": "Cardiology",
    "zip": "54701",
    "city": "EAU CLAIRE",
    "state": "WI",
    "address": "659 W HAMILTON AVE",
    "phone": "(715) 831-4444",
    "premium_savings": 5
  },
  {
    "id": 12,
    "name": "Abd G E Khatib, MD",
    "specialty": "Cardiology",
    "zip": "54701",
    "city": "EAU CLAIRE",
    "state": "WI",
    "address": "659 W HAMILTON AVE",
    "phone": "(715) 831-4444",
    "premium_savings": 10
  },
  {
    "id": 13,
    "name": "Lingam V Kumar, MD",
    "specialty": "Cardiology",
    "zip": "53215",
    "city": "MILWAUKEE",
    "state": "WI",
    "address": "3267 S 16TH ST, SUITE 104",
    "phone": "(414) 643-8500",
    "premium_savings": 15
  },
  {
    "id": 14,
    "name": "Brodie Richar Marthaler, MD",
    "specialty": "Cardiology",
    "zip": "54703",
    "city": "EAU CLAIRE",
    "state": "WI",
    "address": "1400 BELLINGER ST",
    "phone": "(715) 838-5222",
    "premium_savings": 20
  },
  {
    "id": 15,
    "name": "Salim M Shammo, MD",
    "specialty": "Cardiology",
    "zip": "53154",
    "city": "OAK CREEK",
    "state": "WI",
    "address": "7901 S 6TH ST",
    "phone": "(414) 346-8000",
    "premium_savings": 0
  },
  {
    "id": 16,
    "name": "Jeffrey Michael Bender, MD",
    "specialty": "Cardiology",
    "zip": "54703",
    "city": "EAU CLAIRE",
    "state": "WI",
    "address": "1400 BELLINGER ST",
    "phone": "(715) 838-5222",
    "premium_savings": 5
  },
  {
    "id": 17,
    "name": "Michael P Mcgill, MD",
    "specialty": "Cardiology",
    "zip": "54548",
    "city": "MINOCQUA",
    "state": "WI",
    "address": "9601 TOWNLINE RD",
    "phone": "(715) 358-1000",
    "premium_savings": 10
  },
  {
    "id": 18,
    "name": "Abdou a Elhendy, MD",
    "specialty": "Cardiology",
    "zip": "54449",
    "city": "MARSHFIELD",
    "state": "WI",
    "address": "1000 N OAK AVE",
    "phone": "(715) 387-5511",
    "premium_savings": 15
  },
  {
    "id": 19,
    "name": "Karen L Moncher, MD",
    "specialty": "Cardiology",
    "zip": "53715",
    "city": "MADISON",
    "state": "WI",
    "address": "202 S PARK ST",
    "phone": "(608) 267-5970",
    "premium_savings": 20
  },
  {
    "id": 20,
    "name": "Forefront Dermatology, S.C.",
    "specialty": "Dermatology",
    "zip": "54494",
    "city": "WISCONSIN RAPIDS",
    "state": "WI",
    "address": "420 DEWEY ST",
    "phone": "(715) 421-4500",
    "premium_savings": 0
  },
  {
    "id": 21,
    "name": "Steven J Hunter, MD",
    "specialty": "Dermatology",
    "zip": "53066",
    "city": "SUMMIT",
    "state": "WI",
    "address": "36500 AURORA DR",
    "phone": "(262) 434-5000",
    "premium_savings": 5
  },
  {
    "id": 22,
    "name": "Sean Forrest Pattee, MD",
    "specialty": "Dermatology",
    "zip": "54220",
    "city": "MANITOWOC",
    "state": "WI",
    "address": "1515 RANDOLPH CT",
    "phone": "(920) 683-5278",
    "premium_savings": 10
  },
  {
    "id": 23,
    "name": "Forefront Dermatology, S.C.",
    "specialty": "Dermatology",
    "zip": "54143",
    "city": "MARINETTE",
    "state": "WI",
    "address": "3515 MURRAY STREET",
    "phone": "(715) 732-0699",
    "premium_savings": 15
  },
  {
    "id": 24,
    "name": "Kyung Ai M Chae, MD",
    "specialty": "Dermatology",
    "zip": "54220",
    "city": "MANITOWOC",
    "state": "WI",
    "address": "801 YORK ST",
    "phone": "(920) 683-5278",
    "premium_savings": 20
  },
  {
    "id": 25,
    "name": "Tri V Nguyen, MD",
    "specialty": "Dermatology",
    "zip": "53105",
    "city": "BURLINGTON",
    "state": "WI",
    "address": "248 MCHENRY ST",
    "phone": "(262) 767-8267",
    "premium_savings": 0
  },
  {
    "id": 26,
    "name": "Diane Thaler, MD",
    "specialty": "Dermatology",
    "zip": "54235",
    "city": "STURGEON BAY",
    "state": "WI",
    "address": "33 GREEN BAY RD",
    "phone": "(920) 683-5278",
    "premium_savings": 5
  },
  {
    "id": 27,
    "name": "Kurt W Grelck, DO",
    "specialty": "Dermatology",
    "zip": "54482",
    "city": "STEVENS POINT",
    "state": "WI",
    "address": "5501A VERN HOLMES DR",
    "phone": "(715) 849-5333",
    "premium_savings": 10
  },
  {
    "id": 28,
    "name": "Sheila S Galbraith, MD",
    "specialty": "Dermatology",
    "zip": "54701",
    "city": "EAU CLAIRE",
    "state": "WI",
    "address": "733 W CLAIREMONT AVE, PEDIATRIC DERMATOLOGY",
    "phone": "(715) 838-5222",
    "premium_savings": 15
  },
  {
    "id": 29,
    "name": "Lawrence C Scherrer, MD",
    "specialty": "Dermatology",
    "zip": "54701",
    "city": "EAU CLAIRE",
    "state": "WI",
    "address": "2116 CRAIG ROAD",
    "phone": "(715) 858-4747",
    "premium_savings": 20
  },
  {
    "id": 30,
    "name": "Forefront Dermatology, S.C.",
    "specialty": "Dermatology",
    "zip": "54154",
    "city": "OCONTO FALLS",
    "state": "WI",
    "address": "835 S MAIN ST, SUITE 1",
    "phone": "(920) 846-4864",
    "premium_savings": 0
  },
  {
    "id": 31,
    "name": "Shubhi Sehgal, MD",
    "specialty": "Endocrinology",
    "zip": "53066",
    "city": "SUMMIT",
    "state": "WI",
    "address": "36500 AURORA DR",
    "phone": "(262) 434-5000",
    "premium_savings": 5
  },
  {
    "id": 32,
    "name": "Kent E Ray, MD",
    "specialty": "Endocrinology",
    "zip": "54701",
    "city": "EAU CLAIRE",
    "state": "WI",
    "address": "2116 CRAIG RD",
    "phone": "(715) 858-4500",
    "premium_savings": 10
  },
  {
    "id": 33,
    "name": "Shankar S Bettadahalli MD",
    "specialty": "Endocrinology",
    "zip": "54449",
    "city": "MARSHFIELD",
    "state": "WI",
    "address": "1000 N OAK AVE",
    "phone": "(715) 387-5511",
    "premium_savings": 15
  },
  {
    "id": 34,
    "name": "Charles T Bingham, MD",
    "specialty": "Endocrinology",
    "zip": "54703",
    "city": "EAU CLAIRE",
    "state": "WI",
    "address": "1400 BELLINGER ST",
    "phone": "(715) 838-5222",
    "premium_savings": 20
  },
  {
    "id": 35,
    "name": "Beret a Casey MD",
    "specialty": "Endocrinology",
    "zip": "54806",
    "city": "ASHLAND",
    "state": "WI",
    "address": "1615 MAPLE LN STE 1",
    "phone": "(715) 685-7500",
    "premium_savings": 0
  },
  {
    "id": 36,
    "name": "David M You, MD",
    "specialty": "Gastroenterology",
    "zip": "54449",
    "city": "MARSHFIELD",
    "state": "WI",
    "address": "1000 N OAK AVE",
    "phone": "(715) 387-5511",
    "premium_savings": 5
  },
  {
    "id": 37,
    "name": "Mitchell W Manthey, MD",
    "specialty": "Gastroenterology",
    "zip": "54311",
    "city": "GREEN BAY",
    "state": "WI",
    "address": "2845 GREENBRIER RD, SUITE 140",
    "phone": "(920) 288-8100",
    "premium_savings": 10
  },
  {
    "id": 38,
    "name": "Rajesh Sharma, MD",
    "specialty": "Gastroenterology",
    "zip": "54241",
    "city": "TWO RIVERS",
    "state": "WI",
    "address": "5300 MEMORIAL DR",
    "phone": "(920) 793-7548",
    "premium_savings": 15
  },
  {
    "id": 39,
    "name": "Jeremy Robert Anclam DO",
    "specialty": "Gastroenterology",
    "zip": "54220",
    "city": "MANITOWOC",
    "state": "WI",
    "address": "1900 WOODLAND DR",
    "phone": "(920) 320-6212",
    "premium_savings": 20
  },
  {
    "id": 40,
    "name": "Joel M Carlson, MD",
    "specialty": "Gastroenterology",
    "zip": "54495",
    "city": "WISCONSIN RAPIDS",
    "state": "WI",
    "address": "420 DEWEY STREET",
    "phone": "(715) 421-1001",
    "premium_savings": 0
  },
  {
    "id": 41,
    "name": "Tatyana Taranukha MD",
    "specialty": "Gastroenterology",
    "zip": "53066",
    "city": "SUMMIT",
    "state": "WI",
    "address": "36500 AURORA DR",
    "phone": "(262) 434-1000",
    "premium_savings": 5
  },
  {
    "id": 42,
    "name": "Jamie Zighelboim, MD",
    "specialty": "Gastroenterology",
    "zip": "54703",
    "city": "EAU CLAIRE",
    "state": "WI",
    "address": "1221 WHIPPLE ST",
    "phone": "(715) 838-5222",
    "premium_savings": 10
  },
  {
    "id": 43,
    "name": "Helen H Lantz, MD",
    "specialty": "Gastroenterology",
    "zip": "53226",
    "city": "WAUWATOSA",
    "state": "WI",
    "address": "1033 N MAYFAIR RD, SUITE 101",
    "phone": "(414) 454-0600",
    "premium_savings": 15
  },
  {
    "id": 44,
    "name": "Hfm Internal Medicine & Gastroenterology",
    "specialty": "Gastroenterology",
    "zip": null,
    "city": null,
    "state": null,
    "address": null,
    "phone": null,
    "premium_savings": 20
  },
  {
    "id": 45,
    "name": "Tedd P Cain, MD",
    "specialty": "Gastroenterology",
    "zip": "53215",
    "city": "MILWAUKEE",
    "state": "WI",
    "address": "2801 W KINNICKINNIC RIVER PKWY STE 1080",
    "phone": "(414) 908-6615",
    "premium_savings": 0
  },
  {
    "id": 46,
    "name": "Christopher Arthur Young MD",
    "specialty": "Gastroenterology",
    "zip": "54401",
    "city": "WAUSAU",
    "state": "WI",
    "address": "411 WESTWOOD DR",
    "phone": "(715) 847-2558",
    "premium_savings": 5
  },
  {
    "id": 47,
    "name": "James M Heun, MD",
    "specialty": "Hematology & Oncology",
    "zip": "53715",
    "city": "MADISON",
    "state": "WI",
    "address": "1211 FISH HATCHERY RD.",
    "phone": "(608) 252-8000",
    "premium_savings": 10
  },
  {
    "id": 48,
    "name": "Syed N Haider, MD",
    "specialty": "Hematology & Oncology",
    "zip": "53158",
    "city": "PLEASANT PRAIRIE",
    "state": "WI",
    "address": "9555 76TH ST STE 1200",
    "phone": "(262) 671-7300",
    "premium_savings": 15
  },
  {
    "id": 49,
    "name": "Emmanouil Alimpertis, MD",
    "specialty": "Hematology & Oncology",
    "zip": "54143",
    "city": "MARINETTE",
    "state": "WI",
    "address": "3003 UNIVERSITY DR",
    "phone": "(715) 735-4200",
    "premium_savings": 20
  },
  {
    "id": 50,
    "name": "Thomas H Zukowski, MD",
    "specialty": "Hematology & Oncology",
    "zip": "53024",
    "city": "GRAFTON",
    "state": "WI",
    "address": "975 PORT WASHINGTON RD",
    "phone": "(262) 329-5000",
    "premium_savings": 0
  },
  {
    "id": 51,
    "name": "Seth O Fagbemi, MD",
    "specialty": "Hematology & Oncology",
    "zip": "54449",
    "city": "MARSHFIELD",
    "state": "WI",
    "address": "1000 N OAK AVE",
    "phone": "(715) 387-5426",
    "premium_savings": 5
  },
  {
    "id": 52,
    "name": "Dean a Delmastro, MD",
    "specialty": "Hematology & Oncology",
    "zip": "54701",
    "city": "EAU CLAIRE",
    "state": "WI",
    "address": "900 W CLAIREMONT AVE",
    "phone": "(715) 839-3956",
    "premium_savings": 10
  },
  {
    "id": 53,
    "name": "Joanna C Zurko",
    "specialty": "Hematology & Oncology",
    "zip": "53226",
    "city": "MILWAUKEE",
    "state": "WI",
    "address": "9200 W WISCONSIN AVE",
    "phone": "(414) 805-3000",
    "premium_savings": 15
  },
  {
    "id": 54,
    "name": "Michael F. Husak, MD",
    "specialty": "Hematology & Oncology",
    "zip": "54868",
    "city": "RICE LAKE",
    "state": "WI",
    "address": "1700 W. STOUT ST.",
    "phone": "(715) 236-8100",
    "premium_savings": 20
  },
  {
    "id": 55,
    "name": "Jon P Konzen, DO",
    "specialty": "Neurology",
    "zip": "54701",
    "city": "EAU CLAIRE",
    "state": "WI",
    "address": "3506 OAKWOOD MALL DR STE A",
    "phone": "(715) 831-0811",
    "premium_savings": 0
  },
  {
    "id": 56,
    "name": "Chippewa Valley Neurosciences, LLC",
    "specialty": "Neurology",
    "zip": null,
    "city": null,
    "state": null,
    "address": null,
    "phone": null,
    "premium_savings": 5
  },
  {
    "id": 57,
    "name": "Chippewa Valley Neurosciences, LLC",
    "specialty": "Neurology",
    "zip": "54701",
    "city": "EAU CLAIRE",
    "state": "WI",
    "address": "950 W CLAIREMONT AVE, SUITE B",
    "phone": "(715) 831-0811",
    "premium_savings": 10
  },
  {
    "id": 58,
    "name": "Mhd Kher Heder, MD",
    "specialty": "Neurology",
    "zip": "53066",
    "city": "SUMMIT",
    "state": "WI",
    "address": "36500 AURORA DR",
    "phone": "(262) 434-5000",
    "premium_savings": 15
  },
  {
    "id": 59,
    "name": "Felix E Chukwudelunzu, MD",
    "specialty": "Neurology",
    "zip": "54703",
    "city": "EAU CLAIRE",
    "state": "WI",
    "address": "1400 BELLINGER ST",
    "phone": "(715) 838-5222",
    "premium_savings": 20
  },
  {
    "id": 60,
    "name": "David a Nye, MD",
    "specialty": "Neurology",
    "zip": "54703",
    "city": "EAU CLAIRE",
    "state": "WI",
    "address": "1400 BELLINGER ST",
    "phone": "(715) 838-5222",
    "premium_savings": 0
  },
  {
    "id": 61,
    "name": "Darryl M. Prince, MD",
    "specialty": "Neurology",
    "zip": "53188",
    "city": "WAUKESHA",
    "state": "WI",
    "address": "1111 DELAFIELD ST STE 105",
    "phone": "(262) 542-9503",
    "premium_savings": 5
  },
  {
    "id": 62,
    "name": "Leonardo G Fugoso Jr., MD",
    "specialty": "Neurology",
    "zip": "54701",
    "city": "EAU CLAIRE",
    "state": "WI",
    "address": "733 W CLAIREMONT AVE",
    "phone": "(715) 838-5222",
    "premium_savings": 10
  },
  {
    "id": 63,
    "name": "Ellen L Parris, MD",
    "specialty": "Neurology",
    "zip": null,
    "city": null,
    "state": null,
    "address": null,
    "phone": null,
    "premium_savings": 15
  },
  {
    "id": 64,
    "name": "Timothy J Young, MD",
    "specialty": "Neurology",
    "zip": "54703",
    "city": "EAU CLAIRE",
    "state": "WI",
    "address": "1221 WHIPPLE ST",
    "phone": "(715) 838-5222",
    "premium_savings": 20
  },
  {
    "id": 65,
    "name": "Melissa L Emmerich, MD",
    "specialty": "Obstetrics & Gynecology",
    "zip": "54701",
    "city": "EAU CLAIRE",
    "state": "WI",
    "address": "2116 CRAIG ROAD",
    "phone": "(715) 858-4630",
    "premium_savings": 0
  },
  {
    "id": 66,
    "name": "Lisa M Jamison, MD",
    "specialty": "Obstetrics & Gynecology",
    "zip": "54481",
    "city": "STEVENS POINT",
    "state": "WI",
    "address": "824 ILLINOIS AVENUE",
    "phone": "(715) 342-7500",
    "premium_savings": 5
  },
  {
    "id": 67,
    "name": "Kim C Mackey, MD",
    "specialty": "Obstetrics & Gynecology",
    "zip": "53913",
    "city": "BARABOO",
    "state": "WI",
    "address": "1700 TUTTLE ST.",
    "phone": "(608) 355-3800",
    "premium_savings": 10
  },
  {
    "id": 68,
    "name": "Susan M Hagnell, MD",
    "specialty": "Obstetrics & Gynecology",
    "zip": "53147",
    "city": "LAKE GENEVA",
    "state": "WI",
    "address": "146 E GENEVA SQ",
    "phone": "(262) 249-5005",
    "premium_savings": 15
  },
  {
    "id": 69,
    "name": "Samuel Joseph Sillitti MD",
    "specialty": "Obstetrics & Gynecology",
    "zip": "54703",
    "city": "EAU CLAIRE",
    "state": "WI",
    "address": "1400 BELLINGER ST",
    "phone": "(715) 838-5222",
    "premium_savings": 20
  },
  {
    "id": 70,
    "name": "Michael L Pech, MD",
    "specialty": "Obstetrics & Gynecology",
    "zip": "53948",
    "city": "MAUSTON",
    "state": "WI",
    "address": "1040 DIVISION ST",
    "phone": "(608) 847-5000",
    "premium_savings": 0
  },
  {
    "id": 71,
    "name": "Christina R Kramer MD",
    "specialty": "Obstetrics & Gynecology",
    "zip": "54701",
    "city": "EAU CLAIRE",
    "state": "WI",
    "address": "3213 STEIN BLVD",
    "phone": "(715) 836-9242",
    "premium_savings": 5
  },
  {
    "id": 72,
    "name": "Jennifer S Bantz, MD",
    "specialty": "Obstetrics & Gynecology",
    "zip": "54703",
    "city": "EAU CLAIRE",
    "state": "WI",
    "address": "1400 BELLINGER ST",
    "phone": "(715) 838-5222",
    "premium_savings": 10
  },
  {
    "id": 73,
    "name": "Thomas R Guse, MD",
    "specialty": "Orthopedic Surgery",
    "zip": "54481",
    "city": "STEVENS POINT",
    "state": "WI",
    "address": "500 VINCENT ST",
    "phone": "(715) 344-0701",
    "premium_savings": 15
  },
  {
    "id": 74,
    "name": "Jeff J Tavassoli, DO",
    "specialty": "Orthopedic Surgery",
    "zip": "54449",
    "city": "MARSHFIELD",
    "state": "WI",
    "address": "1000 N OAK AVE",
    "phone": "(715) 387-5202",
    "premium_savings": 20
  },
  {
    "id": 75,
    "name": "Marcus J Haemmerle, MD",
    "specialty": "Orthopedic Surgery",
    "zip": "54481",
    "city": "STEVENS POINT",
    "state": "WI",
    "address": "500 VINCENT ST",
    "phone": "(715) 344-0701",
    "premium_savings": 0
  },
  {
    "id": 76,
    "name": "Shawn E Schoch, MD",
    "specialty": "Orthopedic Surgery",
    "zip": "53066",
    "city": "SUMMIT",
    "state": "WI",
    "address": "36500 AURORA DR",
    "phone": "(262) 434-1000",
    "premium_savings": 5
  },
  {
    "id": 77,
    "name": "Sarah M Lamont MD",
    "specialty": "Orthopedic Surgery",
    "zip": "53105",
    "city": "BURLINGTON",
    "state": "WI",
    "address": "709 SPRING VALLEY RD",
    "phone": "(262) 767-6020",
    "premium_savings": 10
  },
  {
    "id": 78,
    "name": "Thomas C Smedberg, MD",
    "specialty": "Orthopedic Surgery",
    "zip": "53916",
    "city": "BEAVER DAM",
    "state": "WI",
    "address": "118 W MAPLE AVE",
    "phone": "(920) 356-1000",
    "premium_savings": 15
  },
  {
    "id": 79,
    "name": "Jason John Potocki, MD",
    "specialty": "Orthopedic Surgery",
    "zip": "54481",
    "city": "STEVENS POINT",
    "state": "WI",
    "address": "500 VINCENT ST",
    "phone": "(715) 997-9813",
    "premium_savings": 20
  },
  {
    "id": 80,
    "name": "Orthopaedic Centers of Wisconsin, S.C.",
    "specialty": "Orthopedic Surgery",
    "zip": "54481",
    "city": "STEVENS POINT",
    "state": "WI",
    "address": "500 VINCENT ST",
    "phone": "(715) 344-0701",
    "premium_savings": 0
  },
  {
    "id": 81,
    "name": "Jonathan E Webb, MD",
    "specialty": "Orthopedic Surgery",
    "zip": "54703",
    "city": "EAU CLAIRE",
    "state": "WI",
    "address": "1400 BELLINGER ST",
    "phone": "(715) 838-5222",
    "premium_savings": 5
  },
  {
    "id": 82,
    "name": "Timothy J Schnettler, MD",
    "specialty": "Orthopedic Surgery",
    "zip": "53066",
    "city": "SUMMIT",
    "state": "WI",
    "address": "36500 AURORA DR",
    "phone": "(262) 434-1000",
    "premium_savings": 10
  },
  {
    "id": 83,
    "name": "Gearin a Green MD",
    "specialty": "Orthopedic Surgery",
    "zip": "54911",
    "city": "APPLETON",
    "state": "WI",
    "address": "2400 E CAPITOL DR",
    "phone": "(920) 831-5050",
    "premium_savings": 15
  },
  {
    "id": 84,
    "name": "James M Banovetz, MD",
    "specialty": "Orthopedic Surgery",
    "zip": "54481",
    "city": "STEVENS POINT",
    "state": "WI",
    "address": "500 VINCENT ST",
    "phone": "(715) 344-0701",
    "premium_savings": 20
  },
  {
    "id": 85,
    "name": "Joshua D Troyer, MD",
    "specialty": "Orthopedic Surgery",
    "zip": "54481",
    "city": "STEVENS POINT",
    "state": "WI",
    "address": "500 VINCENT ST",
    "phone": "(715) 344-0701",
    "premium_savings": 0
  },
  {
    "id": 86,
    "name": "Wisconsin River Orthopaedics, LTD.",
    "specialty": "Orthopedic Surgery",
    "zip": "54494",
    "city": "WISCONSIN RAPIDS",
    "state": "WI",
    "address": "140 24TH ST S",
    "phone": "(715) 424-1881",
    "premium_savings": 5
  },
  {
    "id": 87,
    "name": "Ryan Michael Dopirak, MD",
    "specialty": "Orthopedic Surgery",
    "zip": "53226",
    "city": "MILWAUKEE",
    "state": "WI",
    "address": "9200 W WISCONSIN AVE",
    "phone": "(414) 805-7400",
    "premium_savings": 10
  },
  {
    "id": 88,
    "name": "Adnan Zaidi, MD",
    "specialty": "Orthopedic Surgery",
    "zip": "53027",
    "city": "HARTFORD",
    "state": "WI",
    "address": "1640 E SUMNER ST",
    "phone": "(262) 670-4000",
    "premium_savings": 15
  },
  {
    "id": 89,
    "name": "Jeffrey M Lawrence, MD",
    "specialty": "Orthopedic Surgery",
    "zip": "54665",
    "city": "VIROQUA",
    "state": "WI",
    "address": "407 S MAIN ST",
    "phone": "(608) 637-3195",
    "premium_savings": 20
  },
  {
    "id": 90,
    "name": "Todd M Williams, MD",
    "specialty": "Orthopedic Surgery",
    "zip": "54481",
    "city": "STEVENS POINT",
    "state": "WI",
    "address": "500 VINCENT ST",
    "phone": "(715) 344-0701",
    "premium_savings": 0
  },
  {
    "id": 91,
    "name": "Thomas a Zdeblick, MD",
    "specialty": "Orthopedic Surgery",
    "zip": "53713",
    "city": "MADISON",
    "state": "WI",
    "address": "2501 W BELTLINE HWY STE 601",
    "phone": "(608) 234-7436",
    "premium_savings": 5
  },
  {
    "id": 92,
    "name": "Carl a Diraimondo, MD",
    "specialty": "Orthopedic Surgery",
    "zip": "54220",
    "city": "MANITOWOC",
    "state": "WI",
    "address": "1111 BAYSHORE DR",
    "phone": "(920) 682-6376",
    "premium_savings": 10
  },
  {
    "id": 93,
    "name": "Wisconsin River Orthopaedics, LTD.",
    "specialty": "Orthopedic Surgery",
    "zip": null,
    "city": null,
    "state": null,
    "address": null,
    "phone": null,
    "premium_savings": 15
  },
  {
    "id": 94,
    "name": "Jonathan C Henry, MD",
    "specialty": "Orthopedic Surgery",
    "zip": "54220",
    "city": "MANITOWOC",
    "state": "WI",
    "address": "1111 BAYSHORE DR",
    "phone": "(920) 682-6376",
    "premium_savings": 20
  },
  {
    "id": 95,
    "name": "Robert Anthony Cagle MD",
    "specialty": "Orthopedic Surgery",
    "zip": "54449",
    "city": "MARSHFIELD",
    "state": "WI",
    "address": "1000 N OAK AVE",
    "phone": "(715) 387-5511",
    "premium_savings": 0
  },
  {
    "id": 96,
    "name": "Daniel J Tomaszewski, MD",
    "specialty": "Orthopedic Surgery",
    "zip": "54235",
    "city": "STURGEON BAY",
    "state": "WI",
    "address": "323 S 18TH AVE",
    "phone": "(920) 746-0510",
    "premium_savings": 5
  },
  {
    "id": 97,
    "name": "Robert P Limoni, MD",
    "specialty": "Orthopedic Surgery",
    "zip": "54913",
    "city": "APPLETON",
    "state": "WI",
    "address": "5320 W MICHAELS DR",
    "phone": "(920) 882-8200",
    "premium_savings": 10
  },
  {
    "id": 98,
    "name": "Steven P Rhodes, MD",
    "specialty": "Orthopedic Surgery",
    "zip": "53098",
    "city": "WATERTOWN",
    "state": "WI",
    "address": "123 HOSPITAL DR, SUITE 1008",
    "phone": "(920) 206-6500",
    "premium_savings": 15
  },
  {
    "id": 99,
    "name": "Douglas P Galuk, MD",
    "specialty": "Orthopedic Surgery",
    "zip": "54494",
    "city": "WISCONSIN RAPIDS",
    "state": "WI",
    "address": "140 24TH ST S",
    "phone": "(715) 424-1881",
    "premium_savings": 20
  },
  {
    "id": 100,
    "name": "Robert C Seipel, MD",
    "specialty": "Orthopedic Surgery",
    "zip": "53916",
    "city": "BEAVER DAM",
    "state": "WI",
    "address": "705 S UNIVERSITY AVE STE 150",
    "phone": "(920) 219-4009",
    "premium_savings": 0
  },
  {
    "id": 101,
    "name": "Andrew a Lehman, MD",
    "specialty": "Orthopedic Surgery",
    "zip": "54665",
    "city": "VIROQUA",
    "state": "WI",
    "address": "407 S MAIN ST",
    "phone": "(608) 637-3195",
    "premium_savings": 5
  },
  {
    "id": 102,
    "name": "John W Horan, MD",
    "specialty": "Orthopedic Surgery",
    "zip": "53948",
    "city": "MAUSTON",
    "state": "WI",
    "address": "1040 DIVISION ST",
    "phone": "(608) 847-5000",
    "premium_savings": 10
  },
  {
    "id": 103,
    "name": "James Michael Grannell, DO",
    "specialty": "Orthopedic Surgery",
    "zip": "53948",
    "city": "MAUSTON",
    "state": "WI",
    "address": "1040 DIVISION ST",
    "phone": "(608) 847-5000",
    "premium_savings": 15
  },
  {
    "id": 104,
    "name": "Joseph Daniel Mueller, DO",
    "specialty": "Orthopedic Surgery",
    "zip": "53901",
    "city": "PORTAGE",
    "state": "WI",
    "address": "2817 NEW PINERY RD",
    "phone": "(608) 742-4131",
    "premium_savings": 20
  },
  {
    "id": 105,
    "name": "Richard G Rilling, MD",
    "specialty": "Orthopedic Surgery",
    "zip": "53589",
    "city": "STOUGHTON",
    "state": "WI",
    "address": "225 CHURCH ST, DEAN MEDICAL CENTER",
    "phone": "(608) 877-2700",
    "premium_savings": 0
  },
  {
    "id": 106,
    "name": "Kalyna Jakibchuk MD",
    "specialty": "Rheumatology",
    "zip": "54501",
    "city": "RHINELANDER",
    "state": "WI",
    "address": "2251 N SHORE DR",
    "phone": "(715) 361-4700",
    "premium_savings": 5
  },
  {
    "id": 107,
    "name": "Vaida M Stoik, MD",
    "specialty": "Rheumatology",
    "zip": "54311",
    "city": "GREEN BAY",
    "state": "WI",
    "address": "2845 GREENBRIER RD, 1ST FLOOR",
    "phone": "(920) 288-8100",
    "premium_savings": 10
  },
  {
    "id": 108,
    "name": "Iryna Nemesh, MD",
    "specialty": "Rheumatology",
    "zip": "53185",
    "city": "WATERFORD",
    "state": "WI",
    "address": "818 FOREST LN",
    "phone": "(262) 514-3700",
    "premium_savings": 15
  },
  {
    "id": 109,
    "name": "Lisa Francis, MD",
    "specialty": "Rheumatology",
    "zip": "54449",
    "city": "MARSHFIELD",
    "state": "WI",
    "address": "1000 N OAK AVE",
    "phone": "(715) 387-5682",
    "premium_savings": 20
  },
  {
    "id": 110,
    "name": "Alexander Eye Surgery Center, LLC",
    "specialty": "Ambulatory Surgical Center",
    "zip": "54913",
    "city": "APPLETON",
    "state": "WI",
    "address": "250 N METRO DR",
    "phone": "(920) 830-2020",
    "premium_savings": 0
  },
  {
    "id": 111,
    "name": "Orthopedic & Sports Surgery Center",
    "specialty": "Ambulatory Surgical Center",
    "zip": "54913",
    "city": "APPLETON",
    "state": "WI",
    "address": "2105 E. ENTERPRISE AVE., SUITE 101",
    "phone": "(920) 560-1100",
    "premium_savings": 5
  },
  {
    "id": 112,
    "name": "Baycare Aurora Kaukauna Surgery Center, LLC",
    "specialty": "Ambulatory Surgical Center",
    "zip": "54130",
    "city": "KAUKAUNA",
    "state": "WI",
    "address": "1500 ARBOR WAY",
    "phone": "(920) 372-7150",
    "premium_savings": 10
  },
  {
    "id": 113,
    "name": "Woodland Surgery Center, LLC",
    "specialty": "Ambulatory Surgical Center",
    "zip": "54913",
    "city": "APPLETON",
    "state": "WI",
    "address": "2325 N CASALOMA DR",
    "phone": "(920) 730-2885",
    "premium_savings": 15
  },
  {
    "id": 114,
    "name": "John M Frangiskakis, MD",
    "specialty": "Cardiology",
    "zip": "53718",
    "city": "MADISON",
    "state": "WI",
    "address": "4652 S BILTMORE LN",
    "phone": "(608) 924-5655",
    "premium_savings": 20
  },
  {
    "id": 115,
    "name": "Ameer Kabour, MD",
    "specialty": "Cardiology",
    "zip": "54911",
    "city": "APPLETON",
    "state": "WI",
    "address": "1818 N MEADE ST",
    "phone": "(920) 731-8900",
    "premium_savings": 0
  },
  {
    "id": 116,
    "name": "Carrie B Chapman MD",
    "specialty": "Cardiology",
    "zip": "54913",
    "city": "APPLETON",
    "state": "WI",
    "address": "5045 W GRANDE MARKET DR",
    "phone": "(920) 886-9380",
    "premium_savings": 5
  },
  {
    "id": 117,
    "name": "Thomas M Tamlyn, MD",
    "specialty": "Cardiology",
    "zip": "54913",
    "city": "APPLETON",
    "state": "WI",
    "address": "5045 W GRANDE MARKET DR",
    "phone": "(920) 886-9380",
    "premium_savings": 10
  },
  {
    "id": 118,
    "name": "Patrick C Mannebach, MD",
    "specialty": "Cardiology",
    "zip": "54913",
    "city": "APPLETON",
    "state": "WI",
    "address": "5045 W GRANDE MARKET DR",
    "phone": "(920) 886-9380",
    "premium_savings": 15
  },
  {
    "id": 119,
    "name": "Charles N Kagen, MD",
    "specialty": "Dermatology",
    "zip": "54911",
    "city": "APPLETON",
    "state": "WI",
    "address": "100 W LAWRENCE ST, SUITE 409",
    "phone": "(920) 733-5138",
    "premium_savings": 20
  },
  {
    "id": 120,
    "name": "Keith Dineen Wagner, MD",
    "specialty": "Dermatology",
    "zip": "54913",
    "city": "APPLETON",
    "state": "WI",
    "address": "3935 N LIGHTNING DR",
    "phone": "(920) 968-1790",
    "premium_savings": 0
  },
  {
    "id": 121,
    "name": "Laura a Andrews, MD",
    "specialty": "Endocrinology",
    "zip": "54952",
    "city": "MENASHA",
    "state": "WI",
    "address": "1550 MIDWAY PL",
    "phone": "(920) 727-8030",
    "premium_savings": 5
  },
  {
    "id": 122,
    "name": "Timothy P Roarty, MD",
    "specialty": "Gastroenterology",
    "zip": "54911",
    "city": "APPLETON",
    "state": "WI",
    "address": "2500 E CAPITOL DR STE 1700",
    "phone": "(920) 731-8131",
    "premium_savings": 10
  },
  {
    "id": 123,
    "name": "Demytra Krista Lee Mihailidis, MD",
    "specialty": "Hematology & Oncology",
    "zip": "54911",
    "city": "APPLETON",
    "state": "WI",
    "address": "2500 E CAPITOL DR",
    "phone": "(920) 364-3600",
    "premium_savings": 15
  },
  {
    "id": 124,
    "name": "Thomas a Klinkhammer, MD",
    "specialty": "Hematology & Oncology",
    "zip": "54476",
    "city": "WESTON",
    "state": "WI",
    "address": "3301 CRANBERRY BLVD",
    "phone": "(715) 393-3900",
    "premium_savings": 20
  },
  {
    "id": 125,
    "name": "Harsha V Poola, MD",
    "specialty": "Hematology & Oncology",
    "zip": "54911",
    "city": "APPLETON",
    "state": "WI",
    "address": "2500 E CAPITOL DR",
    "phone": "(920) 364-3600",
    "premium_savings": 0
  },
  {
    "id": 126,
    "name": "Elina X Pfaffenbach, MD",
    "specialty": "Obstetrics & Gynecology",
    "zip": "54911",
    "city": "APPLETON",
    "state": "WI",
    "address": "1818 N MEADE ST",
    "phone": "(920) 749-4000",
    "premium_savings": 5
  },
  {
    "id": 127,
    "name": "Jay M Minorik, MD",
    "specialty": "Orthopedic Surgery",
    "zip": "54913",
    "city": "APPLETON",
    "state": "WI",
    "address": "2105 E ENTERPRISE AVE",
    "phone": "(920) 560-1000",
    "premium_savings": 10
  },
  {
    "id": 128,
    "name": "Boyd C Lumsden, MD",
    "specialty": "Orthopedic Surgery",
    "zip": "54913",
    "city": "APPLETON",
    "state": "WI",
    "address": "2323 N CASALOMA DR",
    "phone": "(920) 730-8833",
    "premium_savings": 15
  },
  {
    "id": 129,
    "name": "David C Ritzow, MD",
    "specialty": "Orthopedic Surgery",
    "zip": "54913",
    "city": "APPLETON",
    "state": "WI",
    "address": "2105 E ENTERPRISE AVE, STE 111",
    "phone": "(920) 731-6611",
    "premium_savings": 20
  },
  {
    "id": 130,
    "name": "Timothy S Mologne, MD",
    "specialty": "Orthopedic Surgery",
    "zip": "54913",
    "city": "APPLETON",
    "state": "WI",
    "address": "2105 E ENTERPRISE AVE # 111",
    "phone": "(920) 731-6611",
    "premium_savings": 0
  },
  {
    "id": 131,
    "name": "Kenneth L Schaufelberger, MD",
    "specialty": "Orthopedic Surgery",
    "zip": "54913",
    "city": "APPLETON",
    "state": "WI",
    "address": "2105 E ENTERPRISE AVE",
    "phone": "(920) 560-1000",
    "premium_savings": 5
  },
  {
    "id": 132,
    "name": "Eric W Erickson, MD",
    "specialty": "Orthopedic Surgery",
    "zip": "54911",
    "city": "APPLETON",
    "state": "WI",
    "address": "820 E GRANT ST",
    "phone": "(920) 831-5050",
    "premium_savings": 10
  },
  {
    "id": 133,
    "name": "Eric C Gowing, MD",
    "specialty": "Rheumatology",
    "zip": "54956",
    "city": "NEENAH",
    "state": "WI",
    "address": "1205 W AMERICAN DR",
    "phone": "(920) 430-8113",
    "premium_savings": 15
  },
  {
    "id": 134,
    "name": "Independent Surgery Center, LLC",
    "specialty": "Ambulatory Surgical Center",
    "zip": "54729",
    "city": "CHIPPEWA FALLS",
    "state": "WI",
    "address": "2751 COMMERCIAL BLVD, SUITE 7",
    "phone": "(715) 797-8310",
    "premium_savings": 20
  },
  {
    "id": 135,
    "name": "Defatta ENT & Plastics Surgery, SC",
    "specialty": "Ambulatory Surgical Center",
    "zip": "54720",
    "city": "ALTOONA",
    "state": "WI",
    "address": "1470 RIVERS EDGE TRL STE B",
    "phone": "(715) 379-8718",
    "premium_savings": 0
  },
  {
    "id": 136,
    "name": "Kunle Onade, MD",
    "specialty": "Dermatology",
    "zip": "54729",
    "city": "CHIPPEWA FALLS",
    "state": "WI",
    "address": "855 LAKELAND DR",
    "phone": "(715) 839-9280",
    "premium_savings": 5
  },
  {
    "id": 137,
    "name": "Thomas P Peller MD, SC",
    "specialty": "Gastroenterology",
    "zip": null,
    "city": null,
    "state": null,
    "address": null,
    "phone": null,
    "premium_savings": 10
  },
  {
    "id": 138,
    "name": "Thomas P Peller MD, SC",
    "specialty": "Gastroenterology",
    "zip": "54701",
    "city": "EAU CLAIRE",
    "state": "WI",
    "address": "714 W HAMILTON AVE",
    "phone": "(715) 830-9990",
    "premium_savings": 15
  },
  {
    "id": 139,
    "name": "Thomas P Peller, MD",
    "specialty": "Gastroenterology",
    "zip": "54701",
    "city": "EAU CLAIRE",
    "state": "WI",
    "address": "714 W HAMILTON AVE",
    "phone": "(715) 830-9990",
    "premium_savings": 20
  },
  {
    "id": 140,
    "name": "Brent D Carlson, MD",
    "specialty": "Orthopedic Surgery",
    "zip": "54720",
    "city": "ALTOONA",
    "state": "WI",
    "address": "1200 OAKLEAF WAY, SUITE A",
    "phone": "(715) 832-1400",
    "premium_savings": 0
  },
  {
    "id": 141,
    "name": "Austin J Crow, MD",
    "specialty": "Orthopedic Surgery",
    "zip": "54720",
    "city": "ALTOONA",
    "state": "WI",
    "address": "1200 OAKLEAF WAY, SUITE A",
    "phone": "(715) 832-1400",
    "premium_savings": 5
  },
  {
    "id": 142,
    "name": "Mark a Mccarthy, PA",
    "specialty": "Orthopedic Surgery",
    "zip": "54720",
    "city": "ALTOONA",
    "state": "WI",
    "address": "1200 OAKLEAF WAY STE A",
    "phone": "(715) 832-1400",
    "premium_savings": 10
  },
  {
    "id": 143,
    "name": "Chippewa Valley Orthopedics and Sports Medicine Clinic, SC",
    "specialty": "Orthopedic Surgery",
    "zip": null,
    "city": null,
    "state": null,
    "address": null,
    "phone": null,
    "premium_savings": 15
  },
  {
    "id": 144,
    "name": "Chippewa Valley Orthopedics and Sports Medicine Clinic, SC",
    "specialty": "Orthopedic Surgery",
    "zip": "54720",
    "city": "ALTOONA",
    "state": "WI",
    "address": "1200 OAKLEAF WAY, SUITE A",
    "phone": "(715) 832-1400",
    "premium_savings": 20
  },
  {
    "id": 145,
    "name": "Forefront Dermatology, S.C.",
    "specialty": "Dermatology",
    "zip": "53014",
    "city": "CHILTON",
    "state": "WI",
    "address": "451 E BROOKLYN ST, STE. 5",
    "phone": "(920) 849-2100",
    "premium_savings": 0
  },
  {
    "id": 146,
    "name": "Dermatology and Cosmetic Physicians, SC",
    "specialty": "Dermatology",
    "zip": "53095",
    "city": "WEST BEND",
    "state": "WI",
    "address": "2102 CONTINENTAL DR",
    "phone": "(262) 558-4367",
    "premium_savings": 5
  },
  {
    "id": 147,
    "name": "Richard Michael Rosenberg, MD",
    "specialty": "Gastroenterology",
    "zip": "54935",
    "city": "FOND DU LAC",
    "state": "WI",
    "address": "420 E DIVISION ST",
    "phone": "(920) 926-8570",
    "premium_savings": 10
  },
  {
    "id": 148,
    "name": "Nathan E Slinde, MD",
    "specialty": "Gastroenterology",
    "zip": "54935",
    "city": "FOND DU LAC",
    "state": "WI",
    "address": "420 E DIVISION ST",
    "phone": "(920) 926-8570",
    "premium_savings": 15
  },
  {
    "id": 149,
    "name": "Sameer Tolay, MD",
    "specialty": "Hematology & Oncology",
    "zip": "54935",
    "city": "FOND DU LAC",
    "state": "WI",
    "address": "480 E DIVISION ST",
    "phone": "(920) 926-4100",
    "premium_savings": 20
  },
  {
    "id": 150,
    "name": "Benjamin R Wiseley, MD",
    "specialty": "Orthopedic Surgery",
    "zip": "54935",
    "city": "FOND DU LAC",
    "state": "WI",
    "address": "421 CAMELOT DR",
    "phone": "(920) 926-8616",
    "premium_savings": 0
  },
  {
    "id": 151,
    "name": "Steven a Magoline, MD",
    "specialty": "Orthopedic Surgery",
    "zip": "54935",
    "city": "FOND DU LAC",
    "state": "WI",
    "address": "421 CAMELOT DR",
    "phone": "(920) 926-8616",
    "premium_savings": 5
  },
  {
    "id": 152,
    "name": "Bert C Callahan, MD",
    "specialty": "Orthopedic Surgery",
    "zip": "53963",
    "city": "WAUPUN",
    "state": "WI",
    "address": "608 W BROWN ST",
    "phone": "(920) 324-6802",
    "premium_savings": 10
  },
  {
    "id": 153,
    "name": "Lee W Hash, MD",
    "specialty": "Orthopedic Surgery",
    "zip": "54915",
    "city": "APPLETON",
    "state": "WI",
    "address": "1531 S MADISON ST",
    "phone": "(920) 996-3700",
    "premium_savings": 15
  },
  {
    "id": 154,
    "name": "William T Witmer, MD",
    "specialty": "Cardiology",
    "zip": "54311",
    "city": "GREEN BAY",
    "state": "WI",
    "address": "2845 GREENBRIER RD STE 310",
    "phone": "(920) 288-8300",
    "premium_savings": 20
  },
  {
    "id": 155,
    "name": "Ramon Ray G Rayel, MD",
    "specialty": "Cardiology",
    "zip": "54311",
    "city": "GREEN BAY",
    "state": "WI",
    "address": "2845 GREENBRIER RD STE 310",
    "phone": "(920) 288-8300",
    "premium_savings": 0
  },
  {
    "id": 156,
    "name": "Jennifer a Davis, MD",
    "specialty": "Cardiology",
    "zip": "54301",
    "city": "GREEN BAY",
    "state": "WI",
    "address": "1821 S WEBSTER AVE",
    "phone": "(920) 496-4700",
    "premium_savings": 5
  },
  {
    "id": 157,
    "name": "Simil S Gala MD",
    "specialty": "Cardiology",
    "zip": "54303",
    "city": "GREEN BAY",
    "state": "WI",
    "address": "1727 SHAWANO AVE",
    "phone": "(920) 496-4700",
    "premium_savings": 10
  },
  {
    "id": 158,
    "name": "Peter a Fergus, MD",
    "specialty": "Cardiology",
    "zip": "54303",
    "city": "GREEN BAY",
    "state": "WI",
    "address": "1727 SHAWANO AVE, STE 201",
    "phone": "(920) 272-1050",
    "premium_savings": 15
  },
  {
    "id": 159,
    "name": "Arbind Chaudhary MD",
    "specialty": "Cardiology",
    "zip": "54301",
    "city": "GREEN BAY",
    "state": "WI",
    "address": "744 S WEBSTER AVE",
    "phone": "(920) 433-3640",
    "premium_savings": 20
  },
  {
    "id": 160,
    "name": "Todd S Fergus, MD",
    "specialty": "Cardiology",
    "zip": "54303",
    "city": "GREEN BAY",
    "state": "WI",
    "address": "1727 SHAWANO AVE, SUITE 201",
    "phone": "(920) 496-8877",
    "premium_savings": 0
  },
  {
    "id": 161,
    "name": "Matthias a Fuchs, MD",
    "specialty": "Cardiology",
    "zip": "54301",
    "city": "GREEN BAY",
    "state": "WI",
    "address": "744 S WEBSTER AVE, 2ND FLOOR",
    "phone": "(920) 433-3640",
    "premium_savings": 5
  },
  {
    "id": 162,
    "name": "Matthew Kyle Rafn, MD",
    "specialty": "Cardiology",
    "zip": "54301",
    "city": "GREEN BAY",
    "state": "WI",
    "address": "744 S WEBSTER AVE FL 2",
    "phone": "(920) 433-3640",
    "premium_savings": 10
  },
  {
    "id": 163,
    "name": "Matthew a Schmidt, MD",
    "specialty": "Cardiology",
    "zip": "54311",
    "city": "GREEN BAY",
    "state": "WI",
    "address": "2845 GREENBRIER RD, STE 310",
    "phone": "(920) 288-8300",
    "premium_savings": 15
  },
  {
    "id": 164,
    "name": "Ciprian Nedelcu, MD",
    "specialty": "Cardiology",
    "zip": "54311",
    "city": "GREEN BAY",
    "state": "WI",
    "address": "2845 GREENBRIER RD",
    "phone": "(920) 288-8300",
    "premium_savings": 20
  },
  {
    "id": 165,
    "name": "Muhammad R Marwali, MD",
    "specialty": "Cardiology",
    "zip": "54311",
    "city": "GREEN BAY",
    "state": "WI",
    "address": "2845 GREENBRIER RD",
    "phone": "(920) 288-8000",
    "premium_savings": 0
  },
  {
    "id": 166,
    "name": "Daniel P Hertel, MD",
    "specialty": "Dermatology",
    "zip": "54311",
    "city": "GREEN BAY",
    "state": "WI",
    "address": "2845 GREENBRIER RD",
    "phone": "(920) 288-8100",
    "premium_savings": 5
  },
  {
    "id": 167,
    "name": "New Dermatology Group, LTD",
    "specialty": "Dermatology",
    "zip": null,
    "city": null,
    "state": null,
    "address": null,
    "phone": null,
    "premium_savings": 10
  },
  {
    "id": 168,
    "name": "Lauren N Seline, MD",
    "specialty": "Dermatology",
    "zip": "54311",
    "city": "GREEN BAY",
    "state": "WI",
    "address": "2845 GREENBRIER RD",
    "phone": "(920) 288-8100",
    "premium_savings": 15
  },
  {
    "id": 169,
    "name": "New Dermatology Group, LTD",
    "specialty": "Dermatology",
    "zip": "54301",
    "city": "GREEN BAY",
    "state": "WI",
    "address": "2021 S WEBSTER AVE",
    "phone": "(920) 965-0345",
    "premium_savings": 20
  },
  {
    "id": 170,
    "name": "Forefront Dermatology, S.C.",
    "specialty": "Dermatology",
    "zip": "54313",
    "city": "GREEN BAY",
    "state": "WI",
    "address": "2806 RIVERVIEW DR",
    "phone": "(920) 498-7546",
    "premium_savings": 0
  },
  {
    "id": 171,
    "name": "Kenneth J Pechman, MD",
    "specialty": "Dermatology",
    "zip": "54313",
    "city": "GREEN BAY",
    "state": "WI",
    "address": "2806 RIVERVIEW DR",
    "phone": "(920) 498-7546",
    "premium_savings": 5
  },
  {
    "id": 172,
    "name": "Sarah J Swarts, MD",
    "specialty": "Endocrinology",
    "zip": "54311",
    "city": "GREEN BAY",
    "state": "WI",
    "address": "2845 GREENBRIER RD",
    "phone": "(920) 288-8000",
    "premium_savings": 10
  },
  {
    "id": 173,
    "name": "Victor Adalbert Geraldez De Villa, MD",
    "specialty": "Endocrinology",
    "zip": "54301",
    "city": "GREEN BAY",
    "state": "WI",
    "address": "720 S VANBUREN ST, SUITE 104",
    "phone": "(920) 433-6050",
    "premium_savings": 15
  },
  {
    "id": 174,
    "name": "Adele Amine, DO",
    "specialty": "Endocrinology",
    "zip": "54303",
    "city": "GREEN BAY",
    "state": "WI",
    "address": "1860 SHAWANO AVE",
    "phone": "(920) 496-4700",
    "premium_savings": 20
  },
  {
    "id": 175,
    "name": "David a Stampfl, MD",
    "specialty": "Gastroenterology",
    "zip": "54301",
    "city": "GREEN BAY",
    "state": "WI",
    "address": "725 S WEBSTER AVE",
    "phone": "(920) 431-5650",
    "premium_savings": 0
  },
  {
    "id": 176,
    "name": "Kanwarjit S Arora, MD",
    "specialty": "Gastroenterology",
    "zip": "54301",
    "city": "GREEN BAY",
    "state": "WI",
    "address": "725 S WEBSTER AVE STE 303",
    "phone": "(920) 431-5650",
    "premium_savings": 5
  },
  {
    "id": 177,
    "name": "Mark Alan Laukka, MD",
    "specialty": "Gastroenterology",
    "zip": "54303",
    "city": "GREEN BAY",
    "state": "WI",
    "address": "1726 SHAWANO AVE",
    "phone": "(920) 496-4700",
    "premium_savings": 10
  },
  {
    "id": 178,
    "name": "Matthew Braun Kaspar, MD",
    "specialty": "Gastroenterology",
    "zip": "54301",
    "city": "GREEN BAY",
    "state": "WI",
    "address": "725 S WEBSTER AVE",
    "phone": "(920) 431-5650",
    "premium_savings": 15
  },
  {
    "id": 179,
    "name": "John J. Bosco, MD",
    "specialty": "Gastroenterology",
    "zip": "54311",
    "city": "GREEN BAY",
    "state": "WI",
    "address": "2845 GREENBRIER RD",
    "phone": "(920) 288-8100",
    "premium_savings": 20
  },
  {
    "id": 180,
    "name": "Maria D De Villa, MD",
    "specialty": "Hematology & Oncology",
    "zip": "54313",
    "city": "GREEN BAY",
    "state": "WI",
    "address": "1580 COMMANCHE AVE",
    "phone": "(920) 435-8326",
    "premium_savings": 0
  },
  {
    "id": 181,
    "name": "Kevin Lee Mortara, MD",
    "specialty": "Hematology & Oncology",
    "zip": "54313",
    "city": "GREEN BAY",
    "state": "WI",
    "address": "1580 COMMANCHE AVE",
    "phone": "(920) 435-8326",
    "premium_savings": 5
  },
  {
    "id": 182,
    "name": "Tyion Ansil Torres, MD",
    "specialty": "Hematology & Oncology",
    "zip": "54313",
    "city": "GREEN BAY",
    "state": "WI",
    "address": "1580 COMMANCHE AVE",
    "phone": "(920) 435-8326",
    "premium_savings": 10
  },
  {
    "id": 183,
    "name": "Amritha C Karkera, MD",
    "specialty": "Hematology & Oncology",
    "zip": "54311",
    "city": "GREEN BAY",
    "state": "WI",
    "address": "2845 GREENBRIER RD",
    "phone": "(920) 288-8000",
    "premium_savings": 15
  },
  {
    "id": 184,
    "name": "Umang Gautam, MD",
    "specialty": "Hematology & Oncology",
    "zip": "54311",
    "city": "GREEN BAY",
    "state": "WI",
    "address": "2845 GREENBRIER RD",
    "phone": "(920) 288-8000",
    "premium_savings": 20
  },
  {
    "id": 185,
    "name": "David L Groteluschen, MD",
    "specialty": "Hematology & Oncology",
    "zip": "54303",
    "city": "GREEN BAY",
    "state": "WI",
    "address": "1726 SHAWANO AVE",
    "phone": "(920) 884-3135",
    "premium_savings": 0
  },
  {
    "id": 186,
    "name": "Yousaf Ajam, MD",
    "specialty": "Neurology",
    "zip": "54301",
    "city": "GREEN BAY",
    "state": "WI",
    "address": "1821 S WEBSTER AVE",
    "phone": "(920) 497-4600",
    "premium_savings": 5
  },
  {
    "id": 187,
    "name": "Adam Mehmet Gulhan, MD",
    "specialty": "Neurology",
    "zip": "54143",
    "city": "MARINETTE",
    "state": "WI",
    "address": "3130 SHORE DR STE 111, BAY AREA NEUROLOGY CONSULTATNTS",
    "phone": "(715) 732-8212",
    "premium_savings": 10
  },
  {
    "id": 188,
    "name": "Omolara Lawal, MD",
    "specialty": "Neurology",
    "zip": "54301",
    "city": "GREEN BAY",
    "state": "WI",
    "address": "1821 S WEBSTER AVE",
    "phone": "(920) 496-4700",
    "premium_savings": 15
  },
  {
    "id": 189,
    "name": "Sany T Khabbaz, MD",
    "specialty": "Neurology",
    "zip": "53548",
    "city": "JANESVILLE",
    "state": "WI",
    "address": "1000 MINERAL POINT AVE",
    "phone": "(608) 756-6000",
    "premium_savings": 20
  },
  {
    "id": 190,
    "name": "Heather a Stanko, MD",
    "specialty": "Neurology",
    "zip": "54301",
    "city": "GREEN BAY",
    "state": "WI",
    "address": "725 S WEBSTER SUITE 201, NEUROLOGY CONSULTANTS",
    "phone": "(920) 430-7100",
    "premium_savings": 0
  },
  {
    "id": 191,
    "name": "Joanie M Columbia MD",
    "specialty": "Orthopedic Surgery",
    "zip": "54303",
    "city": "GREEN BAY",
    "state": "WI",
    "address": "1726 SHAWANO AVE",
    "phone": "(920) 496-4700",
    "premium_savings": 5
  },
  {
    "id": 192,
    "name": "Daniel P Metz, MD",
    "specialty": "Orthopedic Surgery",
    "zip": "54304",
    "city": "GREEN BAY",
    "state": "WI",
    "address": "2502 S. ASHLAND AVE.",
    "phone": "(920) 496-4700",
    "premium_savings": 10
  },
  {
    "id": 193,
    "name": "David N Conrad, MD",
    "specialty": "Orthopedic Surgery",
    "zip": "54911",
    "city": "APPLETON",
    "state": "WI",
    "address": "820 E GRANT ST, THEDACARE ORTHOPEDICS PLUS - AMC",
    "phone": "(920) 831-5050",
    "premium_savings": 15
  },
  {
    "id": 194,
    "name": "Daniel L Severance, DO",
    "specialty": "Orthopedic Surgery",
    "zip": "54301",
    "city": "GREEN BAY",
    "state": "WI",
    "address": "835 S VAN BUREN ST",
    "phone": "(920) 496-4700",
    "premium_savings": 20
  },
  {
    "id": 195,
    "name": "David J Ruta, MD",
    "specialty": "Orthopedic Surgery",
    "zip": "54304",
    "city": "GREEN BAY",
    "state": "WI",
    "address": "1970 S RIDGE RD",
    "phone": "(920) 430-4888",
    "premium_savings": 0
  },
  {
    "id": 196,
    "name": "Daniel J Linehan, MD",
    "specialty": "Orthopedic Surgery",
    "zip": "54311",
    "city": "GREEN BAY",
    "state": "WI",
    "address": "2223 LIME KILN RD, SUITE 1",
    "phone": "(920) 468-0246",
    "premium_savings": 5
  },
  {
    "id": 197,
    "name": "Walker D Flannery, MD",
    "specialty": "Orthopedic Surgery",
    "zip": "54311",
    "city": "GREEN BAY",
    "state": "WI",
    "address": "2223 LIME KILN RD STE 1",
    "phone": "(920) 430-8113",
    "premium_savings": 10
  },
  {
    "id": 198,
    "name": "Michael Allen Tressler, MD",
    "specialty": "Orthopedic Surgery",
    "zip": "54311",
    "city": "GREEN BAY",
    "state": "WI",
    "address": "2223 LIME KILN RD, SUITE 1",
    "phone": "(920) 430-8120",
    "premium_savings": 15
  },
  {
    "id": 199,
    "name": "Jeremy M Saller, MD",
    "specialty": "Orthopedic Surgery",
    "zip": "54311",
    "city": "GREEN BAY",
    "state": "WI",
    "address": "1110 KEPLER DR",
    "phone": "(920) 288-5555",
    "premium_savings": 20
  },
  {
    "id": 200,
    "name": "Michael Kurtz Ryan MD",
    "specialty": "Orthopedic Surgery",
    "zip": "54303",
    "city": "GREEN BAY",
    "state": "WI",
    "address": "1726 SHAWANO AVE",
    "phone": "(920) 496-4700",
    "premium_savings": 0
  },
  {
    "id": 201,
    "name": "Thomas a Sullivan, MD",
    "specialty": "Orthopedic Surgery",
    "zip": "54311",
    "city": "GREEN BAY",
    "state": "WI",
    "address": "2223 LIME KILN RD, SUITE 1",
    "phone": "(920) 430-8120",
    "premium_savings": 5
  },
  {
    "id": 202,
    "name": "Benjamin James Ebben, MD",
    "specialty": "Orthopedic Surgery",
    "zip": "54304",
    "city": "GREEN BAY",
    "state": "WI",
    "address": "1970 S RIDGE RD",
    "phone": "(920) 430-4888",
    "premium_savings": 10
  },
  {
    "id": 203,
    "name": "Harold J Schock III, MD",
    "specialty": "Orthopedic Surgery",
    "zip": "54311",
    "city": "GREEN BAY",
    "state": "WI",
    "address": "1110 KEPLER DR",
    "phone": "(920) 288-5555",
    "premium_savings": 15
  },
  {
    "id": 204,
    "name": "Thomas Michael Florack, MD",
    "specialty": "Orthopedic Surgery",
    "zip": "54301",
    "city": "GREEN BAY",
    "state": "WI",
    "address": "900 S WEBSTER AVE",
    "phone": "(920) 496-4700",
    "premium_savings": 20
  },
  {
    "id": 205,
    "name": "Karl John Henrikson, MD",
    "specialty": "Orthopedic Surgery",
    "zip": "54311",
    "city": "GREEN BAY",
    "state": "WI",
    "address": "2223 LIME KILN RD STE 1",
    "phone": "(920) 430-8113",
    "premium_savings": 0
  },
  {
    "id": 206,
    "name": "Daniel J Sjoquist, MD",
    "specialty": "Orthopedic Surgery",
    "zip": "54304",
    "city": "GREEN BAY",
    "state": "WI",
    "address": "1970 S RIDGE RD",
    "phone": "(920) 430-4888",
    "premium_savings": 5
  },
  {
    "id": 207,
    "name": "Gordon Glen Roedel, MD",
    "specialty": "Orthopedic Surgery",
    "zip": "54311",
    "city": "GREEN BAY",
    "state": "WI",
    "address": "2223 LIME KILN RD STE 1",
    "phone": "(920) 430-8113",
    "premium_savings": 10
  },
  {
    "id": 208,
    "name": "Patrick K Riggle, DO",
    "specialty": "Orthopedic Surgery",
    "zip": "53081",
    "city": "SHEBOYGAN",
    "state": "WI",
    "address": "3113 SAEMANN AVE",
    "phone": "(920) 496-4700",
    "premium_savings": 15
  },
  {
    "id": 209,
    "name": "Matthew Brendon Colligan, DO",
    "specialty": "Orthopedic Surgery",
    "zip": "54303",
    "city": "GREEN BAY",
    "state": "WI",
    "address": "1715 DOUSMAN ST",
    "phone": "(920) 496-4700",
    "premium_savings": 20
  },
  {
    "id": 210,
    "name": "Karim Adel Ahmed Mohamed Doughem, MD",
    "specialty": "Rheumatology",
    "zip": "54311",
    "city": "GREEN BAY",
    "state": "WI",
    "address": "3263 EATON RD",
    "phone": "(920) 433-6700",
    "premium_savings": 0
  },
  {
    "id": 211,
    "name": "Michael Thomas Avery, DO",
    "specialty": "Rheumatology",
    "zip": "54311",
    "city": "GREEN BAY",
    "state": "WI",
    "address": "2223 LIME KILN RD STE 1",
    "phone": "(920) 430-8113",
    "premium_savings": 5
  },
  {
    "id": 212,
    "name": "Ardy Fenando, MD",
    "specialty": "Rheumatology",
    "zip": "54311",
    "city": "GREEN BAY",
    "state": "WI",
    "address": "3263 EATON RD",
    "phone": "(920) 433-6700",
    "premium_savings": 10
  },
  {
    "id": 213,
    "name": "Karuna Chilukuri, MD",
    "specialty": "Cardiology",
    "zip": "53548",
    "city": "JANESVILLE",
    "state": "WI",
    "address": "1000 MINERAL POINT AVE",
    "phone": "(608) 756-6868",
    "premium_savings": 15
  },
  {
    "id": 214,
    "name": "David D Nelsen, MD",
    "specialty": "Dermatology",
    "zip": "53546",
    "city": "JANESVILLE",
    "state": "WI",
    "address": "3524 E MILWAUKEE ST",
    "phone": "(608) 756-7217",
    "premium_savings": 20
  },
  {
    "id": 215,
    "name": "Robert J Glinert, MD",
    "specialty": "Dermatology",
    "zip": "53538",
    "city": "FORT ATKINSON",
    "state": "WI",
    "address": "611 SHERMAN AVE E, FORT HEALTHCARE CENTER FOR DERMATOLOGY",
    "phone": "(920) 568-1000",
    "premium_savings": 0
  },
  {
    "id": 216,
    "name": "Patrick Paul Litonjua, MD",
    "specialty": "Endocrinology",
    "zip": "53546",
    "city": "JANESVILLE",
    "state": "WI",
    "address": "3524 E MILWAUKEE ST",
    "phone": "(608) 756-7100",
    "premium_savings": 5
  },
  {
    "id": 217,
    "name": "Emily G Robinson, MD",
    "specialty": "Hematology & Oncology",
    "zip": "53548",
    "city": "JANESVILLE",
    "state": "WI",
    "address": "1000 MINERAL POINT AVE",
    "phone": "(608) 756-6890",
    "premium_savings": 10
  },
  {
    "id": 218,
    "name": "Krsysztof Goetzen, MD",
    "specialty": "Neurology",
    "zip": "53511",
    "city": "BELOIT",
    "state": "WI",
    "address": "1905 E. HUEBBE PARKWAY, BELOIT HEALTH SYSTEM INC.",
    "phone": "(608) 364-2200",
    "premium_savings": 15
  },
  {
    "id": 219,
    "name": "Javaid Iqbal, MD",
    "specialty": "Neurology",
    "zip": "53511",
    "city": "BELOIT",
    "state": "WI",
    "address": "1905 E. HUEBBE PARKWAY, BELOIT HEALTH SYSTEM (BELOIT CLINIC)",
    "phone": "(608) 364-1460",
    "premium_savings": 20
  },
  {
    "id": 220,
    "name": "Dale E Rozeboom, MD",
    "specialty": "Obstetrics & Gynecology",
    "zip": "53546",
    "city": "JANESVILLE",
    "state": "WI",
    "address": "3200 E RACINE ST",
    "phone": "(608) 371-8000",
    "premium_savings": 0
  },
  {
    "id": 221,
    "name": "David B Nilsen, DO",
    "specialty": "Orthopedic Surgery",
    "zip": "53548",
    "city": "JANESVILLE",
    "state": "WI",
    "address": "557 N WASHINGTON ST",
    "phone": "(608) 754-6000",
    "premium_savings": 5
  },
  {
    "id": 222,
    "name": "Pinak Y Shukla, MD",
    "specialty": "Orthopedic Surgery",
    "zip": "53546",
    "city": "JANESVILLE",
    "state": "WI",
    "address": "3524 E MILWAUKEE ST",
    "phone": "(608) 756-7100",
    "premium_savings": 10
  },
  {
    "id": 223,
    "name": "Charles R Cagin, DO",
    "specialty": "Cardiology",
    "zip": "54601",
    "city": "LA CROSSE",
    "state": "WI",
    "address": "800 WEST AVE S",
    "phone": "(608) 392-9862",
    "premium_savings": 15
  },
  {
    "id": 224,
    "name": "Michael S Meyers, MD",
    "specialty": "Cardiology",
    "zip": "54601",
    "city": "LA CROSSE",
    "state": "WI",
    "address": "800 WEST AVE S",
    "phone": "(608) 392-9555",
    "premium_savings": 20
  },
  {
    "id": 225,
    "name": "Abdallah Sanaani, MD",
    "specialty": "Cardiology",
    "zip": "54601",
    "city": "LA CROSSE",
    "state": "WI",
    "address": "1836 SOUTH AVE",
    "phone": "(608) 782-7300",
    "premium_savings": 0
  },
  {
    "id": 226,
    "name": "Amy L Wentland, MD",
    "specialty": "Dermatology",
    "zip": "54601",
    "city": "LA CROSSE",
    "state": "WI",
    "address": "1836 SOUTH AVE",
    "phone": "(608) 782-7300",
    "premium_savings": 5
  },
  {
    "id": 227,
    "name": "Daniel John Schissel, MD",
    "specialty": "Dermatology",
    "zip": "54601",
    "city": "LA CROSSE",
    "state": "WI",
    "address": "800 WEST AVE S",
    "phone": "(608) 785-0940",
    "premium_savings": 10
  },
  {
    "id": 228,
    "name": "Kurt K Mueller, MD",
    "specialty": "Dermatology",
    "zip": "54601",
    "city": "LA CROSSE",
    "state": "WI",
    "address": "1836 SOUTH AVE",
    "phone": "(608) 782-7300",
    "premium_savings": 15
  },
  {
    "id": 229,
    "name": "Martin R Dittmer, MD",
    "specialty": "Dermatology",
    "zip": "54601",
    "city": "LA CROSSE",
    "state": "WI",
    "address": "700 WEST AVENUE S",
    "phone": "(608) 785-0940",
    "premium_savings": 20
  },
  {
    "id": 230,
    "name": "Seymour Marcus Weaver III, MD",
    "specialty": "Dermatology",
    "zip": "54650",
    "city": "ONALASKA",
    "state": "WI",
    "address": "3111 GUNDERSEN DR",
    "phone": "(608) 775-8100",
    "premium_savings": 0
  },
  {
    "id": 231,
    "name": "Daniel K Short, MD",
    "specialty": "Endocrinology",
    "zip": "54601",
    "city": "LA CROSSE",
    "state": "WI",
    "address": "1836 SOUTH AVE",
    "phone": "(608) 782-7300",
    "premium_savings": 5
  },
  {
    "id": 232,
    "name": "Padmavathi Mali, MD",
    "specialty": "Gastroenterology",
    "zip": "54601",
    "city": "LA CROSSE",
    "state": "WI",
    "address": "1836 SOUTH AVE",
    "phone": "(608) 782-7300",
    "premium_savings": 10
  },
  {
    "id": 233,
    "name": "Steven C Schlack Haerer, MD",
    "specialty": "Gastroenterology",
    "zip": "54601",
    "city": "LA CROSSE",
    "state": "WI",
    "address": "1836 SOUTH AVE",
    "phone": "(608) 782-7300",
    "premium_savings": 15
  },
  {
    "id": 234,
    "name": "Maria Samuel, MD",
    "specialty": "Gastroenterology",
    "zip": "54703",
    "city": "EAU CLAIRE",
    "state": "WI",
    "address": "1400 BELLINGER ST",
    "phone": "(715) 838-5222",
    "premium_savings": 20
  },
  {
    "id": 235,
    "name": "Siegfried Yu, MD",
    "specialty": "Gastroenterology",
    "zip": "54601",
    "city": "LA CROSSE",
    "state": "WI",
    "address": "1836 SOUTH AVE",
    "phone": "(608) 782-7300",
    "premium_savings": 0
  },
  {
    "id": 236,
    "name": "Daisy D Batista, MD",
    "specialty": "Gastroenterology",
    "zip": "54601",
    "city": "LA CROSSE",
    "state": "WI",
    "address": "700 WEST AVE S",
    "phone": "(608) 785-0940",
    "premium_savings": 5
  },
  {
    "id": 237,
    "name": "David Edward Marinier, MD",
    "specialty": "Hematology & Oncology",
    "zip": "54601",
    "city": "LA CROSSE",
    "state": "WI",
    "address": "1836 SOUTH AVE",
    "phone": "(608) 782-7300",
    "premium_savings": 10
  },
  {
    "id": 238,
    "name": "Anna C Jones, MD",
    "specialty": "Hematology & Oncology",
    "zip": "54601",
    "city": "LA CROSSE",
    "state": "WI",
    "address": "700 WEST AVE S",
    "phone": "(608) 785-0940",
    "premium_savings": 15
  },
  {
    "id": 239,
    "name": "Paul Vincent Letendre, MD",
    "specialty": "Hematology & Oncology",
    "zip": "54601",
    "city": "LA CROSSE",
    "state": "WI",
    "address": "1836 SOUTH AVE",
    "phone": "(608) 782-7300",
    "premium_savings": 20
  },
  {
    "id": 240,
    "name": "Benjamin M Parsons, DO",
    "specialty": "Hematology & Oncology",
    "zip": "54601",
    "city": "LA CROSSE",
    "state": "WI",
    "address": "1836 SOUTH AVE",
    "phone": "(608) 782-7300",
    "premium_savings": 0
  },
  {
    "id": 241,
    "name": "Prashant a Natteru, MD",
    "specialty": "Neurology",
    "zip": "54601",
    "city": "LA CROSSE",
    "state": "WI",
    "address": "800 WEST AVE S",
    "phone": "(608) 785-0940",
    "premium_savings": 5
  },
  {
    "id": 242,
    "name": "Michael William Doerrler, DO",
    "specialty": "Neurology",
    "zip": "54601",
    "city": "LA CROSSE",
    "state": "WI",
    "address": "1836 SOUTH AVE",
    "phone": "(608) 782-7300",
    "premium_savings": 10
  },
  {
    "id": 243,
    "name": "Daniel Anderson, DO",
    "specialty": "Neurology",
    "zip": "54601",
    "city": "LA CROSSE",
    "state": "WI",
    "address": "800 WEST AVE S",
    "phone": "(608) 785-0940",
    "premium_savings": 15
  },
  {
    "id": 244,
    "name": "Dana M Benden, MD",
    "specialty": "Obstetrics & Gynecology",
    "zip": "54601",
    "city": "LA CROSSE",
    "state": "WI",
    "address": "1836 SOUTH AVE",
    "phone": "(608) 782-7300",
    "premium_savings": 20
  },
  {
    "id": 245,
    "name": "Alison Marie Grajkowski, MD",
    "specialty": "Obstetrics & Gynecology",
    "zip": "54601",
    "city": "LA CROSSE",
    "state": "WI",
    "address": "700 WEST AVE S",
    "phone": "(608) 785-0940",
    "premium_savings": 0
  },
  {
    "id": 246,
    "name": "Kariline Elizabeth Bringe MD",
    "specialty": "Orthopedic Surgery",
    "zip": "54601",
    "city": "LA CROSSE",
    "state": "WI",
    "address": "800 WEST AVE S",
    "phone": "(608) 785-0940",
    "premium_savings": 5
  },
  {
    "id": 247,
    "name": "Jonathan B Peterson MD",
    "specialty": "Orthopedic Surgery",
    "zip": "54601",
    "city": "LA CROSSE",
    "state": "WI",
    "address": "1836 SOUTH AVE",
    "phone": "(608) 782-7300",
    "premium_savings": 10
  },
  {
    "id": 248,
    "name": "Charles H Hayden, MD",
    "specialty": "Orthopedic Surgery",
    "zip": "54601",
    "city": "LA CROSSE",
    "state": "WI",
    "address": "1836 SOUTH AVE",
    "phone": "(608) 782-7300",
    "premium_savings": 15
  },
  {
    "id": 249,
    "name": "Charles P Nolte, DO",
    "specialty": "Orthopedic Surgery",
    "zip": "54601",
    "city": "LA CROSSE",
    "state": "WI",
    "address": "800 WEST AVE S",
    "phone": "(608) 392-9876",
    "premium_savings": 20
  },
  {
    "id": 250,
    "name": "Kevin M Rumball, MD",
    "specialty": "Orthopedic Surgery",
    "zip": "54601",
    "city": "LA CROSSE",
    "state": "WI",
    "address": "1836 SOUTH AVE",
    "phone": "(608) 782-7300",
    "premium_savings": 0
  },
  {
    "id": 251,
    "name": "Laura Klingbeil",
    "specialty": "Orthopedic Surgery",
    "zip": "54601",
    "city": "LA CROSSE",
    "state": "WI",
    "address": "1836 SOUTH AVE",
    "phone": "(608) 782-7300",
    "premium_savings": 5
  },
  {
    "id": 252,
    "name": "Scott Aaron Kuzma, MD",
    "specialty": "Orthopedic Surgery",
    "zip": "54601",
    "city": "LA CROSSE",
    "state": "WI",
    "address": "700 WEST AVE S",
    "phone": "(608) 392-5859",
    "premium_savings": 10
  },
  {
    "id": 253,
    "name": "Scott R Bassuener, MD",
    "specialty": "Orthopedic Surgery",
    "zip": "54601",
    "city": "LA CROSSE",
    "state": "WI",
    "address": "1836 SOUTH AVE",
    "phone": "(608) 782-7300",
    "premium_savings": 15
  },
  {
    "id": 254,
    "name": "Wisconsin Specialty Surgery Center, LLC",
    "specialty": "Ambulatory Surgical Center",
    "zip": "53142",
    "city": "KENOSHA",
    "state": "WI",
    "address": "7401 104TH AVE STE 100",
    "phone": "(262) 697-1006",
    "premium_savings": 20
  },
  {
    "id": 255,
    "name": "Kenosha Digestive Health Center, LLC",
    "specialty": "Ambulatory Surgical Center",
    "zip": "53142",
    "city": "KENOSHA",
    "state": "WI",
    "address": "8220 75TH ST",
    "phone": "(414) 908-6500",
    "premium_savings": 0
  },
  {
    "id": 256,
    "name": "Prakash D Shah, MD",
    "specialty": "Cardiology",
    "zip": "53215",
    "city": "MILWAUKEE",
    "state": "WI",
    "address": "2801 W KINNICKINNIC RIVER PKWY, STE 840",
    "phone": "(414) 649-3530",
    "premium_savings": 5
  },
  {
    "id": 257,
    "name": "Anthony G Locurto, MD",
    "specialty": "Cardiology",
    "zip": "53142",
    "city": "KENOSHA",
    "state": "WI",
    "address": "10400 75TH ST",
    "phone": "(262) 948-6630",
    "premium_savings": 10
  },
  {
    "id": 258,
    "name": "Timothy a Sanborn, MD",
    "specialty": "Cardiology",
    "zip": "53143",
    "city": "KENOSHA",
    "state": "WI",
    "address": "6308 8TH AVE",
    "phone": "(262) 653-3650",
    "premium_savings": 15
  },
  {
    "id": 259,
    "name": "Michael C Kreager, MD",
    "specialty": "Cardiology",
    "zip": "53143",
    "city": "KENOSHA",
    "state": "WI",
    "address": "6308 8TH AVE, STE 3060",
    "phone": "(262) 656-8271",
    "premium_savings": 20
  },
  {
    "id": 260,
    "name": "Eric J Marsh, MD",
    "specialty": "Dermatology",
    "zip": "53142",
    "city": "KENOSHA",
    "state": "WI",
    "address": "8501 75TH ST, SUITE J",
    "phone": "(262) 898-4400",
    "premium_savings": 0
  },
  {
    "id": 261,
    "name": "Kenneth G Gilbertson II, MD",
    "specialty": "Dermatology",
    "zip": "53142",
    "city": "KENOSHA",
    "state": "WI",
    "address": "6815 118TH AVE",
    "phone": "(262) 857-5600",
    "premium_savings": 5
  },
  {
    "id": 262,
    "name": "Farah Salahuddin, MD",
    "specialty": "Endocrinology",
    "zip": "53140",
    "city": "KENOSHA",
    "state": "WI",
    "address": "1020 35TH ST",
    "phone": "(262) 652-3500",
    "premium_savings": 10
  },
  {
    "id": 263,
    "name": "Woosuk Park, MD",
    "specialty": "Gastroenterology",
    "zip": "53142",
    "city": "KENOSHA",
    "state": "WI",
    "address": "10400 75TH ST",
    "phone": "(629) 487-0002",
    "premium_savings": 15
  },
  {
    "id": 264,
    "name": "Mario Garretto, MD",
    "specialty": "Gastroenterology",
    "zip": "53143",
    "city": "KENOSHA",
    "state": "WI",
    "address": "6308 8TH AVE, STE 202",
    "phone": "(262) 653-5330",
    "premium_savings": 20
  },
  {
    "id": 265,
    "name": "Thomas Rudolph Wagner, MD",
    "specialty": "Gastroenterology",
    "zip": "53226",
    "city": "MILWAUKEE",
    "state": "WI",
    "address": "9200 W WISCONSIN AVE",
    "phone": "(414) 805-2901",
    "premium_savings": 0
  },
  {
    "id": 266,
    "name": "Anastasia H Fischer, MD",
    "specialty": "Neurology",
    "zip": "53105",
    "city": "BURLINGTON",
    "state": "WI",
    "address": "709 SPRING VALLEY RD",
    "phone": "(262) 767-6020",
    "premium_savings": 5
  },
  {
    "id": 267,
    "name": "Leonid Bouinyi, MD",
    "specialty": "Neurology",
    "zip": "53105",
    "city": "BURLINGTON",
    "state": "WI",
    "address": "709 SPRING VALLEY RD",
    "phone": "(262) 767-6020",
    "premium_savings": 10
  },
  {
    "id": 268,
    "name": "Anthony J Park, MD",
    "specialty": "Obstetrics & Gynecology",
    "zip": "53406",
    "city": "RACINE",
    "state": "WI",
    "address": "8400 WASHINGTON AVE",
    "phone": "(262) 321-3000",
    "premium_savings": 15
  },
  {
    "id": 269,
    "name": "Walter J Kim, MD",
    "specialty": "Orthopedic Surgery",
    "zip": "53177",
    "city": "MOUNT PLEASANT",
    "state": "WI",
    "address": "13250 WASHINGTON AVE",
    "phone": "(888) 720-2012",
    "premium_savings": 20
  },
  {
    "id": 270,
    "name": "Alan P. Gegenheimer, DO",
    "specialty": "Orthopedic Surgery",
    "zip": "53158",
    "city": "PLEASANT PRAIRIE",
    "state": "WI",
    "address": "9697 SAINT CATHERINES DR, SUITE 200",
    "phone": "(262) 656-3590",
    "premium_savings": 0
  },
  {
    "id": 271,
    "name": "Michael J Slimack, DO",
    "specialty": "Orthopedic Surgery",
    "zip": "53142",
    "city": "KENOSHA",
    "state": "WI",
    "address": "7401 104TH AVE, SUITE 110",
    "phone": "(262) 764-5595",
    "premium_savings": 5
  },
  {
    "id": 272,
    "name": "Jonathan D Main, MD",
    "specialty": "Orthopedic Surgery",
    "zip": "53142",
    "city": "KENOSHA",
    "state": "WI",
    "address": "7401 104TH AVE, SUITE 110",
    "phone": "(262) 764-5595",
    "premium_savings": 10
  },
  {
    "id": 273,
    "name": "William B Lutes, DO",
    "specialty": "Orthopedic Surgery",
    "zip": "53226",
    "city": "MILWAUKEE",
    "state": "WI",
    "address": "9200 W WISCONSIN AVE",
    "phone": "(414) 805-7400",
    "premium_savings": 15
  },
  {
    "id": 274,
    "name": "Michael Didinsky, DO",
    "specialty": "Orthopedic Surgery",
    "zip": "53142",
    "city": "KENOSHA",
    "state": "WI",
    "address": "7401 104TH AVE, SUITE 110",
    "phone": "(262) 764-5595",
    "premium_savings": 20
  },
  {
    "id": 275,
    "name": "Matthew S Marcus, MD",
    "specialty": "Orthopedic Surgery",
    "zip": "53142",
    "city": "KENOSHA",
    "state": "WI",
    "address": "7401 104TH AVE STE 110",
    "phone": "(262) 764-5595",
    "premium_savings": 0
  },
  {
    "id": 276,
    "name": "Navjot S Kohli, MD",
    "specialty": "Orthopedic Surgery",
    "zip": "53215",
    "city": "MILWAUKEE",
    "state": "WI",
    "address": "2801 W KINNICKINNIC RIVER PKWY, SUITE 345",
    "phone": "(414) 649-7900",
    "premium_savings": 5
  },
  {
    "id": 277,
    "name": "Benjamin J Lasee, MD",
    "specialty": "Orthopedic Surgery",
    "zip": "53142",
    "city": "KENOSHA",
    "state": "WI",
    "address": "7401 104TH AVE STE 110",
    "phone": "(262) 764-5595",
    "premium_savings": 10
  },
  {
    "id": 278,
    "name": "Mehjabein Y Khan, MD",
    "specialty": "Rheumatology",
    "zip": "53143",
    "city": "KENOSHA",
    "state": "WI",
    "address": "6308 8TH AVENUE, SUITE 108",
    "phone": "(262) 653-5300",
    "premium_savings": 15
  },
  {
    "id": 279,
    "name": "Robina Naz Chowdhery, MD",
    "specialty": "Rheumatology",
    "zip": "53158",
    "city": "PLEASANT PRAIRIE",
    "state": "WI",
    "address": "9697 SAINT CATHERINES DR # 400",
    "phone": "(262) 577-8300",
    "premium_savings": 20
  },
  {
    "id": 280,
    "name": "William S Bradham, MD",
    "specialty": "Cardiology",
    "zip": "53715",
    "city": "MADISON",
    "state": "WI",
    "address": "1 S PARK ST",
    "phone": "(608) 287-2434",
    "premium_savings": 0
  },
  {
    "id": 281,
    "name": "Thomas C Teelin, MD",
    "specialty": "Cardiology",
    "zip": "53718",
    "city": "MADISON",
    "state": "WI",
    "address": "4602 EASTPARK BLVD",
    "phone": "(608) 263-1530",
    "premium_savings": 5
  },
  {
    "id": 282,
    "name": "Thomas R Stoiber, MD",
    "specialty": "Cardiology",
    "zip": "53566",
    "city": "MONROE",
    "state": "WI",
    "address": "2009 5TH ST",
    "phone": "(608) 324-2000",
    "premium_savings": 10
  },
  {
    "id": 283,
    "name": "Sunil Penesetti, MD",
    "specialty": "Cardiology",
    "zip": "53566",
    "city": "MONROE",
    "state": "WI",
    "address": "515 22ND AVE",
    "phone": "(608) 324-2000",
    "premium_savings": 15
  },
  {
    "id": 284,
    "name": "Jane K Pearson, MD",
    "specialty": "Cardiology",
    "zip": "53715",
    "city": "MADISON",
    "state": "WI",
    "address": "700 S PARK ST",
    "phone": "(608) 260-2900",
    "premium_savings": 20
  },
  {
    "id": 285,
    "name": "Mary L Zasadil, MD",
    "specialty": "Cardiology",
    "zip": "53718",
    "city": "MADISON",
    "state": "WI",
    "address": "4602 EASTPARK BLVD",
    "phone": "(608) 263-1530",
    "premium_savings": 0
  },
  {
    "id": 286,
    "name": "Joseph a Bellissimo, MD",
    "specialty": "Cardiology",
    "zip": "53713",
    "city": "MADISON",
    "state": "WI",
    "address": "2601 W BELTLINE HWY",
    "phone": "(608) 417-2100",
    "premium_savings": 5
  },
  {
    "id": 287,
    "name": "Arif Ahmad, MD",
    "specialty": "Cardiology",
    "zip": "53566",
    "city": "MONROE",
    "state": "WI",
    "address": "515 22ND AVE",
    "phone": "(608) 324-2000",
    "premium_savings": 10
  },
  {
    "id": 288,
    "name": "Benjamin Kleiber, MD",
    "specialty": "Cardiology",
    "zip": "53715",
    "city": "MADISON",
    "state": "WI",
    "address": "700 S PARK ST, DEAN & ST. MARY'S OUTPATIENT CENTER",
    "phone": "(608) 260-2900",
    "premium_savings": 15
  },
  {
    "id": 289,
    "name": "Amr a Youssef, MD",
    "specialty": "Cardiology",
    "zip": "53713",
    "city": "MADISON",
    "state": "WI",
    "address": "2601 W BELTLINE HWY STE 200",
    "phone": "(608) 287-2434",
    "premium_savings": 20
  },
  {
    "id": 290,
    "name": "Agnieszka J Silbert, MD",
    "specialty": "Cardiology",
    "zip": "53713",
    "city": "MADISON",
    "state": "WI",
    "address": "2601 W BELTLINE HWY",
    "phone": "(608) 287-2434",
    "premium_savings": 0
  },
  {
    "id": 291,
    "name": "Lauren N Craddock, MD",
    "specialty": "Dermatology",
    "zip": "53546",
    "city": "JANESVILLE",
    "state": "WI",
    "address": "3200 E RACINE ST",
    "phone": "(608) 371-8000",
    "premium_savings": 5
  },
  {
    "id": 292,
    "name": "Caroline E Schmitt, MD",
    "specialty": "Dermatology",
    "zip": "53716",
    "city": "MADISON",
    "state": "WI",
    "address": "1821 S STOUGHTON RD",
    "phone": "(608) 260-6000",
    "premium_savings": 10
  },
  {
    "id": 293,
    "name": "Theresa L Behrs, MD",
    "specialty": "Dermatology",
    "zip": "53717",
    "city": "MADISON",
    "state": "WI",
    "address": "752 N HIGH POINT RD",
    "phone": "(608) 824-4000",
    "premium_savings": 15
  },
  {
    "id": 294,
    "name": "Justin O Endo, MD",
    "specialty": "Dermatology",
    "zip": "53715",
    "city": "MADISON",
    "state": "WI",
    "address": "1 S PARK ST",
    "phone": "(608) 287-2450",
    "premium_savings": 20
  },
  {
    "id": 295,
    "name": "Apple a Bodemer, MD",
    "specialty": "Dermatology",
    "zip": "53717",
    "city": "MADISON",
    "state": "WI",
    "address": "451 JUNCTION RD",
    "phone": "(608) 265-7670",
    "premium_savings": 0
  },
  {
    "id": 296,
    "name": "Laura T Clifton MD",
    "specialty": "Dermatology",
    "zip": "53717",
    "city": "MADISON",
    "state": "WI",
    "address": "752 N HIGH POINT RD",
    "phone": "(608) 824-4000",
    "premium_savings": 5
  },
  {
    "id": 297,
    "name": "Elizabeth a Zeeck MD",
    "specialty": "Dermatology",
    "zip": "53716",
    "city": "MADISON",
    "state": "WI",
    "address": "1821 S STOUGHTON RD",
    "phone": "(608) 260-6000",
    "premium_savings": 10
  },
  {
    "id": 298,
    "name": "Margo J Reeder, MD",
    "specialty": "Dermatology",
    "zip": "53715",
    "city": "MADISON",
    "state": "WI",
    "address": "1 S PARK ST, 7TH FLOOR",
    "phone": "(608) 287-2450",
    "premium_savings": 15
  },
  {
    "id": 299,
    "name": "Thomas D Keenan, MD",
    "specialty": "Dermatology",
    "zip": "53715",
    "city": "MADISON",
    "state": "WI",
    "address": "1 S PARK ST, 7TH FLOOR, DEPARTMENT OF DERMATOLOGY,UNIVERSITY OF WISCONSIN",
    "phone": "(608) 287-2620",
    "premium_savings": 20
  },
  {
    "id": 300,
    "name": "Charlotte Lasenna, MD",
    "specialty": "Dermatology",
    "zip": "53717",
    "city": "MADISON",
    "state": "WI",
    "address": "451 JUNCTION RD",
    "phone": "(608) 265-7670",
    "premium_savings": 0
  },
  {
    "id": 301,
    "name": "Lisa Michelle Arkin, MD",
    "specialty": "Dermatology",
    "zip": "53715",
    "city": "MADISON",
    "state": "WI",
    "address": "1 S PARK ST",
    "phone": "(608) 287-2450",
    "premium_savings": 5
  },
  {
    "id": 302,
    "name": "Michael S Pomroy, MD",
    "specialty": "Dermatology",
    "zip": "53717",
    "city": "MADISON",
    "state": "WI",
    "address": "451 JUNCTION RD",
    "phone": "(608) 265-0700",
    "premium_savings": 10
  },
  {
    "id": 303,
    "name": "Vincent L Cryns MD",
    "specialty": "Endocrinology",
    "zip": "53717",
    "city": "MADISON",
    "state": "WI",
    "address": "451 JUNCTION RD",
    "phone": "(608) 263-5010",
    "premium_savings": 15
  },
  {
    "id": 304,
    "name": "Kenneth Patrick L Ligaray, MD",
    "specialty": "Endocrinology",
    "zip": "53703",
    "city": "MADISON",
    "state": "WI",
    "address": "345 W WASHINGTON AVE",
    "phone": "(608) 417-8300",
    "premium_savings": 20
  },
  {
    "id": 305,
    "name": "Samantha Katherine Pabich, MD",
    "specialty": "Endocrinology",
    "zip": "53717",
    "city": "MADISON",
    "state": "WI",
    "address": "451 JUNCTION RD",
    "phone": "(608) 263-7741",
    "premium_savings": 0
  },
  {
    "id": 306,
    "name": "Maxfield P Flynn MD",
    "specialty": "Endocrinology",
    "zip": "53717",
    "city": "MADISON",
    "state": "WI",
    "address": "451 JUNCTION RD",
    "phone": "(608) 263-5010",
    "premium_savings": 5
  },
  {
    "id": 307,
    "name": "Deborah P Wubben, MD",
    "specialty": "Endocrinology",
    "zip": "53703",
    "city": "MADISON",
    "state": "WI",
    "address": "345 W WASHINGTON AVE",
    "phone": "(608) 417-8300",
    "premium_savings": 10
  },
  {
    "id": 308,
    "name": "Subarna Mani Dhital, MD",
    "specialty": "Endocrinology",
    "zip": "53717",
    "city": "MADISON",
    "state": "WI",
    "address": "451 JUNCTION RD",
    "phone": "(608) 263-5010",
    "premium_savings": 15
  },
  {
    "id": 309,
    "name": "Clare Elizabeth O'Connor, MD",
    "specialty": "Endocrinology",
    "zip": "53718",
    "city": "MADISON",
    "state": "WI",
    "address": "5249 E TERRACE DR",
    "phone": "(608) 265-7406",
    "premium_savings": 20
  },
  {
    "id": 310,
    "name": "Rachna Unnithan, MD",
    "specialty": "Endocrinology",
    "zip": "53716",
    "city": "MADISON",
    "state": "WI",
    "address": "1821 S STOUGHTON RD",
    "phone": "(608) 260-6000",
    "premium_savings": 0
  },
  {
    "id": 311,
    "name": "Brad Ryan Julius, MD",
    "specialty": "Endocrinology",
    "zip": "53716",
    "city": "MADISON",
    "state": "WI",
    "address": "1821 S STOUGHTON RD",
    "phone": "(608) 260-6000",
    "premium_savings": 5
  },
  {
    "id": 312,
    "name": "Christoph Rainer Matthias Reitz MD",
    "specialty": "Gastroenterology",
    "zip": "53705",
    "city": "MADISON",
    "state": "WI",
    "address": "750 UNIVERSITY ROW",
    "phone": "(608) 890-5090",
    "premium_savings": 10
  },
  {
    "id": 313,
    "name": "Christopher Lindholm, MD",
    "specialty": "Gastroenterology",
    "zip": "53705",
    "city": "MADISON",
    "state": "WI",
    "address": "750 UNIVERSITY ROW",
    "phone": "(608) 890-5090",
    "premium_savings": 15
  },
  {
    "id": 314,
    "name": "Jason R Stangl, MD",
    "specialty": "Gastroenterology",
    "zip": "53715",
    "city": "MADISON",
    "state": "WI",
    "address": "20 S PARK ST",
    "phone": "(608) 287-2680",
    "premium_savings": 20
  },
  {
    "id": 315,
    "name": "Vinay L Patel, MD",
    "specialty": "Gastroenterology",
    "zip": "53705",
    "city": "MADISON",
    "state": "WI",
    "address": "750 UNIVERSITY ROW",
    "phone": "(608) 890-5010",
    "premium_savings": 0
  },
  {
    "id": 316,
    "name": "Arnold Wald, MD",
    "specialty": "Gastroenterology",
    "zip": "53717",
    "city": "MADISON",
    "state": "WI",
    "address": "451 JUNCTION RD",
    "phone": "(608) 263-8094",
    "premium_savings": 5
  },
  {
    "id": 317,
    "name": "Peter M Stanko, MD",
    "specialty": "Gastroenterology",
    "zip": "53705",
    "city": "MADISON",
    "state": "WI",
    "address": "750 UNIVERSITY ROW",
    "phone": "(608) 890-5010",
    "premium_savings": 10
  },
  {
    "id": 318,
    "name": "Adam J Schiro, MD",
    "specialty": "Gastroenterology",
    "zip": "53566",
    "city": "MONROE",
    "state": "WI",
    "address": "515 22ND AVENUE, MONROE CLINIC",
    "phone": "(608) 324-2222",
    "premium_savings": 15
  },
  {
    "id": 319,
    "name": "Ian C Grimes, MD",
    "specialty": "Gastroenterology",
    "zip": "53705",
    "city": "MADISON",
    "state": "WI",
    "address": "750 UNIVERSITY ROW",
    "phone": "(608) 890-5000",
    "premium_savings": 20
  },
  {
    "id": 320,
    "name": "Andrew J Walker, MD",
    "specialty": "Gastroenterology",
    "zip": "53715",
    "city": "MADISON",
    "state": "WI",
    "address": "700 S PARK ST STE A",
    "phone": "(608) 260-2900",
    "premium_savings": 0
  },
  {
    "id": 321,
    "name": "Michael L Allan, MD",
    "specialty": "Gastroenterology",
    "zip": "53715",
    "city": "MADISON",
    "state": "WI",
    "address": "700 S PARK ST",
    "phone": "(608) 260-2900",
    "premium_savings": 5
  },
  {
    "id": 322,
    "name": "Jason E Gonzaga, MD",
    "specialty": "Gastroenterology",
    "zip": "53715",
    "city": "MADISON",
    "state": "WI",
    "address": "700 S PARK ST",
    "phone": "(608) 260-2900",
    "premium_savings": 10
  },
  {
    "id": 323,
    "name": "John B Williams, MD",
    "specialty": "Gastroenterology",
    "zip": "53715",
    "city": "MADISON",
    "state": "WI",
    "address": "20 S PARK ST, SUITE 207",
    "phone": "(608) 287-2680",
    "premium_savings": 15
  },
  {
    "id": 324,
    "name": "Eric a Gaumnitz, MD",
    "specialty": "Gastroenterology",
    "zip": "53717",
    "city": "MADISON",
    "state": "WI",
    "address": "451 JUNCTION RD",
    "phone": "(608) 263-8094",
    "premium_savings": 20
  },
  {
    "id": 325,
    "name": "Mansoor Shariff, MD",
    "specialty": "Gastroenterology",
    "zip": "53705",
    "city": "MADISON",
    "state": "WI",
    "address": "750 UNIVERSITY ROW",
    "phone": "(608) 890-5000",
    "premium_savings": 0
  },
  {
    "id": 326,
    "name": "Gary R Griglione, MD",
    "specialty": "Gastroenterology",
    "zip": "53715",
    "city": "MADISON",
    "state": "WI",
    "address": "202 S PARK ST",
    "phone": "(608) 417-5454",
    "premium_savings": 5
  },
  {
    "id": 327,
    "name": "Matthew Winston Caldis, MD",
    "specialty": "Gastroenterology",
    "zip": "53705",
    "city": "MADISON",
    "state": "WI",
    "address": "750 UNIVERSITY ROW",
    "phone": "(608) 890-5090",
    "premium_savings": 10
  },
  {
    "id": 328,
    "name": "John P Rice, MD",
    "specialty": "Gastroenterology",
    "zip": "53717",
    "city": "MADISON",
    "state": "WI",
    "address": "451 JUNCTION RD",
    "phone": "(608) 265-8528",
    "premium_savings": 15
  },
  {
    "id": 329,
    "name": "Amy Lynn Stella, MD",
    "specialty": "Hematology & Oncology",
    "zip": "53546",
    "city": "JANESVILLE",
    "state": "WI",
    "address": "3200 E RACINE ST",
    "phone": "(608) 371-8000",
    "premium_savings": 20
  },
  {
    "id": 330,
    "name": "Ronnie J Kirschling, MD",
    "specialty": "Hematology & Oncology",
    "zip": "54494",
    "city": "WISCONSIN RAPIDS",
    "state": "WI",
    "address": "410 DEWEY STREET",
    "phone": "(715) 421-7442",
    "premium_savings": 0
  },
  {
    "id": 331,
    "name": "Alissa a Weber, MD",
    "specialty": "Hematology & Oncology",
    "zip": "53715",
    "city": "MADISON",
    "state": "WI",
    "address": "1211 FISH HATCHERY RD",
    "phone": "(608) 252-8000",
    "premium_savings": 5
  },
  {
    "id": 332,
    "name": "Asher Q Jones, MD",
    "specialty": "Neurology",
    "zip": "53715",
    "city": "MADISON",
    "state": "WI",
    "address": "700 S PARK ST",
    "phone": "(608) 260-2900",
    "premium_savings": 10
  },
  {
    "id": 333,
    "name": "Michael M Frucht, MD",
    "specialty": "Neurology",
    "zip": "53715",
    "city": "MADISON",
    "state": "WI",
    "address": "700 S PARK ST",
    "phone": "(608) 260-2900",
    "premium_savings": 15
  },
  {
    "id": 334,
    "name": "Matthew J Raday, MD",
    "specialty": "Neurology",
    "zip": "53715",
    "city": "MADISON",
    "state": "WI",
    "address": "700 S PARK ST STE A",
    "phone": "(608) 260-2900",
    "premium_savings": 20
  },
  {
    "id": 335,
    "name": "Brian James Nagle, MD",
    "specialty": "Neurology",
    "zip": "53715",
    "city": "MADISON",
    "state": "WI",
    "address": "20 S PARK ST STE 202",
    "phone": "(608) 287-2090",
    "premium_savings": 0
  },
  {
    "id": 336,
    "name": "Mary Ann a Werz, MD",
    "specialty": "Neurology",
    "zip": "53715",
    "city": "MADISON",
    "state": "WI",
    "address": "700 S PARK ST STE A",
    "phone": "(608) 260-2900",
    "premium_savings": 5
  },
  {
    "id": 337,
    "name": "Teresa M. Mangin, MD",
    "specialty": "Neurology",
    "zip": "53715",
    "city": "MADISON",
    "state": "WI",
    "address": "20 S PARK ST",
    "phone": "(608) 287-2090",
    "premium_savings": 10
  },
  {
    "id": 338,
    "name": "David a Daiga, MD",
    "specialty": "Neurology",
    "zip": "53715",
    "city": "MADISON",
    "state": "WI",
    "address": "700 S PARK ST",
    "phone": "(608) 260-2900",
    "premium_savings": 15
  },
  {
    "id": 339,
    "name": "Mark C Torres, DO",
    "specialty": "Obstetrics & Gynecology",
    "zip": "53546",
    "city": "JANESVILLE",
    "state": "WI",
    "address": "3200 E RACINE ST",
    "phone": "(608) 371-8000",
    "premium_savings": 20
  },
  {
    "id": 340,
    "name": "Jay Charles Lick, DO",
    "specialty": "Obstetrics & Gynecology",
    "zip": "53704",
    "city": "MADISON",
    "state": "WI",
    "address": "2402 WINNEBAGO ST",
    "phone": "(608) 242-6840",
    "premium_savings": 0
  },
  {
    "id": 341,
    "name": "Kristine a Bathke, MD",
    "specialty": "Obstetrics & Gynecology",
    "zip": "53717",
    "city": "MADISON",
    "state": "WI",
    "address": "752 N HIGH POINT RD",
    "phone": "(608) 824-4000",
    "premium_savings": 5
  },
  {
    "id": 342,
    "name": "Bruce C Drummond, MD",
    "specialty": "Obstetrics & Gynecology",
    "zip": "53715",
    "city": "MADISON",
    "state": "WI",
    "address": "1211 FISH HATCHERY RD",
    "phone": "(608) 252-8000",
    "premium_savings": 10
  },
  {
    "id": 343,
    "name": "Diana Lynn Kruse MD. -Sole Proprietor",
    "specialty": "Orthopedic Surgery",
    "zip": null,
    "city": null,
    "state": null,
    "address": null,
    "phone": null,
    "premium_savings": 15
  },
  {
    "id": 344,
    "name": "Sara H Galli, MD",
    "specialty": "Orthopedic Surgery",
    "zip": "53715",
    "city": "MADISON",
    "state": "WI",
    "address": "1211 FISH HATCHERY RD",
    "phone": "(608) 252-8000",
    "premium_savings": 20
  },
  {
    "id": 345,
    "name": "Albert J Cecchini, DO",
    "specialty": "Orthopedic Surgery",
    "zip": "54720",
    "city": "ALTOONA",
    "state": "WI",
    "address": "3119 WOODMAN DR",
    "phone": "(920) 496-4700",
    "premium_savings": 0
  },
  {
    "id": 346,
    "name": "Seth K. Williams MD",
    "specialty": "Orthopedic Surgery",
    "zip": "53711",
    "city": "MADISON",
    "state": "WI",
    "address": "621 SCIENCE DR",
    "phone": "(608) 265-3207",
    "premium_savings": 5
  },
  {
    "id": 347,
    "name": "Richard W Glad, MD",
    "specialty": "Orthopedic Surgery",
    "zip": "53713",
    "city": "MADISON",
    "state": "WI",
    "address": "2501 W BELTLINE HWY STE 601",
    "phone": "(608) 234-7436",
    "premium_savings": 10
  },
  {
    "id": 348,
    "name": "Diana Lynn Kruse MD. -Sole Proprietor",
    "specialty": "Orthopedic Surgery",
    "zip": "53583",
    "city": "SAUK CITY",
    "state": "WI",
    "address": "208 PHILLIPS BLVD",
    "phone": "(608) 644-0109",
    "premium_savings": 15
  },
  {
    "id": 349,
    "name": "Kurt M Rongstad, MD",
    "specialty": "Orthopedic Surgery",
    "zip": "53715",
    "city": "MADISON",
    "state": "WI",
    "address": "1 S PARK ST",
    "phone": "(608) 287-2700",
    "premium_savings": 20
  },
  {
    "id": 350,
    "name": "Michael D C Lamson, MD",
    "specialty": "Orthopedic Surgery",
    "zip": "53578",
    "city": "PRAIRIE DU SAC",
    "state": "WI",
    "address": "260 26TH ST",
    "phone": "(608) 643-2471",
    "premium_savings": 0
  },
  {
    "id": 351,
    "name": "Amorn N Salyapongse, MD",
    "specialty": "Orthopedic Surgery",
    "zip": "53715",
    "city": "MADISON",
    "state": "WI",
    "address": "1 S PARK ST, DIVISION OF HAND SURGERY",
    "phone": "(608) 287-2700",
    "premium_savings": 5
  },
  {
    "id": 352,
    "name": "Brian D Steffin, MD",
    "specialty": "Orthopedic Surgery",
    "zip": "53713",
    "city": "MADISON",
    "state": "WI",
    "address": "2501 W BELTLINE HWY STE 601",
    "phone": "(608) 234-7436",
    "premium_savings": 10
  },
  {
    "id": 353,
    "name": "Jacquelyn Ann Dunahoe, MD",
    "specialty": "Orthopedic Surgery",
    "zip": "53718",
    "city": "MADISON",
    "state": "WI",
    "address": "4602 EASTPARK BLVD",
    "phone": "(608) 263-7540",
    "premium_savings": 15
  },
  {
    "id": 354,
    "name": "Nathan Dale Johnson, DO",
    "specialty": "Orthopedic Surgery",
    "zip": "54601",
    "city": "LA CROSSE",
    "state": "WI",
    "address": "800 WEST AVE S",
    "phone": "(608) 785-0940",
    "premium_savings": 20
  },
  {
    "id": 355,
    "name": "Nathaniel M Wilson, MD",
    "specialty": "Orthopedic Surgery",
    "zip": "53715",
    "city": "MADISON",
    "state": "WI",
    "address": "1211 FISH HATCHERY RD",
    "phone": "(608) 252-8000",
    "premium_savings": 0
  },
  {
    "id": 356,
    "name": "Douglas R Arnold MD",
    "specialty": "Orthopedic Surgery",
    "zip": "53715",
    "city": "MADISON",
    "state": "WI",
    "address": "1211 FISH HATCHERY RD",
    "phone": "(608) 252-8000",
    "premium_savings": 5
  },
  {
    "id": 357,
    "name": "David M Marcu, MD",
    "specialty": "Orthopedic Surgery",
    "zip": "53578",
    "city": "PRAIRIE DU SAC",
    "state": "WI",
    "address": "260 26TH ST",
    "phone": "(608) 643-2471",
    "premium_savings": 10
  },
  {
    "id": 358,
    "name": "John K Wollaeger, MD",
    "specialty": "Orthopedic Surgery",
    "zip": "53719",
    "city": "MADISON",
    "state": "WI",
    "address": "1624 S HIGH POINT RD",
    "phone": "(608) 287-2700",
    "premium_savings": 15
  },
  {
    "id": 359,
    "name": "James Thomas Bernatz MD",
    "specialty": "Orthopedic Surgery",
    "zip": "53718",
    "city": "MADISON",
    "state": "WI",
    "address": "4602 EASTPARK BLVD",
    "phone": "(608) 265-3207",
    "premium_savings": 20
  },
  {
    "id": 360,
    "name": "Erik W Kroger, MD",
    "specialty": "Orthopedic Surgery",
    "zip": "53715",
    "city": "MADISON",
    "state": "WI",
    "address": "1211 FISH HATCHERY RD",
    "phone": "(608) 252-8000",
    "premium_savings": 0
  },
  {
    "id": 361,
    "name": "Zachary M Pruhs, MD",
    "specialty": "Rheumatology",
    "zip": "53716",
    "city": "MADISON",
    "state": "WI",
    "address": "1821 S STOUGHTON RD",
    "phone": "(608) 260-6000",
    "premium_savings": 5
  },
  {
    "id": 362,
    "name": "Jenna Spencer Mcgoldrick, MD",
    "specialty": "Rheumatology",
    "zip": "53716",
    "city": "MADISON",
    "state": "WI",
    "address": "1821 S STOUGHTON RD",
    "phone": "(608) 260-6000",
    "premium_savings": 10
  },
  {
    "id": 363,
    "name": "Michael B Walsh, DO",
    "specialty": "Rheumatology",
    "zip": "53715",
    "city": "MADISON",
    "state": "WI",
    "address": "1 S PARK ST",
    "phone": "(608) 287-2800",
    "premium_savings": 15
  },
  {
    "id": 364,
    "name": "Abdul Munem M Kenj Halabi, MD",
    "specialty": "Rheumatology",
    "zip": "53715",
    "city": "MADISON",
    "state": "WI",
    "address": "1 S PARK ST",
    "phone": "(608) 287-2800",
    "premium_savings": 20
  },
  {
    "id": 365,
    "name": "John L Juozevicius, MD",
    "specialty": "Rheumatology",
    "zip": "53715",
    "city": "MADISON",
    "state": "WI",
    "address": "1 SOUTH PARK ST",
    "phone": "(608) 287-2800",
    "premium_savings": 0
  },
  {
    "id": 366,
    "name": "Jon a Arnason, MD",
    "specialty": "Rheumatology",
    "zip": "53717",
    "city": "MADISON",
    "state": "WI",
    "address": "451 JUNCTION RD",
    "phone": "(608) 263-7577",
    "premium_savings": 5
  },
  {
    "id": 367,
    "name": "Ilias Oikonomopoulos, MD",
    "specialty": "Rheumatology",
    "zip": "53716",
    "city": "MADISON",
    "state": "WI",
    "address": "1821 S STOUGHTON RD",
    "phone": "(608) 260-6000",
    "premium_savings": 10
  },
  {
    "id": 368,
    "name": "Pharos Enterprises of Wisconsin, LLC",
    "specialty": "Ambulatory Surgical Center",
    "zip": "53227",
    "city": "WEST ALLIS",
    "state": "WI",
    "address": "2356 S 102ND ST",
    "phone": "(262) 689-8710",
    "premium_savings": 15
  },
  {
    "id": 369,
    "name": "West Bend Surgery Center, LLC",
    "specialty": "Ambulatory Surgical Center",
    "zip": "53095",
    "city": "WEST BEND",
    "state": "WI",
    "address": "3212 PLEASANT VALLEY RD",
    "phone": "(262) 334-6165",
    "premium_savings": 20
  },
  {
    "id": 370,
    "name": "Moreland Endoscopy Center",
    "specialty": "Ambulatory Surgical Center",
    "zip": "53188",
    "city": "WAUKESHA",
    "state": "WI",
    "address": "1111 DELAFIELD ST, SUITE 322",
    "phone": "(414) 454-0600",
    "premium_savings": 0
  },
  {
    "id": 371,
    "name": "The Orthopaedic Surgery Center, LLC",
    "specialty": "Ambulatory Surgical Center",
    "zip": "53072",
    "city": "PEWAUKEE",
    "state": "WI",
    "address": "N15W28300 GOLF RD",
    "phone": "(262) 303-5000",
    "premium_savings": 5
  },
  {
    "id": 372,
    "name": "Wisconsin Digestive Health Center",
    "specialty": "Ambulatory Surgical Center",
    "zip": "53227",
    "city": "WEST ALLIS",
    "state": "WI",
    "address": "2424 S 90TH ST",
    "phone": "(414) 908-6500",
    "premium_savings": 10
  },
  {
    "id": 373,
    "name": "Menomonee Falls Ambulatory Surgery Center, LLC",
    "specialty": "Ambulatory Surgical Center",
    "zip": "53051",
    "city": "MENOMONEE FALLS",
    "state": "WI",
    "address": "W180N8045 TOWN HALL RD",
    "phone": "(262) 250-0950",
    "premium_savings": 15
  },
  {
    "id": 374,
    "name": "Center for Digestive Health, LTD",
    "specialty": "Ambulatory Surgical Center",
    "zip": "53215",
    "city": "MILWAUKEE",
    "state": "WI",
    "address": "2801 W KINNICKINNIC RIVER PKWY STE 1060",
    "phone": "(414) 908-6500",
    "premium_savings": 20
  },
  {
    "id": 375,
    "name": "Thomas J Broihier, MD",
    "specialty": "Cardiology",
    "zip": "53110",
    "city": "CUDAHY",
    "state": "WI",
    "address": "5900 S. LAKE DRIVE, LAKESHORE MEDICAL CLINIC",
    "phone": "(414) 489-4190",
    "premium_savings": 0
  },
  {
    "id": 376,
    "name": "Ijaz a Malik, MD",
    "specialty": "Cardiology",
    "zip": "53233",
    "city": "MILWAUKEE",
    "state": "WI",
    "address": "960 N 12TH ST, SUITE 400",
    "phone": "(414) 219-7653",
    "premium_savings": 5
  },
  {
    "id": 377,
    "name": "Kiran Kashyap, MD",
    "specialty": "Cardiology",
    "zip": "53051",
    "city": "MENOMONEE FALLS",
    "state": "WI",
    "address": "W180N7950 TOWN HALL RD",
    "phone": "(262) 255-2500",
    "premium_savings": 10
  },
  {
    "id": 378,
    "name": "David James Coulter, DO",
    "specialty": "Cardiology",
    "zip": "53215",
    "city": "MILWAUKEE",
    "state": "WI",
    "address": "2025 W OKLAHOMA AVE STE 105",
    "phone": "(414) 389-2797",
    "premium_savings": 15
  },
  {
    "id": 379,
    "name": "Staci L Milosavljevic, MD",
    "specialty": "Cardiology",
    "zip": "53226",
    "city": "MILWAUKEE",
    "state": "WI",
    "address": "9200 W WISCONSIN AVE, DIVISION OF CARDIOLOGY",
    "phone": "(414) 955-6777",
    "premium_savings": 20
  },
  {
    "id": 380,
    "name": "Efstathios S Naum, MD",
    "specialty": "Cardiology",
    "zip": "53022",
    "city": "GERMANTOWN",
    "state": "WI",
    "address": "W180N11070 RIVER LIN",
    "phone": "(262) 532-8441",
    "premium_savings": 0
  },
  {
    "id": 381,
    "name": "Stephen W Sawyer Jr., MD",
    "specialty": "Cardiology",
    "zip": "53226",
    "city": "MILWAUKEE",
    "state": "WI",
    "address": "9200 W WISCONSIN AVE",
    "phone": "(414) 805-6000",
    "premium_savings": 5
  },
  {
    "id": 382,
    "name": "Steven Leigh Merry, MD",
    "specialty": "Cardiology",
    "zip": "53051",
    "city": "MENOMONEE FALLS",
    "state": "WI",
    "address": "N84W16889 MENOMONEE AVE",
    "phone": "(262) 251-7500",
    "premium_savings": 10
  },
  {
    "id": 383,
    "name": "Paul S Bernstein, MD",
    "specialty": "Cardiology",
    "zip": "53215",
    "city": "MILWAUKEE",
    "state": "WI",
    "address": "2801 W KINNICKINNIC RIVER PKWY, 840",
    "phone": "(414) 649-3530",
    "premium_savings": 15
  },
  {
    "id": 384,
    "name": "David E Lewandowski, MD",
    "specialty": "Cardiology",
    "zip": "53226",
    "city": "MILWAUKEE",
    "state": "WI",
    "address": "9200 W WISCONSIN AVE",
    "phone": "(414) 805-6000",
    "premium_savings": 20
  },
  {
    "id": 385,
    "name": "Thomas G Fenske, MD",
    "specialty": "Cardiology",
    "zip": "53215",
    "city": "MILWAUKEE",
    "state": "WI",
    "address": "2801 W. KINNICKINNIC RIVER PKWY., SUITE 925",
    "phone": "(414) 385-2499",
    "premium_savings": 0
  },
  {
    "id": 386,
    "name": "David L Groden, MD",
    "specialty": "Cardiology",
    "zip": "53005",
    "city": "BROOKFIELD",
    "state": "WI",
    "address": "16650 W BLUEMOUND RD, SUITE 200",
    "phone": "(262) 827-9200",
    "premium_savings": 5
  },
  {
    "id": 387,
    "name": "David K Ashpole, MD",
    "specialty": "Cardiology",
    "zip": "53132",
    "city": "FRANKLIN",
    "state": "WI",
    "address": "7400 W RAWSON AVE STE 143",
    "phone": "(414) 425-7380",
    "premium_savings": 10
  },
  {
    "id": 388,
    "name": "Adam Bykowski, DO",
    "specialty": "Cardiology",
    "zip": "53215",
    "city": "MILWAUKEE",
    "state": "WI",
    "address": "2900 W OKLAHOMA AVE",
    "phone": "(414) 649-6000",
    "premium_savings": 15
  },
  {
    "id": 389,
    "name": "Stacey M Gardiner, MD",
    "specialty": "Cardiology",
    "zip": "53226",
    "city": "MILWAUKEE",
    "state": "WI",
    "address": "9200 W WISCONSIN AVE, DIVISION OF CARDIOLOGY",
    "phone": "(414) 805-6633",
    "premium_savings": 20
  },
  {
    "id": 390,
    "name": "Alexei V Agapitov MD",
    "specialty": "Cardiology",
    "zip": "53005",
    "city": "BROOKFIELD",
    "state": "WI",
    "address": "16650 W BLUEMOUND RD, SUITE 200",
    "phone": "(262) 827-9200",
    "premium_savings": 0
  },
  {
    "id": 391,
    "name": "Maryam Gardezi, MD",
    "specialty": "Cardiology",
    "zip": "53227",
    "city": "WEST ALLIS",
    "state": "WI",
    "address": "2424 S 90TH ST",
    "phone": "(414) 328-8150",
    "premium_savings": 5
  },
  {
    "id": 392,
    "name": "Kenneth J Phillips Jr., MD",
    "specialty": "Cardiology",
    "zip": "53209",
    "city": "MILWAUKEE",
    "state": "WI",
    "address": "3003 W GOOD HOPE RD",
    "phone": "(414) 352-3100",
    "premium_savings": 10
  },
  {
    "id": 393,
    "name": "Steven C Port, MD",
    "specialty": "Cardiology",
    "zip": "53215",
    "city": "MILWAUKEE",
    "state": "WI",
    "address": "2801 W KINNICKINNIC RIVER PKWY, #840",
    "phone": "(414) 649-3530",
    "premium_savings": 15
  },
  {
    "id": 394,
    "name": "Mark a Girzadas, MD",
    "specialty": "Cardiology",
    "zip": "53233",
    "city": "MILWAUKEE",
    "state": "WI",
    "address": "960 N 12TH ST",
    "phone": "(414) 219-7434",
    "premium_savings": 20
  },
  {
    "id": 395,
    "name": "Lisa L Armaganian, MD",
    "specialty": "Cardiology",
    "zip": "53226",
    "city": "WAUWATOSA",
    "state": "WI",
    "address": "601 N 99 ST, STE 201",
    "phone": "(414) 266-9700",
    "premium_savings": 0
  },
  {
    "id": 396,
    "name": "Zuber S Ali, MD",
    "specialty": "Cardiology",
    "zip": "53188",
    "city": "WAUKESHA",
    "state": "WI",
    "address": "725 AMERICAN AVE",
    "phone": "(262) 928-8800",
    "premium_savings": 5
  },
  {
    "id": 397,
    "name": "Paul S Pienkos MD",
    "specialty": "Cardiology",
    "zip": "53024",
    "city": "GRAFTON",
    "state": "WI",
    "address": "975 PORT WASHINGTON RD",
    "phone": "(262) 329-1000",
    "premium_savings": 10
  },
  {
    "id": 398,
    "name": "Aimee C Welsh, MD",
    "specialty": "Cardiology",
    "zip": "53226",
    "city": "MILWAUKEE",
    "state": "WI",
    "address": "9200 W WISCONSIN AVE, DEPARTMENT OF CARDIOVASCULAR MEDICINE",
    "phone": "(414) 805-6633",
    "premium_savings": 15
  },
  {
    "id": 399,
    "name": "William B Burns, MD",
    "specialty": "Cardiology",
    "zip": "53188",
    "city": "WAUKESHA",
    "state": "WI",
    "address": "721 AMERICAN AVE, SUITE 403",
    "phone": "(262) 549-1516",
    "premium_savings": 20
  },
  {
    "id": 400,
    "name": "Mark J Kaeppler, MD",
    "specialty": "Cardiology",
    "zip": "53022",
    "city": "GERMANTOWN",
    "state": "WI",
    "address": "W180N11070 RIVER LN",
    "phone": "(262) 535-8400",
    "premium_savings": 0
  },
  {
    "id": 401,
    "name": "Richard a Staudacher, MD",
    "specialty": "Cardiology",
    "zip": "53226",
    "city": "MILWAUKEE",
    "state": "WI",
    "address": "9200 W WISCONSIN AVE, CARDIOLOGY",
    "phone": "(414) 955-6777",
    "premium_savings": 5
  },
  {
    "id": 402,
    "name": "Abhinav Sharma MD",
    "specialty": "Cardiology",
    "zip": "92054",
    "city": "OCEANSIDE",
    "state": "CA",
    "address": "2424 VISTA WAY STE 300-301",
    "phone": "(760) 630-1606",
    "premium_savings": 10
  },
  {
    "id": 403,
    "name": "James F Kleczka, MD",
    "specialty": "Cardiology",
    "zip": "53226",
    "city": "MILWAUKEE",
    "state": "WI",
    "address": "9200 W WISCONSIN AVE, DIVISION OF CARDIOLOGY",
    "phone": "(414) 805-6633",
    "premium_savings": 15
  },
  {
    "id": 404,
    "name": "Krishna Upadhyaya, MD",
    "specialty": "Cardiology",
    "zip": "53211",
    "city": "MILWAUKEE",
    "state": "WI",
    "address": "2350 N LAKE DR STE 400",
    "phone": "(414) 271-1633",
    "premium_savings": 20
  },
  {
    "id": 405,
    "name": "Mayya S Safarova, MD",
    "specialty": "Cardiology",
    "zip": "53226",
    "city": "MILWAUKEE",
    "state": "WI",
    "address": "9200 W WISCONSIN AVE",
    "phone": "(414) 805-6000",
    "premium_savings": 0
  },
  {
    "id": 406,
    "name": "Laura S Beacher, MD",
    "specialty": "Cardiology",
    "zip": "53226",
    "city": "MILWAUKEE",
    "state": "WI",
    "address": "9200 W WISCONSIN AVE",
    "phone": "(414) 805-6000",
    "premium_savings": 5
  },
  {
    "id": 407,
    "name": "Linda E Scaffidi, MD",
    "specialty": "Cardiology",
    "zip": "53226",
    "city": "MILWAUKEE",
    "state": "WI",
    "address": "9200 W WISCONSIN AVE, DIVISION OF CARDIOLOGY",
    "phone": "(414) 805-6633",
    "premium_savings": 10
  },
  {
    "id": 408,
    "name": "Joshua D Liberman, MD",
    "specialty": "Cardiology",
    "zip": "53092",
    "city": "MEQUON",
    "state": "WI",
    "address": "11725 N PORT WASHINGTON RD STE 250",
    "phone": "(414) 207-4333",
    "premium_savings": 15
  },
  {
    "id": 409,
    "name": "Joshua a Meskin, MD",
    "specialty": "Cardiology",
    "zip": "53226",
    "city": "MILWAUKEE",
    "state": "WI",
    "address": "9200 W WISCONSIN AVE, CARDIOLOGY",
    "phone": "(414) 805-3666",
    "premium_savings": 20
  },
  {
    "id": 410,
    "name": "Maqsood Ahmad, MD",
    "specialty": "Cardiology",
    "zip": "53216",
    "city": "MILWAUKEE",
    "state": "WI",
    "address": "5434 W CAPITOL DR",
    "phone": "(414) 442-5400",
    "premium_savings": 0
  },
  {
    "id": 411,
    "name": "Amanda N Cooper MD",
    "specialty": "Dermatology",
    "zip": "53022",
    "city": "GERMANTOWN",
    "state": "WI",
    "address": "N112W15415 MEQUON RD",
    "phone": "(262) 255-2112",
    "premium_savings": 5
  },
  {
    "id": 412,
    "name": "Jason G Rosenberg, MD",
    "specialty": "Dermatology",
    "zip": "53211",
    "city": "MILWAUKEE",
    "state": "WI",
    "address": "2350 N LAKE DR STE 300",
    "phone": "(414) 298-7100",
    "premium_savings": 10
  },
  {
    "id": 413,
    "name": "Gretchen M Zirbel, MD",
    "specialty": "Dermatology",
    "zip": "53005",
    "city": "BROOKFIELD",
    "state": "WI",
    "address": "13800 W NORTH AVE, STE 100",
    "phone": "(262) 754-4488",
    "premium_savings": 15
  },
  {
    "id": 414,
    "name": "Tiffany L Rebella, MD",
    "specialty": "Dermatology",
    "zip": "53051",
    "city": "MENOMONEE FALLS",
    "state": "WI",
    "address": "N84W16889 MENOMONEE AVE",
    "phone": "(262) 251-7500",
    "premium_savings": 20
  },
  {
    "id": 415,
    "name": "Steven M Schuckit MD",
    "specialty": "Dermatology",
    "zip": "53005",
    "city": "BROOKFIELD",
    "state": "WI",
    "address": "13800 W NORTH AVE STE 100",
    "phone": "(262) 754-4488",
    "premium_savings": 0
  },
  {
    "id": 416,
    "name": "Kathleen Sarah Stokes, MD",
    "specialty": "Dermatology",
    "zip": "53005",
    "city": "BROOKFIELD",
    "state": "WI",
    "address": "13800 W NORTH AVE, STE 100",
    "phone": "(262) 754-4488",
    "premium_savings": 5
  },
  {
    "id": 417,
    "name": "April J Zhang, MD",
    "specialty": "Dermatology",
    "zip": "53226",
    "city": "MILWAUKEE",
    "state": "WI",
    "address": "9200 W WISCONSIN AVE",
    "phone": "(414) 805-5320",
    "premium_savings": 10
  },
  {
    "id": 418,
    "name": "Affiliated Dermatologists, SC",
    "specialty": "Dermatology",
    "zip": null,
    "city": null,
    "state": null,
    "address": null,
    "phone": null,
    "premium_savings": 15
  },
  {
    "id": 419,
    "name": "Travis J Kuemmet, MD",
    "specialty": "Dermatology",
    "zip": "53226",
    "city": "WAUWATOSA",
    "state": "WI",
    "address": "10000 W BLUEMOUND RD",
    "phone": "(414) 454-8000",
    "premium_savings": 20
  },
  {
    "id": 420,
    "name": "Ryan Sacotte, MD",
    "specialty": "Dermatology",
    "zip": "53005",
    "city": "BROOKFIELD",
    "state": "WI",
    "address": "13800 W NORTH AVE",
    "phone": "(262) 754-4488",
    "premium_savings": 0
  },
  {
    "id": 421,
    "name": "Affiliated Dermatologists, SC",
    "specialty": "Dermatology",
    "zip": "53005",
    "city": "BROOKFIELD",
    "state": "WI",
    "address": "13800 W NORTH AVE, SUITE 100",
    "phone": "(262) 754-4488",
    "premium_savings": 5
  },
  {
    "id": 422,
    "name": "Thorsteinn Skulason, MD",
    "specialty": "Dermatology",
    "zip": "53211",
    "city": "MILWAUKEE",
    "state": "WI",
    "address": "2350 N LAKE DR STE 300",
    "phone": "(414) 298-7100",
    "premium_savings": 10
  },
  {
    "id": 423,
    "name": "James P Russell, MD",
    "specialty": "Dermatology",
    "zip": "53005",
    "city": "BROOKFIELD",
    "state": "WI",
    "address": "13800 W NORTH AVE, STE 100",
    "phone": "(262) 754-4488",
    "premium_savings": 15
  },
  {
    "id": 424,
    "name": "Marianne M Junck, MD",
    "specialty": "Dermatology",
    "zip": "53022",
    "city": "GERMANTOWN",
    "state": "WI",
    "address": "N112W17975 MEQUON RD",
    "phone": "(262) 532-7600",
    "premium_savings": 20
  },
  {
    "id": 425,
    "name": "Alexandra C Carley, MD",
    "specialty": "Dermatology",
    "zip": "53024",
    "city": "GRAFTON",
    "state": "WI",
    "address": "215 WASHINGTON ST",
    "phone": "(262) 375-3700",
    "premium_savings": 0
  },
  {
    "id": 426,
    "name": "Brian W Lee, MD",
    "specialty": "Dermatology",
    "zip": "53188",
    "city": "WAUKESHA",
    "state": "WI",
    "address": "N16W24131 RIVERWOOD DR",
    "phone": "(262) 696-0808",
    "premium_savings": 5
  },
  {
    "id": 427,
    "name": "Gabriela M Morris, MD",
    "specialty": "Dermatology",
    "zip": "53092",
    "city": "MEQUON",
    "state": "WI",
    "address": "12203 CORPORATE PKWY",
    "phone": "(262) 387-8200",
    "premium_savings": 10
  },
  {
    "id": 428,
    "name": "Dermatologic Surgery Associates",
    "specialty": "Dermatology",
    "zip": "53220",
    "city": "GREENFIELD",
    "state": "WI",
    "address": "6790 W LAYTON AVE",
    "phone": "(414) 325-8500",
    "premium_savings": 15
  },
  {
    "id": 429,
    "name": "Keely M Marshall, MD",
    "specialty": "Dermatology",
    "zip": "53226",
    "city": "WAUWATOSA",
    "state": "WI",
    "address": "10000 W BLUEMOUND RD",
    "phone": "(414) 454-8000",
    "premium_savings": 20
  },
  {
    "id": 430,
    "name": "Anthony G Yug, MD",
    "specialty": "Dermatology",
    "zip": "53220",
    "city": "GREENFIELD",
    "state": "WI",
    "address": "6790 W LAYTON AVE",
    "phone": "(414) 325-8500",
    "premium_savings": 0
  },
  {
    "id": 431,
    "name": "Forefront Dermatology, S.C.",
    "specialty": "Dermatology",
    "zip": "53132",
    "city": "FRANKLIN",
    "state": "WI",
    "address": "10500 W LOOMIS RD, SUITE 110",
    "phone": "(262) 898-4400",
    "premium_savings": 5
  },
  {
    "id": 432,
    "name": "Linda M Serrano, MD",
    "specialty": "Dermatology",
    "zip": "53220",
    "city": "GREENFIELD",
    "state": "WI",
    "address": "6901 W EDGERTON AVE",
    "phone": "(414) 421-8400",
    "premium_savings": 10
  },
  {
    "id": 433,
    "name": "Kevin Patrick Ciriacks, MD",
    "specialty": "Dermatology",
    "zip": "53089",
    "city": "SUSSEX",
    "state": "WI",
    "address": "N57W24950 N CORPORATE CIR",
    "phone": "(262) 820-3093",
    "premium_savings": 15
  },
  {
    "id": 434,
    "name": "Christopher T Burnett, MD",
    "specialty": "Dermatology",
    "zip": "53188",
    "city": "WAUKESHA",
    "state": "WI",
    "address": "N16W24131 RIVERWOOD DR, PEWAUKEE CLINIC",
    "phone": "(262) 696-0808",
    "premium_savings": 20
  },
  {
    "id": 435,
    "name": "Gretchen M Roth, MD",
    "specialty": "Dermatology",
    "zip": "53226",
    "city": "WAUWATOSA",
    "state": "WI",
    "address": "10000 W BLUEMOUND RD",
    "phone": "(414) 454-4321",
    "premium_savings": 0
  },
  {
    "id": 436,
    "name": "Daniel G Gitter, MD",
    "specialty": "Dermatology",
    "zip": "53209",
    "city": "MILWAUKEE",
    "state": "WI",
    "address": "3003 W GOOD HOPE RD",
    "phone": "(414) 352-3100",
    "premium_savings": 5
  },
  {
    "id": 437,
    "name": "Jack E Maloney, MD",
    "specialty": "Dermatology",
    "zip": "53227",
    "city": "WEST ALLIS",
    "state": "WI",
    "address": "2323 S 102ND ST",
    "phone": "(414) 541-9900",
    "premium_savings": 10
  },
  {
    "id": 438,
    "name": "Srividya Kidambi, MD",
    "specialty": "Endocrinology",
    "zip": "53226",
    "city": "MILWAUKEE",
    "state": "WI",
    "address": "9200 W WISCONSIN AVE, DIVISION OF ENDOCRINOLOGY",
    "phone": "(414) 456-6722",
    "premium_savings": 15
  },
  {
    "id": 439,
    "name": "Bradley Richard Javorsky, MD",
    "specialty": "Endocrinology",
    "zip": "53051",
    "city": "MENOMONEE FALLS",
    "state": "WI",
    "address": "W129N7055 NORTHFIELD DR, ENDOCRINOLOGY CLINIC",
    "phone": "(262) 253-7155",
    "premium_savings": 20
  },
  {
    "id": 440,
    "name": "Usonwanne U Ibekwe, MD",
    "specialty": "Endocrinology",
    "zip": "53202",
    "city": "MILWAUKEE",
    "state": "WI",
    "address": "788 N JEFFERSON ST STE 300",
    "phone": "(414) 272-8950",
    "premium_savings": 0
  },
  {
    "id": 441,
    "name": "Samuel S Yoon, MD",
    "specialty": "Endocrinology",
    "zip": "53029",
    "city": "HARTLAND",
    "state": "WI",
    "address": "600 WALNUT RIDGE DR",
    "phone": "(262) 369-7040",
    "premium_savings": 5
  },
  {
    "id": 442,
    "name": "Denise a Teves Qualler, MD",
    "specialty": "Endocrinology",
    "zip": "53226",
    "city": "MILWAUKEE",
    "state": "WI",
    "address": "9200 W WISCONSIN AVE, DIVISION OF ENDOCRINOLOGY",
    "phone": "(414) 955-6724",
    "premium_savings": 10
  },
  {
    "id": 443,
    "name": "Erik R Jeanes, MD",
    "specialty": "Endocrinology",
    "zip": "53074",
    "city": "PORT WASHINGTON",
    "state": "WI",
    "address": "1475 W GRAND AVE",
    "phone": "(262) 268-5100",
    "premium_savings": 15
  },
  {
    "id": 444,
    "name": "Antoni J Gofron, MD",
    "specialty": "Endocrinology",
    "zip": "53202",
    "city": "MILWAUKEE",
    "state": "WI",
    "address": "788 N JEFFERSON ST, SUITE 201",
    "phone": "(414) 226-4010",
    "premium_savings": 20
  },
  {
    "id": 445,
    "name": "Kimberly a Lamack, MD",
    "specialty": "Endocrinology",
    "zip": "53226",
    "city": "WAUWATOSA",
    "state": "WI",
    "address": "201 N MAYFAIR ROAD",
    "phone": "(414) 771-8228",
    "premium_savings": 0
  },
  {
    "id": 446,
    "name": "Hairong Sang MD",
    "specialty": "Endocrinology",
    "zip": "53226",
    "city": "WAUWATOSA",
    "state": "WI",
    "address": "201 N MAYFAIR RD, 2ND F",
    "phone": "(414) 771-8228",
    "premium_savings": 5
  },
  {
    "id": 447,
    "name": "Ty B Carroll, MD",
    "specialty": "Endocrinology",
    "zip": "53051",
    "city": "MENOMONEE FALLS",
    "state": "WI",
    "address": "W129N7055 NORTHFIELD DR, DIVISION OF ENDOCRINOLOGY",
    "phone": "(262) 253-7155",
    "premium_savings": 10
  },
  {
    "id": 448,
    "name": "Brent Fossum Jones, MD",
    "specialty": "Endocrinology",
    "zip": "53202",
    "city": "MILWAUKEE",
    "state": "WI",
    "address": "788 N JEFFERSON ST, SUITE 201",
    "phone": "(414) 226-4010",
    "premium_savings": 15
  },
  {
    "id": 449,
    "name": "Elizabeth Bart, MD",
    "specialty": "Endocrinology",
    "zip": "53215",
    "city": "MILWAUKEE",
    "state": "WI",
    "address": "2801 W KINNICKINNIC RIVER PKWY",
    "phone": "(414) 649-6780",
    "premium_savings": 20
  },
  {
    "id": 450,
    "name": "Jenna L Sarvaideo, DO",
    "specialty": "Endocrinology",
    "zip": "53226",
    "city": "MILWAUKEE",
    "state": "WI",
    "address": "9200 W WISCONSIN AVENUE, DIVISION OF ENDOCRINOLOGY",
    "phone": "(414) 955-6723",
    "premium_savings": 0
  },
  {
    "id": 451,
    "name": "Steven B Magill, MD",
    "specialty": "Endocrinology",
    "zip": "53051",
    "city": "MENOMONEE FALLS",
    "state": "WI",
    "address": "W129N7055 NORTHFIELD DR",
    "phone": "(262) 253-7155",
    "premium_savings": 5
  },
  {
    "id": 452,
    "name": "Aron S Adkins, MD",
    "specialty": "Endocrinology",
    "zip": "54701",
    "city": "EAU CLAIRE",
    "state": "WI",
    "address": "3802 OAKWOOD MALL DR",
    "phone": "(715) 839-9280",
    "premium_savings": 10
  },
  {
    "id": 453,
    "name": "Bhavin R Shastri, MD",
    "specialty": "Endocrinology",
    "zip": "53051",
    "city": "MENOMONEE FALLS",
    "state": "WI",
    "address": "N84W16889 MENOMONEE AVE",
    "phone": "(262) 251-7500",
    "premium_savings": 15
  },
  {
    "id": 454,
    "name": "Jimmy L Kim MD",
    "specialty": "Gastroenterology",
    "zip": "53110",
    "city": "CUDAHY",
    "state": "WI",
    "address": "5900 S LAKE DR",
    "phone": "(414) 489-4190",
    "premium_savings": 20
  },
  {
    "id": 455,
    "name": "David M Staff, MD",
    "specialty": "Gastroenterology",
    "zip": "53188",
    "city": "WAUKESHA",
    "state": "WI",
    "address": "1111 DELAFIELD ST, SUITE 212",
    "phone": "(262) 544-8622",
    "premium_savings": 0
  },
  {
    "id": 456,
    "name": "William John Blosky MD",
    "specialty": "Gastroenterology",
    "zip": "53215",
    "city": "MILWAUKEE",
    "state": "WI",
    "address": "2801 W KINNICKINNIC RIVER PKWY STE 1080",
    "phone": "(414) 908-6601",
    "premium_savings": 5
  },
  {
    "id": 457,
    "name": "Shaibal Mazumdar, MD",
    "specialty": "Gastroenterology",
    "zip": "53051",
    "city": "MENOMONEE FALLS",
    "state": "WI",
    "address": "N84W16889 MENOMONEE AVE",
    "phone": "(262) 251-7500",
    "premium_savings": 10
  },
  {
    "id": 458,
    "name": "Madhuri H Trivedi, MD",
    "specialty": "Gastroenterology",
    "zip": "53095",
    "city": "WEST BEND",
    "state": "WI",
    "address": "1700 W PARADISE DR",
    "phone": "(262) 334-3451",
    "premium_savings": 15
  },
  {
    "id": 459,
    "name": "Jamal a Qureshi, MD",
    "specialty": "Gastroenterology",
    "zip": "53215",
    "city": "MILWAUKEE",
    "state": "WI",
    "address": "2801 W KK RIVER PKWY STE 1080",
    "phone": "(414) 908-6500",
    "premium_savings": 20
  },
  {
    "id": 460,
    "name": "James B Nelson, MD",
    "specialty": "Gastroenterology",
    "zip": "53226",
    "city": "MILWAUKEE",
    "state": "WI",
    "address": "9200 W WISCONSIN AVE",
    "phone": "(414) 805-3310",
    "premium_savings": 0
  },
  {
    "id": 461,
    "name": "Sunil Kapur, MD",
    "specialty": "Gastroenterology",
    "zip": "53209",
    "city": "MILWAUKEE",
    "state": "WI",
    "address": "3003 W GOOD HOPE RD",
    "phone": "(414) 352-3100",
    "premium_savings": 5
  },
  {
    "id": 462,
    "name": "Gi Associates, LLC",
    "specialty": "Gastroenterology",
    "zip": null,
    "city": null,
    "state": null,
    "address": null,
    "phone": null,
    "premium_savings": 10
  },
  {
    "id": 463,
    "name": "Cristino Caayao Canga III, MD",
    "specialty": "Gastroenterology",
    "zip": "53215",
    "city": "MILWAUKEE",
    "state": "WI",
    "address": "2801 W KK RIVER PKWY, SUITE 1030",
    "phone": "(414) 908-6500",
    "premium_savings": 15
  },
  {
    "id": 464,
    "name": "Syed H Mehdi, MD",
    "specialty": "Gastroenterology",
    "zip": "53051",
    "city": "MENOMONEE FALLS",
    "state": "WI",
    "address": "W129N7055 NORTHFIELD DR, GASTROENTEROLOGY",
    "phone": "(262) 253-5400",
    "premium_savings": 20
  },
  {
    "id": 465,
    "name": "Daniel J Geenen MD",
    "specialty": "Gastroenterology",
    "zip": "53215",
    "city": "MILWAUKEE",
    "state": "WI",
    "address": "2801 W KINNICKINNIC RIVER PKWY STE 1080",
    "phone": "(414) 908-6615",
    "premium_savings": 0
  },
  {
    "id": 466,
    "name": "Gi Associates, LLC",
    "specialty": "Gastroenterology",
    "zip": "53215",
    "city": "MILWAUKEE",
    "state": "WI",
    "address": "2801 W KK RIVER PKWY STE 1080",
    "phone": "(414) 908-6500",
    "premium_savings": 5
  },
  {
    "id": 467,
    "name": "Nalini M Guda, MD",
    "specialty": "Gastroenterology",
    "zip": "53215",
    "city": "MILWAUKEE",
    "state": "WI",
    "address": "2801 W KINNICKINNIC RIVER PKWY STE 1080",
    "phone": "(414) 908-6615",
    "premium_savings": 10
  },
  {
    "id": 468,
    "name": "Mario Javier Velez, MD",
    "specialty": "Gastroenterology",
    "zip": "53215",
    "city": "MILWAUKEE",
    "state": "WI",
    "address": "2801 W KINNICKINNIC RIVER PKWY STE 1080",
    "phone": "(414) 908-6500",
    "premium_savings": 15
  },
  {
    "id": 469,
    "name": "Chad J Stepke, MD",
    "specialty": "Gastroenterology",
    "zip": "53211",
    "city": "MILWAUKEE",
    "state": "WI",
    "address": "2350 N LAKE DR STE 500",
    "phone": "(414) 226-4020",
    "premium_savings": 20
  },
  {
    "id": 470,
    "name": "Eugene Kligman, MD",
    "specialty": "Gastroenterology",
    "zip": "53097",
    "city": "MEQUON",
    "state": "WI",
    "address": "13133 N PORT WASHINGTON RD STE G16",
    "phone": "(847) 909-2695",
    "premium_savings": 0
  },
  {
    "id": 471,
    "name": "James T Kwiatt, MD",
    "specialty": "Gastroenterology",
    "zip": "53226",
    "city": "WAUWATOSA",
    "state": "WI",
    "address": "1033 N MAYFAIR RD, SUITE 101",
    "phone": "(414) 454-0500",
    "premium_savings": 5
  },
  {
    "id": 472,
    "name": "Aravind S Vijayapal, MD",
    "specialty": "Gastroenterology",
    "zip": "53188",
    "city": "WAUKESHA",
    "state": "WI",
    "address": "1111 DELAFIELD ST, SUITE 212",
    "phone": "(262) 544-8622",
    "premium_savings": 10
  },
  {
    "id": 473,
    "name": "Juan Pablo Trivella MD",
    "specialty": "Gastroenterology",
    "zip": "53226",
    "city": "MILWAUKEE",
    "state": "WI",
    "address": "9200 W WISCONSIN AVE",
    "phone": "(414) 955-6830",
    "premium_savings": 15
  },
  {
    "id": 474,
    "name": "Ricardo a Li, MD",
    "specialty": "Gastroenterology",
    "zip": "53215",
    "city": "MILWAUKEE",
    "state": "WI",
    "address": "2801 W KINNICKINNIC RIVER PKWY STE 1080",
    "phone": "(414) 908-6615",
    "premium_savings": 20
  },
  {
    "id": 475,
    "name": "Srihari R Ramanujam, MD",
    "specialty": "Gastroenterology",
    "zip": "53097",
    "city": "MEQUON",
    "state": "WI",
    "address": "13133 N. PORT WASHINGTON ROAD, SUITE G-16",
    "phone": "(262) 243-2500",
    "premium_savings": 0
  },
  {
    "id": 476,
    "name": "Brian F Moloney, MD",
    "specialty": "Gastroenterology",
    "zip": "53215",
    "city": "MILWAUKEE",
    "state": "WI",
    "address": "2801 W KINNICKINNIC RIVER PKWY STE 1080",
    "phone": "(414) 908-6601",
    "premium_savings": 5
  },
  {
    "id": 477,
    "name": "Maurice W Chung, MD",
    "specialty": "Gastroenterology",
    "zip": "53211",
    "city": "MILWAUKEE",
    "state": "WI",
    "address": "2311 N PROSPECT AVE",
    "phone": "(414) 319-3000",
    "premium_savings": 10
  },
  {
    "id": 478,
    "name": "Rajesh Santharam, MD",
    "specialty": "Gastroenterology",
    "zip": "53226",
    "city": "WAUWATOSA",
    "state": "WI",
    "address": "1033 N MAYFAIR RD, SUITE 101",
    "phone": "(414) 454-0600",
    "premium_savings": 15
  },
  {
    "id": 479,
    "name": "James Philip G Esteban MD",
    "specialty": "Gastroenterology",
    "zip": "53226",
    "city": "MILWAUKEE",
    "state": "WI",
    "address": "9200 W WISCONSIN AVE, DIVISION OF GASTROENTEROLOGY AND HEPATOLOGY",
    "phone": "(414) 805-0516",
    "premium_savings": 20
  },
  {
    "id": 480,
    "name": "Matthew R Mohorek, MD",
    "specialty": "Gastroenterology",
    "zip": "53215",
    "city": "MILWAUKEE",
    "state": "WI",
    "address": "2801 W KINNICKINNIC RIVER PKWY STE 1080",
    "phone": "(414) 908-6601",
    "premium_savings": 0
  },
  {
    "id": 481,
    "name": "Sohaib Hassan MD",
    "specialty": "Gastroenterology",
    "zip": "53215",
    "city": "MILWAUKEE",
    "state": "WI",
    "address": "2801 W KINNICKINNIC RIVER PKWY STE 1080",
    "phone": "(414) 908-6601",
    "premium_savings": 5
  },
  {
    "id": 482,
    "name": "Amir C Patel, MD",
    "specialty": "Gastroenterology",
    "zip": "53081",
    "city": "SHEBOYGAN",
    "state": "WI",
    "address": "2414 KOHLER MEMORIAL DR",
    "phone": "(920) 457-4461",
    "premium_savings": 10
  },
  {
    "id": 483,
    "name": "Matthew T Peller, MD",
    "specialty": "Gastroenterology",
    "zip": "53226",
    "city": "MILWAUKEE",
    "state": "WI",
    "address": "9200 W WISCONSIN AVE",
    "phone": "(414) 805-3310",
    "premium_savings": 15
  },
  {
    "id": 484,
    "name": "Venelin J Kounev, MD",
    "specialty": "Gastroenterology",
    "zip": "53110",
    "city": "CUDAHY",
    "state": "WI",
    "address": "3501 E RAMSEY AVE",
    "phone": "(262) 243-2500",
    "premium_savings": 20
  },
  {
    "id": 485,
    "name": "Laura P Mcgartland, MD",
    "specialty": "Hematology & Oncology",
    "zip": "53215",
    "city": "MILWAUKEE",
    "state": "WI",
    "address": "2801 W KINNICKINNIC RIVER PKWY, SUITE 930",
    "phone": "(262) 857-5750",
    "premium_savings": 0
  },
  {
    "id": 486,
    "name": "Ariel a Nelson, MD",
    "specialty": "Hematology & Oncology",
    "zip": "53226",
    "city": "MILWAUKEE",
    "state": "WI",
    "address": "9200 W WISCONSIN AVE, CLCC - FIFTH FLOOR",
    "phone": "(414) 805-0509",
    "premium_savings": 5
  },
  {
    "id": 487,
    "name": "Peter J Polewski, MD",
    "specialty": "Hematology & Oncology",
    "zip": "53024",
    "city": "GRAFTON",
    "state": "WI",
    "address": "975 PORT WASHINGTON RD",
    "phone": "(262) 329-1000",
    "premium_savings": 10
  },
  {
    "id": 488,
    "name": "Syed Noman Haider, MD",
    "specialty": "Hematology & Oncology",
    "zip": "53215",
    "city": "MILWAUKEE",
    "state": "WI",
    "address": "2900 W OKLAHOMA AVE",
    "phone": "(414) 649-6380",
    "premium_savings": 15
  },
  {
    "id": 489,
    "name": "Husam S Tarawneh, MD",
    "specialty": "Hematology & Oncology",
    "zip": "53215",
    "city": "MILWAUKEE",
    "state": "WI",
    "address": "2900 W OKLAHOMA AVE",
    "phone": "(414) 649-6380",
    "premium_savings": 20
  },
  {
    "id": 490,
    "name": "Chad M Glisch, MD",
    "specialty": "Hematology & Oncology",
    "zip": "53227",
    "city": "WEST ALLIS",
    "state": "WI",
    "address": "8901 W LINCOLN AVE",
    "phone": "(414) 329-5950",
    "premium_savings": 0
  },
  {
    "id": 491,
    "name": "Kristen M Corrao, MD",
    "specialty": "Hematology & Oncology",
    "zip": "53226",
    "city": "MILWAUKEE",
    "state": "WI",
    "address": "9200 W WISCONSIN AVE",
    "phone": "(414) 805-0505",
    "premium_savings": 5
  },
  {
    "id": 492,
    "name": "William G Matthaeus, MD",
    "specialty": "Hematology & Oncology",
    "zip": "53226",
    "city": "MILWAUKEE",
    "state": "WI",
    "address": "1055 N MAYFAIR RD",
    "phone": "(262) 857-5750",
    "premium_savings": 10
  },
  {
    "id": 493,
    "name": "Timothy R Wassenaar, MD",
    "specialty": "Hematology & Oncology",
    "zip": "53188",
    "city": "WAUKESHA",
    "state": "WI",
    "address": "N16W24131 RIVERWOOD DR",
    "phone": "(262) 696-5690",
    "premium_savings": 15
  },
  {
    "id": 494,
    "name": "Thomas a Giever, DO",
    "specialty": "Hematology & Oncology",
    "zip": "53226",
    "city": "MILWAUKEE",
    "state": "WI",
    "address": "9200 W WISCONSIN AVE",
    "phone": "(414) 805-4600",
    "premium_savings": 20
  },
  {
    "id": 495,
    "name": "Magdalena Flejsierowicz, MD",
    "specialty": "Hematology & Oncology",
    "zip": "53233",
    "city": "MILWAUKEE",
    "state": "WI",
    "address": "1218 W KILBOURN AVE, SUITE 200",
    "phone": "(414) 219-7370",
    "premium_savings": 0
  },
  {
    "id": 496,
    "name": "Abhay K Jella, MD",
    "specialty": "Hematology & Oncology",
    "zip": "53215",
    "city": "MILWAUKEE",
    "state": "WI",
    "address": "2801 W KINNICKINNIC RIVER PKWY, SUITE 930",
    "phone": "(414) 384-5111",
    "premium_savings": 5
  },
  {
    "id": 497,
    "name": "Colin J Mooney, MD",
    "specialty": "Hematology & Oncology",
    "zip": "53095",
    "city": "WEST BEND",
    "state": "WI",
    "address": "3200 PLEASANT VALLEY RD, ALYCE & ELMORE KRAEMER CANCER CARE CTR",
    "phone": "(262) 836-7200",
    "premium_savings": 10
  },
  {
    "id": 498,
    "name": "Corey J Shamah, MD",
    "specialty": "Hematology & Oncology",
    "zip": "53209",
    "city": "MILWAUKEE",
    "state": "WI",
    "address": "3003 W GOOD HOPE RD",
    "phone": "(414) 352-3100",
    "premium_savings": 15
  },
  {
    "id": 499,
    "name": "Timothy F Goggins, MD",
    "specialty": "Hematology & Oncology",
    "zip": "53022",
    "city": "GERMANTOWN",
    "state": "WI",
    "address": "W180N11070 RIVER LN",
    "phone": "(262) 535-8400",
    "premium_savings": 20
  },
  {
    "id": 500,
    "name": "Ehab L Atallah, MD",
    "specialty": "Hematology & Oncology",
    "zip": "53226",
    "city": "MILWAUKEE",
    "state": "WI",
    "address": "9200 W WISCONSIN AVE, NEOPLASTIC DISEASES",
    "phone": "(414) 805-6800",
    "premium_savings": 0
  },
  {
    "id": 501,
    "name": "Kathryn a Bylow, MD",
    "specialty": "Hematology & Oncology",
    "zip": "53226",
    "city": "MILWAUKEE",
    "state": "WI",
    "address": "9200 W WISCONSIN AVE, NEOPLASTIC DISEASES",
    "phone": "(414) 805-4600",
    "premium_savings": 5
  },
  {
    "id": 502,
    "name": "Brenda M Pierce, MD",
    "specialty": "Hematology & Oncology",
    "zip": "53227",
    "city": "WEST ALLIS",
    "state": "WI",
    "address": "8901 W LINCOLN AVE",
    "phone": "(262) 857-5750",
    "premium_savings": 10
  },
  {
    "id": 503,
    "name": "Anita Dsouza, MD",
    "specialty": "Hematology & Oncology",
    "zip": "53226",
    "city": "MILWAUKEE",
    "state": "WI",
    "address": "9200 W WISCONSIN AVE, DIVISION OF NEOPLASTIC DISEASES",
    "phone": "(414) 805-4600",
    "premium_savings": 15
  },
  {
    "id": 504,
    "name": "Ranveer K Nand MD",
    "specialty": "Hematology & Oncology",
    "zip": "53211",
    "city": "MILWAUKEE",
    "state": "WI",
    "address": "2350 N LAKE DR, SUITE 100",
    "phone": "(414) 298-7250",
    "premium_savings": 20
  },
  {
    "id": 505,
    "name": "Edward H Kovnar, MD",
    "specialty": "Neurology",
    "zip": "53209",
    "city": "MILWAUKEE",
    "state": "WI",
    "address": "3003 W GOOD HOPE RD",
    "phone": "(414) 352-3100",
    "premium_savings": 0
  },
  {
    "id": 506,
    "name": "Edward G Reshel, MD",
    "specialty": "Neurology",
    "zip": "53051",
    "city": "MENOMONEE FALLS",
    "state": "WI",
    "address": "W180N7950 TOWN HALL RD",
    "phone": "(262) 255-2500",
    "premium_savings": 5
  },
  {
    "id": 507,
    "name": "Staley a Brod MD",
    "specialty": "Neurology",
    "zip": "53226",
    "city": "MILWAUKEE",
    "state": "WI",
    "address": "9200 W WISCONSIN AVE, DEPARTMENT OF NEUROLOGY",
    "phone": "(414) 805-5200",
    "premium_savings": 10
  },
  {
    "id": 508,
    "name": "Naveen Kumar R Addagatla MD",
    "specialty": "Neurology",
    "zip": "53226",
    "city": "MILWAUKEE",
    "state": "WI",
    "address": "9200 W WISCONSIN AVE, DEPARTMENT OF NEUROLOGY, MCW",
    "phone": "(414) 805-5200",
    "premium_savings": 15
  },
  {
    "id": 509,
    "name": "Asad Ullah, MD",
    "specialty": "Neurology",
    "zip": "53051",
    "city": "MENOMONEE FALLS",
    "state": "WI",
    "address": "N84W16889 MENOMONEE AVE",
    "phone": "(262) 251-7500",
    "premium_savings": 20
  },
  {
    "id": 510,
    "name": "Aasifuddin S Ahmed",
    "specialty": "Neurology",
    "zip": "53215",
    "city": "MILWAUKEE",
    "state": "WI",
    "address": "2801 W KINNICKINNIC RIVER PKWY STE 550",
    "phone": "(414) 385-8780",
    "premium_savings": 0
  },
  {
    "id": 511,
    "name": "Hatim S Attar, MD",
    "specialty": "Neurology",
    "zip": "53226",
    "city": "MILWAUKEE",
    "state": "WI",
    "address": "9200 W WISCONSIN AVE",
    "phone": "(414) 805-5200",
    "premium_savings": 5
  },
  {
    "id": 512,
    "name": "Kathryn D Gaines, DO",
    "specialty": "Neurology",
    "zip": "53209",
    "city": "MILWAUKEE",
    "state": "WI",
    "address": "3003 W GOOD HOPE RD",
    "phone": "(414) 352-3100",
    "premium_savings": 10
  },
  {
    "id": 513,
    "name": "Virendra K Misra, MD",
    "specialty": "Neurology",
    "zip": "53154",
    "city": "OAK CREEK",
    "state": "WI",
    "address": "2603 W RAWSON AVE, SUITE 128",
    "phone": "(414) 431-6760",
    "premium_savings": 15
  },
  {
    "id": 514,
    "name": "Thomas Varghese, MD",
    "specialty": "Neurology",
    "zip": "53005",
    "city": "BROOKFIELD",
    "state": "WI",
    "address": "13950 W CAPITOL DRIVE",
    "phone": "(414) 302-5400",
    "premium_savings": 20
  },
  {
    "id": 515,
    "name": "Thulasirman P Ravichandran, MD",
    "specialty": "Neurology",
    "zip": "53215",
    "city": "MILWAUKEE",
    "state": "WI",
    "address": "2025 W OKLAHOMA AVE, SUITE 120",
    "phone": "(414) 382-8960",
    "premium_savings": 0
  },
  {
    "id": 516,
    "name": "Rizwanullah Arain, MD",
    "specialty": "Neurology",
    "zip": "53210",
    "city": "MILWAUKEE",
    "state": "WI",
    "address": "6026 W LISBON AVE",
    "phone": "(414) 442-3630",
    "premium_savings": 5
  },
  {
    "id": 517,
    "name": "Jorge Marquez Deleon, MD",
    "specialty": "Neurology",
    "zip": "53095",
    "city": "WEST BEND",
    "state": "WI",
    "address": "1100 GATEWAY CT",
    "phone": "(262) 335-8600",
    "premium_savings": 10
  },
  {
    "id": 518,
    "name": "Daniel Dean Champeau, MD",
    "specialty": "Neurology",
    "zip": "53051",
    "city": "MENOMONEE FALLS",
    "state": "WI",
    "address": "W129N7055 NORTHFIELD DR",
    "phone": "(414) 805-5235",
    "premium_savings": 15
  },
  {
    "id": 519,
    "name": "Thomas J Wolfe, MD",
    "specialty": "Neurology",
    "zip": "53215",
    "city": "MILWAUKEE",
    "state": "WI",
    "address": "2801 W KINNICKINNIC RIVER PKWY, STE 630",
    "phone": "(414) 385-1922",
    "premium_savings": 20
  },
  {
    "id": 520,
    "name": "Teresa Mei Lee, MD",
    "specialty": "Neurology",
    "zip": "53215",
    "city": "MILWAUKEE",
    "state": "WI",
    "address": "2900 W OKLAHOMA AVE",
    "phone": "(414) 649-6000",
    "premium_savings": 0
  },
  {
    "id": 521,
    "name": "Chhaya Jayram Patel, MD",
    "specialty": "Neurology",
    "zip": "53095",
    "city": "WEST BEND",
    "state": "WI",
    "address": "3200 PLEASANT VALLEY RD",
    "phone": "(262) 836-7300",
    "premium_savings": 5
  },
  {
    "id": 522,
    "name": "Taylor Andrew Finseth, MD",
    "specialty": "Neurology",
    "zip": "53215",
    "city": "MILWAUKEE",
    "state": "WI",
    "address": "2801 W KINNICKINNIC PKWY, SUITE 570",
    "phone": "(414) 385-8780",
    "premium_savings": 10
  },
  {
    "id": 523,
    "name": "Dominic B Fee, MD",
    "specialty": "Neurology",
    "zip": "53226",
    "city": "MILWAUKEE",
    "state": "WI",
    "address": "9200 W WISCONSIN AVE, DEPARTMENT OF NEUROLOGY",
    "phone": "(414) 805-5200",
    "premium_savings": 15
  },
  {
    "id": 524,
    "name": "Aditya Vuppala",
    "specialty": "Neurology",
    "zip": "53226",
    "city": "MILWAUKEE",
    "state": "WI",
    "address": "9200 W WISCONSIN AVE",
    "phone": "(414) 805-8710",
    "premium_savings": 20
  },
  {
    "id": 525,
    "name": "Eric E Potts, MD",
    "specialty": "Neurology",
    "zip": "53051",
    "city": "MENOMONEE FALLS",
    "state": "WI",
    "address": "N84W16889 MENOMONEE AVE",
    "phone": "(262) 251-7500",
    "premium_savings": 0
  },
  {
    "id": 526,
    "name": "Manoj Raghavan, MD",
    "specialty": "Neurology",
    "zip": "53226",
    "city": "MILWAUKEE",
    "state": "WI",
    "address": "9200 W WISCONSIN AVE, DEPT OF NEUROLOGY",
    "phone": "(414) 805-5200",
    "premium_savings": 5
  },
  {
    "id": 527,
    "name": "Nicholas D Osteraas, MD",
    "specialty": "Neurology",
    "zip": "53215",
    "city": "MILWAUKEE",
    "state": "WI",
    "address": "2801 W KINNICKINNIC RIVER PKWY",
    "phone": "(414) 385-1922",
    "premium_savings": 10
  },
  {
    "id": 528,
    "name": "Kavit B Shah, MD",
    "specialty": "Neurology",
    "zip": "53215",
    "city": "MILWAUKEE",
    "state": "WI",
    "address": "2801 W KINNICKINNIC RIVER PKWY STE 680",
    "phone": "(414) 385-1922",
    "premium_savings": 15
  },
  {
    "id": 529,
    "name": "Heidi M Pangborn, MD",
    "specialty": "Neurology",
    "zip": "53209",
    "city": "MILWAUKEE",
    "state": "WI",
    "address": "3003 W GOOD HOPE RD",
    "phone": "(414) 352-3100",
    "premium_savings": 20
  },
  {
    "id": 530,
    "name": "Janice H Alexander, MD",
    "specialty": "Obstetrics & Gynecology",
    "zip": null,
    "city": null,
    "state": null,
    "address": null,
    "phone": null,
    "premium_savings": 0
  },
  {
    "id": 531,
    "name": "Janet B Goldman, MD",
    "specialty": "Obstetrics & Gynecology",
    "zip": "53095",
    "city": "WEST BEND",
    "state": "WI",
    "address": "3200 PLEASANT VALLEY RD",
    "phone": "(262) 836-7300",
    "premium_savings": 5
  },
  {
    "id": 532,
    "name": "Grace Caroline Worzalla, MD",
    "specialty": "Obstetrics & Gynecology",
    "zip": "53022",
    "city": "GERMANTOWN",
    "state": "WI",
    "address": "W180N11070 RIVER LN",
    "phone": "(262) 535-8400",
    "premium_savings": 10
  },
  {
    "id": 533,
    "name": "Erin a Bishop, MD",
    "specialty": "Obstetrics & Gynecology",
    "zip": "53226",
    "city": "MILWAUKEE",
    "state": "WI",
    "address": "9200 W WISCONSIN AVE, GYNECOLOGIC ONCOLOGY",
    "phone": "(414) 805-6600",
    "premium_savings": 15
  },
  {
    "id": 534,
    "name": "Darin R Gregory, MD",
    "specialty": "Obstetrics & Gynecology",
    "zip": "53188",
    "city": "WAUKESHA",
    "state": "WI",
    "address": "1111 DELAFIELD ST STE 120",
    "phone": "(262) 544-4411",
    "premium_savings": 20
  },
  {
    "id": 535,
    "name": "Emily Rose Wenrich Davidson, MD",
    "specialty": "Obstetrics & Gynecology",
    "zip": "53226",
    "city": "MILWAUKEE",
    "state": "WI",
    "address": "9200 W WISCONSIN AVE",
    "phone": "(414) 805-6644",
    "premium_savings": 0
  },
  {
    "id": 536,
    "name": "Vini Chopra Konowitz, MD",
    "specialty": "Obstetrics & Gynecology",
    "zip": "53022",
    "city": "GERMANTOWN",
    "state": "WI",
    "address": "W180N11070 RIVER LN",
    "phone": "(262) 535-8400",
    "premium_savings": 5
  },
  {
    "id": 537,
    "name": "Sandra D Gottwald, MD",
    "specialty": "Obstetrics & Gynecology",
    "zip": "53209",
    "city": "MILWAUKEE",
    "state": "WI",
    "address": "3003 W GOOD HOPE RD",
    "phone": "(414) 352-3100",
    "premium_savings": 10
  },
  {
    "id": 538,
    "name": "Geneva M Wahl, MD",
    "specialty": "Obstetrics & Gynecology",
    "zip": "53188",
    "city": "WAUKESHA",
    "state": "WI",
    "address": "1111 DELAFIELD ST STE 120",
    "phone": "(262) 544-4411",
    "premium_savings": 15
  },
  {
    "id": 539,
    "name": "Denise S Uyar, MD",
    "specialty": "Obstetrics & Gynecology",
    "zip": "53226",
    "city": "MILWAUKEE",
    "state": "WI",
    "address": "9200 W WISCONSIN AVE, GYNECOLOGIC ONCOLOGY",
    "phone": "(414) 805-6600",
    "premium_savings": 20
  },
  {
    "id": 540,
    "name": "Alix F Komar MD",
    "specialty": "Obstetrics & Gynecology",
    "zip": "53227",
    "city": "WEST ALLIS",
    "state": "WI",
    "address": "8905 W LINCOLN AVE",
    "phone": "(414) 328-6000",
    "premium_savings": 0
  },
  {
    "id": 541,
    "name": "Tracy L Capes, MD",
    "specialty": "Obstetrics & Gynecology",
    "zip": "53227",
    "city": "WEST ALLIS",
    "state": "WI",
    "address": "8905 W LINCOLN AVE, STE 405",
    "phone": "(414) 329-5650",
    "premium_savings": 5
  },
  {
    "id": 542,
    "name": "Steven Matthew Cherney, MD",
    "specialty": "Orthopedic Surgery",
    "zip": "53226",
    "city": "MILWAUKEE",
    "state": "WI",
    "address": "9200 W WISCONSIN AVE",
    "phone": "(414) 805-7400",
    "premium_savings": 10
  },
  {
    "id": 543,
    "name": "Rachel K Muscott, MD",
    "specialty": "Orthopedic Surgery",
    "zip": "53027",
    "city": "HARTFORD",
    "state": "WI",
    "address": "1640 E SUMNER ST",
    "phone": "(262) 670-4000",
    "premium_savings": 15
  },
  {
    "id": 544,
    "name": "Derek J Orton, MD",
    "specialty": "Orthopedic Surgery",
    "zip": "53228",
    "city": "GREENFIELD",
    "state": "WI",
    "address": "9000 W SURA LN",
    "phone": "(262) 329-2225",
    "premium_savings": 20
  },
  {
    "id": 545,
    "name": "Meghan M Caballero, MD",
    "specialty": "Orthopedic Surgery",
    "zip": "53151",
    "city": "NEW BERLIN",
    "state": "WI",
    "address": "4805 S MOORLAND RD",
    "phone": "(262) 798-7200",
    "premium_savings": 0
  },
  {
    "id": 546,
    "name": "Stephen M Kurtin, MD",
    "specialty": "Orthopedic Surgery",
    "zip": "53024",
    "city": "GRAFTON",
    "state": "WI",
    "address": "975 PORT WASHINGTON RD",
    "phone": "(262) 329-8300",
    "premium_savings": 5
  },
  {
    "id": 547,
    "name": "Jeffrey Miles Coppage, MD",
    "specialty": "Orthopedic Surgery",
    "zip": "53072",
    "city": "PEWAUKEE",
    "state": "WI",
    "address": "N15W28300 GOLF RD",
    "phone": "(262) 303-5055",
    "premium_savings": 10
  },
  {
    "id": 548,
    "name": "Peeush Singhal, MD",
    "specialty": "Orthopedic Surgery",
    "zip": "53022",
    "city": "GERMANTOWN",
    "state": "WI",
    "address": "W180N11070 RIVER LN",
    "phone": "(262) 532-9700",
    "premium_savings": 15
  },
  {
    "id": 549,
    "name": "Laith M Al-Shihabi, MD",
    "specialty": "Orthopedic Surgery",
    "zip": "53072",
    "city": "PEWAUKEE",
    "state": "WI",
    "address": "N15W28300 GOLF RD",
    "phone": "(262) 303-5055",
    "premium_savings": 20
  },
  {
    "id": 550,
    "name": "Thomas B Huizenga, MD",
    "specialty": "Orthopedic Surgery",
    "zip": "53212",
    "city": "GLENDALE",
    "state": "WI",
    "address": "525 W RIVER WOODS PARKWAY, STE 130",
    "phone": "(414) 961-0304",
    "premium_savings": 0
  },
  {
    "id": 551,
    "name": "Jonathan E Campbell, MD",
    "specialty": "Orthopedic Surgery",
    "zip": "53226",
    "city": "MILWAUKEE",
    "state": "WI",
    "address": "9200 W WISCONSIN AVE",
    "phone": "(414) 805-7410",
    "premium_savings": 5
  },
  {
    "id": 552,
    "name": "Hongsheng Zhu, MD",
    "specialty": "Orthopedic Surgery",
    "zip": "53072",
    "city": "PEWAUKEE",
    "state": "WI",
    "address": "N15W28300 GOLF RD",
    "phone": "(262) 544-5311",
    "premium_savings": 10
  },
  {
    "id": 553,
    "name": "Rory R Wright, MD",
    "specialty": "Orthopedic Surgery",
    "zip": "53212",
    "city": "GLENDALE",
    "state": "WI",
    "address": "525 W RIVER WOODS PKWY STE 100",
    "phone": "(414) 332-6262",
    "premium_savings": 15
  },
  {
    "id": 554,
    "name": "David B Kornreich, DO",
    "specialty": "Orthopedic Surgery",
    "zip": "53226",
    "city": "WAUWATOSA",
    "state": "WI",
    "address": "2500 N MAYFAIR RD, STE 500",
    "phone": "(414) 257-2525",
    "premium_savings": 20
  },
  {
    "id": 555,
    "name": "Amin H Afsari, DO",
    "specialty": "Orthopedic Surgery",
    "zip": "53226",
    "city": "MILWAUKEE",
    "state": "WI",
    "address": "2323 N MAYFAIR RD, SUITE 300",
    "phone": "(414) 384-6700",
    "premium_savings": 0
  },
  {
    "id": 556,
    "name": "William Alexander Davies, MD",
    "specialty": "Orthopedic Surgery",
    "zip": "53072",
    "city": "PEWAUKEE",
    "state": "WI",
    "address": "N15W28300 GOLF RD",
    "phone": "(262) 303-5055",
    "premium_savings": 5
  },
  {
    "id": 557,
    "name": "Paul R Miller, MD",
    "specialty": "Orthopedic Surgery",
    "zip": "53022",
    "city": "GERMANTOWN",
    "state": "WI",
    "address": "W180N11070 RIVER LN",
    "phone": "(262) 532-9700",
    "premium_savings": 10
  },
  {
    "id": 558,
    "name": "Craig C Young, MD",
    "specialty": "Orthopedic Surgery",
    "zip": "53226",
    "city": "MILWAUKEE",
    "state": "WI",
    "address": "9200 W WISCONSIN AVE",
    "phone": "(414) 805-7100",
    "premium_savings": 15
  },
  {
    "id": 559,
    "name": "Rafael Walker Santiago, MD",
    "specialty": "Orthopedic Surgery",
    "zip": "53024",
    "city": "GRAFTON",
    "state": "WI",
    "address": "975 PORT WASHINGTON RD",
    "phone": "(262) 329-1000",
    "premium_savings": 20
  },
  {
    "id": 560,
    "name": "Marc-Antoine Tremblay, MD",
    "specialty": "Orthopedic Surgery",
    "zip": "53227",
    "city": "WEST ALLIS",
    "state": "WI",
    "address": "2424 S 90TH ST STE 500",
    "phone": "(414) 321-2255",
    "premium_savings": 0
  },
  {
    "id": 561,
    "name": "Eric B Pifel, MD",
    "specialty": "Orthopedic Surgery",
    "zip": "53222",
    "city": "WAUWATOSA",
    "state": "WI",
    "address": "3077 N MAYFAIR RD STE 100",
    "phone": "(414) 384-6700",
    "premium_savings": 5
  },
  {
    "id": 562,
    "name": "James a Foley, MD",
    "specialty": "Orthopedic Surgery",
    "zip": "53072",
    "city": "PEWAUKEE",
    "state": "WI",
    "address": "N15W28300 GOLF RD",
    "phone": "(262) 544-5311",
    "premium_savings": 10
  },
  {
    "id": 563,
    "name": "Matthew R Bong, MD",
    "specialty": "Orthopedic Surgery",
    "zip": "53072",
    "city": "PEWAUKEE",
    "state": "WI",
    "address": "N15W28300 GOLF RD",
    "phone": "(262) 544-5311",
    "premium_savings": 15
  },
  {
    "id": 564,
    "name": "Ryan J Kehoe, MD",
    "specialty": "Orthopedic Surgery",
    "zip": "53045",
    "city": "BROOKFIELD",
    "state": "WI",
    "address": "19475 W NORTH AVE, SUITE 201",
    "phone": "(262) 395-4160",
    "premium_savings": 20
  },
  {
    "id": 565,
    "name": "Todd M Swenson, MD",
    "specialty": "Orthopedic Surgery",
    "zip": "53212",
    "city": "GLENDALE",
    "state": "WI",
    "address": "525 W RIVER WOODS PKWY STE 100",
    "phone": "(414) 332-6262",
    "premium_savings": 0
  },
  {
    "id": 566,
    "name": "Ljiljana Bogunovic, MD",
    "specialty": "Orthopedic Surgery",
    "zip": "53072",
    "city": "PEWAUKEE",
    "state": "WI",
    "address": "N15W28300 GOLF RD",
    "phone": "(262) 303-5055",
    "premium_savings": 5
  },
  {
    "id": 567,
    "name": "Eric J. Belin, MD",
    "specialty": "Orthopedic Surgery",
    "zip": "53024",
    "city": "GRAFTON",
    "state": "WI",
    "address": "975 PORT WASHINGTON RD",
    "phone": "(262) 329-1000",
    "premium_savings": 10
  },
  {
    "id": 568,
    "name": "Jeffrey J Stephany, MD",
    "specialty": "Orthopedic Surgery",
    "zip": "53212",
    "city": "GLENDALE",
    "state": "WI",
    "address": "525 W RIVER WOODS PARKWAY, STE 130",
    "phone": "(414) 961-0304",
    "premium_savings": 15
  },
  {
    "id": 569,
    "name": "Michael J Anderson, MD",
    "specialty": "Orthopedic Surgery",
    "zip": "53024",
    "city": "GRAFTON",
    "state": "WI",
    "address": "975 PORT WASHINGTON ROAD, SUITE 110",
    "phone": "(262) 387-8300",
    "premium_savings": 20
  },
  {
    "id": 570,
    "name": "Jonathan D Lester, MD",
    "specialty": "Orthopedic Surgery",
    "zip": "53215",
    "city": "MILWAUKEE",
    "state": "WI",
    "address": "2801 W KINNICKINNIC RIVER PKWY STE 370",
    "phone": "(414) 649-7900",
    "premium_savings": 0
  },
  {
    "id": 571,
    "name": "Dean W Ziegler, MD",
    "specialty": "Orthopedic Surgery",
    "zip": "53212",
    "city": "GLENDALE",
    "state": "WI",
    "address": "525 W RIVER WOODS PKWY STE 100",
    "phone": "(414) 332-6262",
    "premium_savings": 5
  },
  {
    "id": 572,
    "name": "John F Nettrour, MD",
    "specialty": "Orthopedic Surgery",
    "zip": "53226",
    "city": "MILWAUKEE",
    "state": "WI",
    "address": "9200 W WISCONSIN AVE",
    "phone": "(414) 805-7400",
    "premium_savings": 10
  },
  {
    "id": 573,
    "name": "Jeffrey E Larson, MD",
    "specialty": "Orthopedic Surgery",
    "zip": "53227",
    "city": "WEST ALLIS",
    "state": "WI",
    "address": "2424 S 90TH ST, SUITE 500",
    "phone": "(414) 328-8600",
    "premium_savings": 15
  },
  {
    "id": 574,
    "name": "Christopher J Evanich, MD",
    "specialty": "Orthopedic Surgery",
    "zip": "53215",
    "city": "MILWAUKEE",
    "state": "WI",
    "address": "3237 S 16TH ST, SUITE 210",
    "phone": "(414) 384-6700",
    "premium_savings": 20
  },
  {
    "id": 575,
    "name": "Donald K Middleton, MD",
    "specialty": "Orthopedic Surgery",
    "zip": "53212",
    "city": "GLENDALE",
    "state": "WI",
    "address": "525 W RIVER WOODS PARKWAY, STE 130",
    "phone": "(414) 961-0304",
    "premium_savings": 0
  },
  {
    "id": 576,
    "name": "Steven Jon Merkow, MD",
    "specialty": "Orthopedic Surgery",
    "zip": "53072",
    "city": "PEWAUKEE",
    "state": "WI",
    "address": "N15W28300 GOLF RD",
    "phone": "(262) 544-5311",
    "premium_savings": 5
  },
  {
    "id": 577,
    "name": "Michael Thomas Nolte, MD",
    "specialty": "Orthopedic Surgery",
    "zip": "53072",
    "city": "PEWAUKEE",
    "state": "WI",
    "address": "N15W28300 GOLF RD",
    "phone": "(262) 303-5055",
    "premium_savings": 10
  },
  {
    "id": 578,
    "name": "Orthopaedic Associates of Wisconsin, SC",
    "specialty": "Orthopedic Surgery",
    "zip": "53072",
    "city": "PEWAUKEE",
    "state": "WI",
    "address": "N15W28300 GOLF RD",
    "phone": "(262) 544-5311",
    "premium_savings": 15
  },
  {
    "id": 579,
    "name": "Sean C Tracy, MD",
    "specialty": "Orthopedic Surgery",
    "zip": "53226",
    "city": "WAUWATOSA",
    "state": "WI",
    "address": "2500 N MAYFAIR RD, SUITE 500",
    "phone": "(414) 257-2525",
    "premium_savings": 20
  },
  {
    "id": 580,
    "name": "Michael F Iossi, MD",
    "specialty": "Orthopedic Surgery",
    "zip": "53215",
    "city": "MILWAUKEE",
    "state": "WI",
    "address": "2801 W KINNICKINNIC RIVER PKWY STE 345",
    "phone": "(414) 649-7900",
    "premium_savings": 0
  },
  {
    "id": 581,
    "name": "Connor W Sullivan, MD",
    "specialty": "Orthopedic Surgery",
    "zip": "53226",
    "city": "MILWAUKEE",
    "state": "WI",
    "address": "9200 W WISCONSIN AVE",
    "phone": "(414) 805-7400",
    "premium_savings": 5
  },
  {
    "id": 582,
    "name": "Anthony a Ferguson, MD",
    "specialty": "Orthopedic Surgery",
    "zip": "53212",
    "city": "GLENDALE",
    "state": "WI",
    "address": "525 W RIVER WOODS PARKWAY, STE 130",
    "phone": "(414) 961-0304",
    "premium_savings": 10
  },
  {
    "id": 583,
    "name": "David W Meister MD",
    "specialty": "Orthopedic Surgery",
    "zip": "53212",
    "city": "GLENDALE",
    "state": "WI",
    "address": "525 W RIVER WOODS PKWY, SUITE 230",
    "phone": "(414) 453-7418",
    "premium_savings": 15
  },
  {
    "id": 584,
    "name": "Alex Thomas Burton, MD",
    "specialty": "Orthopedic Surgery",
    "zip": "53226",
    "city": "MILWAUKEE",
    "state": "WI",
    "address": "9200 W WISCONSIN AVE",
    "phone": "(414) 955-3222",
    "premium_savings": 20
  },
  {
    "id": 585,
    "name": "Samuel Rh Steiner, MD",
    "specialty": "Orthopedic Surgery",
    "zip": "53072",
    "city": "PEWAUKEE",
    "state": "WI",
    "address": "N15W28300 GOLF RD",
    "phone": "(262) 303-5055",
    "premium_savings": 0
  },
  {
    "id": 586,
    "name": "Justin William Peterson, DO",
    "specialty": "Orthopedic Surgery",
    "zip": "53227",
    "city": "WEST ALLIS",
    "state": "WI",
    "address": "2424 S 90TH ST",
    "phone": "(414) 321-2255",
    "premium_savings": 5
  },
  {
    "id": 587,
    "name": "Brian a Mccarty, MD",
    "specialty": "Orthopedic Surgery",
    "zip": "53222",
    "city": "WAUWATOSA",
    "state": "WI",
    "address": "3077 N MAYFAIR RD STE 100",
    "phone": "(414) 384-6700",
    "premium_savings": 10
  },
  {
    "id": 588,
    "name": "Scott Bennett Schneider, MD",
    "specialty": "Orthopedic Surgery",
    "zip": "53072",
    "city": "PEWAUKEE",
    "state": "WI",
    "address": "N15W28300 GOLF RD",
    "phone": "(262) 544-5311",
    "premium_savings": 15
  },
  {
    "id": 589,
    "name": "Joshua Mccarthy Neubauer, MD",
    "specialty": "Orthopedic Surgery",
    "zip": "53215",
    "city": "MILWAUKEE",
    "state": "WI",
    "address": "3237 S 16TH ST, SUITE 210",
    "phone": "(414) 384-6700",
    "premium_savings": 20
  },
  {
    "id": 590,
    "name": "Timothy Ian Mullin, MD",
    "specialty": "Orthopedic Surgery",
    "zip": "53095",
    "city": "WEST BEND",
    "state": "WI",
    "address": "1700 W PARADISE DR, ORTHOPAEDIC SURGERY",
    "phone": "(262) 334-3451",
    "premium_savings": 0
  },
  {
    "id": 591,
    "name": "Orthopaedic Associates of Wisconsin, SC",
    "specialty": "Orthopedic Surgery",
    "zip": null,
    "city": null,
    "state": null,
    "address": null,
    "phone": null,
    "premium_savings": 5
  },
  {
    "id": 592,
    "name": "Ekaterina V Soforo, MD",
    "specialty": "Rheumatology",
    "zip": "53081",
    "city": "SHEBOYGAN",
    "state": "WI",
    "address": "1414 N TAYLOR DR STE 110",
    "phone": "(920) 320-5241",
    "premium_savings": 10
  },
  {
    "id": 593,
    "name": "Mary Ellen Csuka, MD",
    "specialty": "Rheumatology",
    "zip": "53226",
    "city": "MILWAUKEE",
    "state": "WI",
    "address": "9200 W WISCONSIN AVE, DIVISION OF RHEUMATOLOGY",
    "phone": "(414) 805-6655",
    "premium_savings": 15
  },
  {
    "id": 594,
    "name": "Katherine Healy Vissers Finn, DO",
    "specialty": "Rheumatology",
    "zip": "53217",
    "city": "GLENDALE",
    "state": "WI",
    "address": "7080 N PORT WASHINGTON ROAD",
    "phone": "(414) 351-4009",
    "premium_savings": 20
  },
  {
    "id": 595,
    "name": "Salman Waheeduddin, MD",
    "specialty": "Rheumatology",
    "zip": "53132",
    "city": "FRANKLIN",
    "state": "WI",
    "address": "4225 W OAKWOOD PARK CT",
    "phone": "(414) 435-0025",
    "premium_savings": 0
  },
  {
    "id": 596,
    "name": "Farrukh Siere Pasha, MD",
    "specialty": "Rheumatology",
    "zip": "53217",
    "city": "GLENDALE",
    "state": "WI",
    "address": "7080 N PORT WASHINGTON RD, RHEUMATIC DISEASE CENTER",
    "phone": "(414) 351-4009",
    "premium_savings": 5
  },
  {
    "id": 597,
    "name": "Viktoriya Sabchyshyn, DO",
    "specialty": "Rheumatology",
    "zip": "53226",
    "city": "MILWAUKEE",
    "state": "WI",
    "address": "9200 W WISCONSIN AVE",
    "phone": "(414) 805-7390",
    "premium_savings": 10
  },
  {
    "id": 598,
    "name": "Mark E Pearson MD",
    "specialty": "Rheumatology",
    "zip": "53045",
    "city": "BROOKFIELD",
    "state": "WI",
    "address": "601 N BARKER RD, 110",
    "phone": "(262) 785-0777",
    "premium_savings": 15
  },
  {
    "id": 599,
    "name": "Rodrigo G Valadares De Sousa, MD",
    "specialty": "Rheumatology",
    "zip": "53132",
    "city": "FRANKLIN",
    "state": "WI",
    "address": "4225 W. OAKWOOD PARK CT",
    "phone": "(414) 435-0025",
    "premium_savings": 20
  },
  {
    "id": 600,
    "name": "Douglas J Hempel, MD",
    "specialty": "Rheumatology",
    "zip": "53045",
    "city": "BROOKFIELD",
    "state": "WI",
    "address": "601 N BARKER RD, 110",
    "phone": "(262) 785-0777",
    "premium_savings": 0
  },
  {
    "id": 601,
    "name": "Kurt R Oelke, MD",
    "specialty": "Rheumatology",
    "zip": "53217",
    "city": "GLENDALE",
    "state": "WI",
    "address": "7080 N PORT WASHINGTON RD",
    "phone": "(414) 351-4009",
    "premium_savings": 5
  },
  {
    "id": 602,
    "name": "Jonathan K Kushi, MD",
    "specialty": "Rheumatology",
    "zip": "53217",
    "city": "GLENDALE",
    "state": "WI",
    "address": "7080 N PORT WASHINGTON RD",
    "phone": "(414) 351-4009",
    "premium_savings": 10
  },
  {
    "id": 603,
    "name": "Valley Surgery Center, LLC",
    "specialty": "Ambulatory Surgical Center",
    "zip": "54016",
    "city": "HUDSON",
    "state": "WI",
    "address": "2651 HILLCREST DR STE 301",
    "phone": "(651) 333-2190",
    "premium_savings": 15
  },
  {
    "id": 604,
    "name": "Isabelle Anne Florence Amigues, MD",
    "specialty": "Rheumatology",
    "zip": "54311",
    "city": "GREEN BAY",
    "state": "WI",
    "address": "3263 EATON RD",
    "phone": "(920) 433-6700",
    "premium_savings": 20
  },
  {
    "id": 605,
    "name": "Wisconsin Institute of Surgical Excellence, LLC",
    "specialty": "Ambulatory Surgical Center",
    "zip": "54956",
    "city": "NEENAH",
    "state": "WI",
    "address": "1265 W AMERICAN DR STE 200",
    "phone": "(920) 722-7747",
    "premium_savings": 0
  },
  {
    "id": 606,
    "name": "Orthopedic Surgery Center of the Fox Valley, LLC",
    "specialty": "Ambulatory Surgical Center",
    "zip": "54956",
    "city": "NEENAH",
    "state": "WI",
    "address": "1205 W AMERICAN DR",
    "phone": "(920) 965-6382",
    "premium_savings": 5
  },
  {
    "id": 607,
    "name": "Agei O Enoh, MD",
    "specialty": "Cardiology",
    "zip": "54915",
    "city": "APPLETON",
    "state": "WI",
    "address": "1506 S ONEIDA ST",
    "phone": "(920) 730-2640",
    "premium_savings": 10
  },
  {
    "id": 608,
    "name": "Donald J Brescia, MD",
    "specialty": "Cardiology",
    "zip": "54904",
    "city": "OSHKOSH",
    "state": "WI",
    "address": "2700 W 9TH AVE, STE 106",
    "phone": "(920) 236-1750",
    "premium_savings": 15
  },
  {
    "id": 609,
    "name": "Fox Valley Dermatology, SC",
    "specialty": "Dermatology",
    "zip": "54904",
    "city": "OSHKOSH",
    "state": "WI",
    "address": "515 S WASHBURN ST, SUITE 204",
    "phone": "(920) 232-1130",
    "premium_savings": 20
  },
  {
    "id": 610,
    "name": "Fox Valley Dermatology, SC",
    "specialty": "Dermatology",
    "zip": null,
    "city": null,
    "state": null,
    "address": null,
    "phone": null,
    "premium_savings": 0
  },
  {
    "id": 611,
    "name": "Shaun P Mcdonald, MD",
    "specialty": "Dermatology",
    "zip": "54904",
    "city": "OSHKOSH",
    "state": "WI",
    "address": "515 S WASHBURN ST, SUITE 204",
    "phone": "(920) 232-1130",
    "premium_savings": 5
  },
  {
    "id": 612,
    "name": "Forefront Dermatology, S.C.",
    "specialty": "Dermatology",
    "zip": "54904",
    "city": "OSHKOSH",
    "state": "WI",
    "address": "2351 STATE ROAD 44",
    "phone": "(920) 651-8855",
    "premium_savings": 10
  },
  {
    "id": 613,
    "name": "Bennett J Pastika, DO",
    "specialty": "Gastroenterology",
    "zip": "54904",
    "city": "OSHKOSH",
    "state": "WI",
    "address": "855 N WESTHAVEN DR",
    "phone": "(920) 303-8700",
    "premium_savings": 15
  },
  {
    "id": 614,
    "name": "Mary F Mcdonald, MD",
    "specialty": "Gastroenterology",
    "zip": "54904",
    "city": "OSHKOSH",
    "state": "WI",
    "address": "2700 W 9TH AVE, SUITE 300",
    "phone": "(920) 223-0490",
    "premium_savings": 20
  },
  {
    "id": 615,
    "name": "Digestive Healthcare Specialists, SC",
    "specialty": "Gastroenterology",
    "zip": "54904",
    "city": "OSHKOSH",
    "state": "WI",
    "address": "2700 W 9TH AVE, SUITE315A",
    "phone": "(920) 236-1630",
    "premium_savings": 0
  },
  {
    "id": 616,
    "name": "Digestive Healthcare Specialists, SC",
    "specialty": "Gastroenterology",
    "zip": null,
    "city": null,
    "state": null,
    "address": null,
    "phone": null,
    "premium_savings": 5
  },
  {
    "id": 617,
    "name": "Zahid N Dar, MD",
    "specialty": "Hematology & Oncology",
    "zip": "54904",
    "city": "OSHKOSH",
    "state": "WI",
    "address": "855 N WESTHAVEN DR",
    "phone": "(920) 303-8700",
    "premium_savings": 10
  },
  {
    "id": 618,
    "name": "Joyce R Philip, MD",
    "specialty": "Hematology & Oncology",
    "zip": "54911",
    "city": "APPLETON",
    "state": "WI",
    "address": "2500 E CAPITOL DR",
    "phone": "(920) 364-3600",
    "premium_savings": 15
  },
  {
    "id": 619,
    "name": "Thomas G Mattio, MD",
    "specialty": "Neurology",
    "zip": "54956",
    "city": "NEENAH",
    "state": "WI",
    "address": "1305 W AMERICAN DR",
    "phone": "(920) 725-9373",
    "premium_savings": 20
  },
  {
    "id": 620,
    "name": "Robert W Jones Jr., MD",
    "specialty": "Neurology",
    "zip": "54904",
    "city": "OSHKOSH",
    "state": "WI",
    "address": "2700 W 9TH AVE, SUITE 203",
    "phone": "(920) 223-2727",
    "premium_savings": 0
  },
  {
    "id": 621,
    "name": "Wilson H Luy Tan, MD",
    "specialty": "Neurology",
    "zip": "54904",
    "city": "OSHKOSH",
    "state": "WI",
    "address": "855 N WESTHAVEN DR",
    "phone": "(920) 303-8700",
    "premium_savings": 5
  },
  {
    "id": 622,
    "name": "Women'S Care of Wisconsin, S.C.",
    "specialty": "Obstetrics & Gynecology",
    "zip": null,
    "city": null,
    "state": null,
    "address": null,
    "phone": null,
    "premium_savings": 10
  },
  {
    "id": 623,
    "name": "Jessica L Nokovic, DO",
    "specialty": "Obstetrics & Gynecology",
    "zip": "54904",
    "city": "OSHKOSH",
    "state": "WI",
    "address": "855 N WESTHAVEN DR",
    "phone": "(920) 303-8700",
    "premium_savings": 15
  },
  {
    "id": 624,
    "name": "David M Bingham, DO",
    "specialty": "Orthopedic Surgery",
    "zip": "54904",
    "city": "OSHKOSH",
    "state": "WI",
    "address": "2700 W 9TH AVE STE 125",
    "phone": "(800) 322-2141",
    "premium_savings": 20
  },
  {
    "id": 625,
    "name": "Douglas M Miller, DO",
    "specialty": "Orthopedic Surgery",
    "zip": "54956",
    "city": "NEENAH",
    "state": "WI",
    "address": "1205 W AMERICAN DR",
    "phone": "(920) 430-8113",
    "premium_savings": 0
  },
  {
    "id": 626,
    "name": "Loren M Potter, DO",
    "specialty": "Orthopedic Surgery",
    "zip": "54904",
    "city": "OSHKOSH",
    "state": "WI",
    "address": "855 N WESTHAVEN DR",
    "phone": "(920) 303-8700",
    "premium_savings": 5
  },
  {
    "id": 627,
    "name": "William S Bodemer, MD",
    "specialty": "Orthopedic Surgery",
    "zip": "54913",
    "city": "APPLETON",
    "state": "WI",
    "address": "5320 W MICHAELS DR",
    "phone": "(920) 882-8200",
    "premium_savings": 10
  },
  {
    "id": 628,
    "name": "Bryan Royce MD",
    "specialty": "Orthopedic Surgery",
    "zip": "54904",
    "city": "OSHKOSH",
    "state": "WI",
    "address": "2700 W 9TH AVE STE 125",
    "phone": "(920) 430-8113",
    "premium_savings": 15
  },
  {
    "id": 629,
    "name": "Stephen Paul Nystrom, DO",
    "specialty": "Orthopedic Surgery",
    "zip": "54904",
    "city": "OSHKOSH",
    "state": "WI",
    "address": "855 N WESTHAVEN DR",
    "phone": "(920) 303-8700",
    "premium_savings": 20
  },
  {
    "id": 630,
    "name": "Jacob R Seiler, MD",
    "specialty": "Orthopedic Surgery",
    "zip": "54956",
    "city": "NEENAH",
    "state": "WI",
    "address": "1205 WEST AMERICAN DRIVE",
    "phone": "(920) 430-8113",
    "premium_savings": 0
  },
  {
    "id": 631,
    "name": "Luke T Fraundorf MD",
    "specialty": "Orthopedic Surgery",
    "zip": "54904",
    "city": "OSHKOSH",
    "state": "WI",
    "address": "2700 W 9TH AVE STE 125",
    "phone": "(920) 430-8113",
    "premium_savings": 5
  },
  {
    "id": 632,
    "name": "John T Grandone MD",
    "specialty": "Rheumatology",
    "zip": "54956",
    "city": "NEENAH",
    "state": "WI",
    "address": "200 THEDA CLARK MEDICAL PLZ STE 240",
    "phone": "(920) 729-2710",
    "premium_savings": 10
  },
  {
    "id": 633,
    "name": "Chantelle Carneiro, MD",
    "specialty": "Rheumatology",
    "zip": "54904",
    "city": "OSHKOSH",
    "state": "WI",
    "address": "855 N WESTHAVEN DR",
    "phone": "(920) 303-8700",
    "premium_savings": 15
  },
  {
    "id": 634,
    "name": "Racine Digestive Health Center, LLC",
    "specialty": "Ambulatory Surgical Center",
    "zip": "53177",
    "city": "STURTEVANT",
    "state": "WI",
    "address": "10340 WASHINGTON AVE STE 100",
    "phone": "(414) 908-6500",
    "premium_savings": 20
  },
  {
    "id": 635,
    "name": "Southern Lakes Endoscopy, LLC",
    "specialty": "Ambulatory Surgical Center",
    "zip": "53149",
    "city": "MUKWONAGO",
    "state": "WI",
    "address": "240 MAPLE AVE STE 2220",
    "phone": "(414) 454-0600",
    "premium_savings": 0
  },
  {
    "id": 636,
    "name": "Michael L Papp, DO",
    "specialty": "Cardiology",
    "zip": "53405",
    "city": "RACINE",
    "state": "WI",
    "address": "3803 SPRING ST",
    "phone": "(262) 687-3973",
    "premium_savings": 5
  },
  {
    "id": 637,
    "name": "Terry a Zarling, MD",
    "specialty": "Cardiology",
    "zip": "53149",
    "city": "MUKWONAGO",
    "state": "WI",
    "address": "240 MAPLE AVE",
    "phone": "(262) 928-8800",
    "premium_savings": 10
  },
  {
    "id": 638,
    "name": "Dana M Griffin, MD",
    "specialty": "Dermatology",
    "zip": "53406",
    "city": "RACINE",
    "state": "WI",
    "address": "1151 WARWICK WAY",
    "phone": "(262) 321-6300",
    "premium_savings": 15
  },
  {
    "id": 639,
    "name": "Michael Brent Dreifke, MD",
    "specialty": "Dermatology",
    "zip": "53406",
    "city": "MOUNT PLEASANT",
    "state": "WI",
    "address": "1300 S GREEN BAY RD STE 100",
    "phone": "(262) 619-4191",
    "premium_savings": 20
  },
  {
    "id": 640,
    "name": "Forefront Dermatology, S.C.",
    "specialty": "Dermatology",
    "zip": "53406",
    "city": "MOUNT PLEASANT",
    "state": "WI",
    "address": "1300 S GREEN BAY RD, SUITE 100",
    "phone": "(262) 619-4191",
    "premium_savings": 0
  },
  {
    "id": 641,
    "name": "Irina Ciubotaru, MD",
    "specialty": "Endocrinology",
    "zip": "53405",
    "city": "MOUNT PLEASANT",
    "state": "WI",
    "address": "3807 SPRING ST STE 310",
    "phone": "(262) 687-8115",
    "premium_savings": 5
  },
  {
    "id": 642,
    "name": "Amy J Fisco, MD",
    "specialty": "Endocrinology",
    "zip": "53405",
    "city": "MOUNT PLEASANT",
    "state": "WI",
    "address": "3805A SPRING ST",
    "phone": "(262) 687-8115",
    "premium_savings": 10
  },
  {
    "id": 643,
    "name": "Peter D Han, MD",
    "specialty": "Gastroenterology",
    "zip": "53142",
    "city": "KENOSHA",
    "state": "WI",
    "address": "10400 75TH ST",
    "phone": "(262) 948-7000",
    "premium_savings": 15
  },
  {
    "id": 644,
    "name": "Syed Murtuza Hussain MD",
    "specialty": "Gastroenterology",
    "zip": "53215",
    "city": "MILWAUKEE",
    "state": "WI",
    "address": "2801 W KINNICKINNIC RIVER PKWY STE 1080",
    "phone": "(414) 908-6601",
    "premium_savings": 20
  },
  {
    "id": 645,
    "name": "Syed a Hassan, MD",
    "specialty": "Hematology & Oncology",
    "zip": "53406",
    "city": "MOUNT PLEASANT",
    "state": "WI",
    "address": "8400 WASHINGTON AVE",
    "phone": "(262) 884-8340",
    "premium_savings": 0
  },
  {
    "id": 646,
    "name": "Michael P Mullane, MD",
    "specialty": "Hematology & Oncology",
    "zip": "53406",
    "city": "MOUNT PLEASANT",
    "state": "WI",
    "address": "8400 WASHINGTON AVE",
    "phone": "(262) 884-8340",
    "premium_savings": 5
  },
  {
    "id": 647,
    "name": "William P Bake, DO",
    "specialty": "Neurology",
    "zip": "53405",
    "city": "MOUNT PLEASANT",
    "state": "WI",
    "address": "3805B SPRING ST",
    "phone": "(262) 687-8322",
    "premium_savings": 10
  },
  {
    "id": 648,
    "name": "Michael J Mitchell, MD",
    "specialty": "Neurology",
    "zip": "53177",
    "city": "MOUNT PLEASANT",
    "state": "WI",
    "address": "13250 WASHINGTON AVE",
    "phone": "(888) 720-2012",
    "premium_savings": 15
  },
  {
    "id": 649,
    "name": "Hui Zhang, MD",
    "specialty": "Orthopedic Surgery",
    "zip": "53154",
    "city": "OAK CREEK",
    "state": "WI",
    "address": "200 E RYAN RD",
    "phone": "(414) 570-3590",
    "premium_savings": 20
  },
  {
    "id": 650,
    "name": "Eric R Anderson, MD",
    "specialty": "Rheumatology",
    "zip": "53066",
    "city": "OCONOMOWOC",
    "state": "WI",
    "address": "1185 CORPORATE CTR DR",
    "phone": "(262) 785-0777",
    "premium_savings": 0
  },
  {
    "id": 651,
    "name": "Robert M Horth, MD",
    "specialty": "Cardiology",
    "zip": "53073",
    "city": "PLYMOUTH",
    "state": "WI",
    "address": "2631 EASTERN AVE",
    "phone": "(920) 476-6350",
    "premium_savings": 5
  },
  {
    "id": 652,
    "name": "Louie Coulis MD",
    "specialty": "Cardiology",
    "zip": "53081",
    "city": "SHEBOYGAN",
    "state": "WI",
    "address": "1414 N TAYLOR DR",
    "phone": "(920) 458-9800",
    "premium_savings": 10
  },
  {
    "id": 653,
    "name": "Daniel R Opel, MD",
    "specialty": "Dermatology",
    "zip": "53081",
    "city": "SHEBOYGAN",
    "state": "WI",
    "address": "2414 KOHLER MEMORIAL DR",
    "phone": "(920) 457-4461",
    "premium_savings": 15
  },
  {
    "id": 654,
    "name": "Rachael Bree Hosein, MD",
    "specialty": "Endocrinology",
    "zip": "53081",
    "city": "SHEBOYGAN",
    "state": "WI",
    "address": "2414 KOHLER MEMORIAL DR",
    "phone": "(920) 457-4461",
    "premium_savings": 20
  },
  {
    "id": 655,
    "name": "Pennapa S Chan, MD",
    "specialty": "Endocrinology",
    "zip": "53717",
    "city": "MADISON",
    "state": "WI",
    "address": "451 JUNCTION RD",
    "phone": "(608) 263-5010",
    "premium_savings": 0
  },
  {
    "id": 656,
    "name": "Dominic Michael Colella, DO",
    "specialty": "Gastroenterology",
    "zip": "53081",
    "city": "SHEBOYGAN",
    "state": "WI",
    "address": "2414 KOHLER MEMORIAL DR",
    "phone": "(920) 457-4461",
    "premium_savings": 5
  },
  {
    "id": 657,
    "name": "Nicholas J Gustafson",
    "specialty": "Hematology & Oncology",
    "zip": "53081",
    "city": "SHEBOYGAN",
    "state": "WI",
    "address": "1222 N 23RD ST",
    "phone": "(920) 457-6800",
    "premium_savings": 10
  },
  {
    "id": 658,
    "name": "H Marshall Matthews, MD",
    "specialty": "Hematology & Oncology",
    "zip": "53081",
    "city": "SHEBOYGAN",
    "state": "WI",
    "address": "1621 N TAYLOR DR, SUITE 100",
    "phone": "(920) 458-7433",
    "premium_savings": 15
  },
  {
    "id": 659,
    "name": "Kun Xiao, MD",
    "specialty": "Hematology & Oncology",
    "zip": "53081",
    "city": "SHEBOYGAN",
    "state": "WI",
    "address": "1222 N 23RD ST",
    "phone": "(920) 457-6800",
    "premium_savings": 20
  },
  {
    "id": 660,
    "name": "Paul V Tuttle III, MD",
    "specialty": "Neurology",
    "zip": "53081",
    "city": "SHEBOYGAN",
    "state": "WI",
    "address": "2414 KOHLER MEMORIAL DR",
    "phone": "(920) 457-4461",
    "premium_savings": 0
  },
  {
    "id": 661,
    "name": "Alison M Fernandes, MD",
    "specialty": "Rheumatology",
    "zip": "53081",
    "city": "SHEBOYGAN",
    "state": "WI",
    "address": "2414 KOHLER MEMORIAL DR",
    "phone": "(920) 457-4461",
    "premium_savings": 5
  },
  {
    "id": 662,
    "name": "Bone & Joint Surgery Center",
    "specialty": "Ambulatory Surgical Center",
    "zip": "54401",
    "city": "WAUSAU",
    "state": "WI",
    "address": "225000 HUMMINGBIRD RD STE 300",
    "phone": "(715) 359-7592",
    "premium_savings": 10
  },
  {
    "id": 663,
    "name": "Mchs Freestanding Clinic Physician Group",
    "specialty": "Ambulatory Surgical Center",
    "zip": "54401",
    "city": "WAUSAU",
    "state": "WI",
    "address": "2727 PLAZA DR",
    "phone": "(715) 847-3000",
    "premium_savings": 15
  },
  {
    "id": 664,
    "name": "Gastrointestinal Associates Endoscopy Center, LLC",
    "specialty": "Ambulatory Surgical Center",
    "zip": "54401",
    "city": "WAUSAU",
    "state": "WI",
    "address": "411 WESTWOOD DR",
    "phone": "(715) 847-2558",
    "premium_savings": 20
  },
  {
    "id": 665,
    "name": "Mchs Freestanding Clinic Physician Group",
    "specialty": "Ambulatory Surgical Center",
    "zip": "54401",
    "city": "WAUSAU",
    "state": "WI",
    "address": "2727 PLAZA DR",
    "phone": "(715) 847-3000",
    "premium_savings": 0
  },
  {
    "id": 666,
    "name": "Nicholas P Wyskoarko, MD",
    "specialty": "Cardiology",
    "zip": "54476",
    "city": "WESTON",
    "state": "WI",
    "address": "3400 MINISTRY PKWY",
    "phone": "(715) 393-1220",
    "premium_savings": 5
  },
  {
    "id": 667,
    "name": "Pavel Guigauri, MD",
    "specialty": "Cardiology",
    "zip": "54401",
    "city": "WAUSAU",
    "state": "WI",
    "address": "500 WIND RIDGE DR",
    "phone": "(715) 847-2611",
    "premium_savings": 10
  },
  {
    "id": 668,
    "name": "Michael P Kehoe MD",
    "specialty": "Dermatology",
    "zip": "54401",
    "city": "WAUSAU",
    "state": "WI",
    "address": "425 PINE RIDGE BLVD STE 305A",
    "phone": "(715) 847-2626",
    "premium_savings": 15
  },
  {
    "id": 669,
    "name": "Robert J Aylesworth, MD",
    "specialty": "Dermatology",
    "zip": "54501",
    "city": "RHINELANDER",
    "state": "WI",
    "address": "550 E TIMBER DR",
    "phone": "(715) 369-4500",
    "premium_savings": 20
  },
  {
    "id": 670,
    "name": "Andrew C Duncanson, DO",
    "specialty": "Dermatology",
    "zip": "54401",
    "city": "WAUSAU",
    "state": "WI",
    "address": "510 N 17TH AVE STE C",
    "phone": "(715) 849-5333",
    "premium_savings": 0
  },
  {
    "id": 671,
    "name": "Michael T Sheehan, MD",
    "specialty": "Endocrinology",
    "zip": "54476",
    "city": "WESTON",
    "state": "WI",
    "address": "3501 CRANBERRY BLVD",
    "phone": "(715) 393-1000",
    "premium_savings": 5
  },
  {
    "id": 672,
    "name": "Raymond L Hartke, MD",
    "specialty": "Gastroenterology",
    "zip": "54401",
    "city": "WAUSAU",
    "state": "WI",
    "address": "411 WESTWOOD DR",
    "phone": "(715) 847-2558",
    "premium_savings": 10
  },
  {
    "id": 673,
    "name": "Veronika Gagovic, MD",
    "specialty": "Gastroenterology",
    "zip": "54401",
    "city": "WAUSAU",
    "state": "WI",
    "address": "411 WESTWOOD DR",
    "phone": "(715) 847-2558",
    "premium_savings": 15
  },
  {
    "id": 674,
    "name": "Frank Leon Jr., DO",
    "specialty": "Gastroenterology",
    "zip": "54476",
    "city": "WESTON",
    "state": "WI",
    "address": "3501 CRANBERRY BLVD",
    "phone": "(715) 393-1000",
    "premium_savings": 20
  },
  {
    "id": 675,
    "name": "James Ray Schlais, MD",
    "specialty": "Gastroenterology",
    "zip": "54401",
    "city": "WAUSAU",
    "state": "WI",
    "address": "411 WESTWOOD DR",
    "phone": "(715) 847-2558",
    "premium_savings": 0
  },
  {
    "id": 676,
    "name": "Eric a Johnson, MD",
    "specialty": "Gastroenterology",
    "zip": "54401",
    "city": "WAUSAU",
    "state": "WI",
    "address": "411 WESTWOOD DR",
    "phone": "(715) 847-2558",
    "premium_savings": 5
  },
  {
    "id": 677,
    "name": "Gastrointestinal Associates, S.C.",
    "specialty": "Gastroenterology",
    "zip": "54401",
    "city": "WAUSAU",
    "state": "WI",
    "address": "411 WESTWOOD DR",
    "phone": "(715) 847-2558",
    "premium_savings": 10
  },
  {
    "id": 678,
    "name": "Christopher Gary Peterson, MD",
    "specialty": "Hematology & Oncology",
    "zip": "54401",
    "city": "WAUSAU",
    "state": "WI",
    "address": "333 PINE RIDGE BLVD",
    "phone": "(715) 847-2866",
    "premium_savings": 15
  },
  {
    "id": 679,
    "name": "Marie a Tomasi, MD",
    "specialty": "Neurology",
    "zip": "54476",
    "city": "WESTON",
    "state": "WI",
    "address": "3501 CRANBERRY BLVD",
    "phone": "(715) 393-1000",
    "premium_savings": 20
  },
  {
    "id": 680,
    "name": "Janel S Schneider, MD",
    "specialty": "Neurology",
    "zip": "53226",
    "city": "MILWAUKEE",
    "state": "WI",
    "address": "9000 W WISCONSIN AVE",
    "phone": "(414) 266-3464",
    "premium_savings": 0
  },
  {
    "id": 681,
    "name": "Nancy L Aguirre De Baker, MD",
    "specialty": "Obstetrics & Gynecology",
    "zip": "53538",
    "city": "FORT ATKINSON",
    "state": "WI",
    "address": "650 MCMILLEN ST",
    "phone": "(920) 563-8900",
    "premium_savings": 5
  },
  {
    "id": 682,
    "name": "Anthony J Bell, DO",
    "specialty": "Obstetrics & Gynecology",
    "zip": "54401",
    "city": "WAUSAU",
    "state": "WI",
    "address": "2720 PLAZA DR, SUITE # 2100",
    "phone": "(715) 847-2475",
    "premium_savings": 10
  },
  {
    "id": 683,
    "name": "Adam Lee Halverson, DO",
    "specialty": "Orthopedic Surgery",
    "zip": "54401",
    "city": "WAUSAU",
    "state": "WI",
    "address": "225000 HUMMINGBIRD RD STE 100",
    "phone": "(715) 359-6442",
    "premium_savings": 15
  },
  {
    "id": 684,
    "name": "Casey Lee Lagan, MD",
    "specialty": "Orthopedic Surgery",
    "zip": "54401",
    "city": "WAUSAU",
    "state": "WI",
    "address": "225000 HUMMINGBIRD RD STE 100",
    "phone": "(715) 359-6442",
    "premium_savings": 20
  },
  {
    "id": 685,
    "name": "Orthopaedic Associates of Wausau",
    "specialty": "Orthopedic Surgery",
    "zip": null,
    "city": null,
    "state": null,
    "address": null,
    "phone": null,
    "premium_savings": 0
  },
  {
    "id": 686,
    "name": "Roger E Gregush, DO",
    "specialty": "Orthopedic Surgery",
    "zip": "54401",
    "city": "WAUSAU",
    "state": "WI",
    "address": "225000 HUMMINGBIRD RD STE 100",
    "phone": "(800) 445-6442",
    "premium_savings": 5
  },
  {
    "id": 687,
    "name": "James P Sutherland Jr., MD",
    "specialty": "Orthopedic Surgery",
    "zip": "54401",
    "city": "WAUSAU",
    "state": "WI",
    "address": "3901 STEWART AVE",
    "phone": "(715) 907-0900",
    "premium_savings": 10
  },
  {
    "id": 688,
    "name": "Douglas J Keele, DO",
    "specialty": "Orthopedic Surgery",
    "zip": "54401",
    "city": "WAUSAU",
    "state": "WI",
    "address": "225000 HUMMINGBIRD RD STE 100",
    "phone": "(715) 359-6442",
    "premium_savings": 15
  },
  {
    "id": 689,
    "name": "Mark D Earll, MD",
    "specialty": "Orthopedic Surgery",
    "zip": "54476",
    "city": "WESTON",
    "state": "WI",
    "address": "3501 CRANBERRY BLVD",
    "phone": "(715) 387-5202",
    "premium_savings": 20
  },
  {
    "id": 690,
    "name": "Gregory P Harbach, MD",
    "specialty": "Orthopedic Surgery",
    "zip": "54501",
    "city": "RHINELANDER",
    "state": "WI",
    "address": "444 E TIMBER DR",
    "phone": "(715) 369-2300",
    "premium_savings": 0
  },
  {
    "id": 691,
    "name": "Orthopaedic Associates of Wausau",
    "specialty": "Orthopedic Surgery",
    "zip": "54401",
    "city": "WAUSAU",
    "state": "WI",
    "address": "3901 STEWART AVE",
    "phone": "(715) 907-0900",
    "premium_savings": 5
  },
  {
    "id": 692,
    "name": "Eric J Thiel, MD",
    "specialty": "Orthopedic Surgery",
    "zip": "54401",
    "city": "WAUSAU",
    "state": "WI",
    "address": "225000 HUMMINGBIRD RD STE 100",
    "phone": "(715) 359-6442",
    "premium_savings": 10
  },
  {
    "id": 693,
    "name": "Vera Bocoun, MD",
    "specialty": "Rheumatology",
    "zip": "54401",
    "city": "WAUSAU",
    "state": "WI",
    "address": "2727 PLAZA DR",
    "phone": "(715) 847-3563",
    "premium_savings": 15
  },
  {
    "id": 694,
    "name": "Jan Z Ciejka, MD",
    "specialty": "Rheumatology",
    "zip": "54401",
    "city": "WAUSAU",
    "state": "WI",
    "address": "2720 PLAZA DR STE 1400A",
    "phone": "(715) 847-0426",
    "premium_savings": 20
  }
]